# 1992  6  3 21 35 57.12  35.9368 -120.4908    9.74 1.75  0.32  0.28  0.06     285515
NCPMM       2.490   1.000   P
NCPST       2.090   0.500   P
NCPVC       2.280   1.000   P
NCPVC       3.850   1.000   S
NCPRP       3.140   0.500   P
NCPHO       2.740   1.000   P
NCPHO       4.760   0.500   S
NCPHF       2.870   1.000   P
NCPPC       2.640   1.000   P
NCPHP       2.930   1.000   P
NCPCA       3.980   0.500   P
NCPHA       3.440   1.000   P
NCPWK       3.590   1.000   P
NCPGH       3.690   1.000   P
NCPSM       4.350   0.500   P
NCPCR       4.570   0.500   P
NCPSR       4.430   1.000   P
NCPMC       5.430   0.500   P
NCPMR       5.690   1.000   P
NCPPT       5.590   1.000   P
NCPAG       6.250   0.200   P
NCPRC       7.730   0.200   P
NCPSA       6.850   1.000   P
NCPSC       7.360   0.500   P
NCPAN       7.540   0.200   P
NCPAD       8.590   1.000   P
NCPIR       9.220   1.000   P
NCPHS       9.260   1.000   P
NCPMG       9.730   1.000   P
NCPBM      10.680   0.500   P
NCPJL      10.890   0.500   P
CIBCH      15.630   1.000   P
NCBVL      16.630   1.000   P
NCBJC      18.030   0.500   P
# 1992  7 31 10  3  4.53  35.9650 -120.5250    9.68 1.27  0.18  0.30  0.06     307864
NCPMM       2.520   0.200   P
NCPMM       4.350   0.200   S
NCPST       2.240   1.000   P
NCPRP       3.020   0.500   P
NCPVC       2.400   1.000   P
NCPVC       4.000   0.200   S
NCPPC       2.410   1.000   P
NCPPC       4.040   0.200   S
NCPHP       2.540   1.000   P
NCPHP       4.260   0.100   S
NCPHO       3.240   1.000   P
NCPHO       5.660   0.200   S
NCPSM       3.750   0.500   P
NCPHF       3.690   0.200   P
NCPCR       4.280  -1.000   P
NCPCA       4.540   1.000   P
NCPWK       4.080   1.000   P
NCPHA       4.100   0.200   P
NCPGH       4.650   0.200   P
NCPPT       4.940   0.500   P
NCPSR       5.130   0.200   P
NCPSA       6.330   0.500   P
NCPAG       7.030   0.200   P
NCPMP       7.110   0.200   P
NCPSC       7.920   0.500   P
NCPAD       8.550   0.200   P
NCPHS       9.000   0.500   P
NCPIR       9.820   0.200   P
NCPLO       9.840   0.500   P
NCPBP      10.990   0.200   P
NCPJL      10.350   0.200   P
NCPMG      10.220   0.200   P
NCBPI      13.980   0.200   P
NCBAP      17.410   0.200   P
# 1992 10  1  6 11 36.27  35.9400 -120.4965    9.05 1.83  0.22  0.27  0.06     318588
NCPMM       2.380   0.500   P
NCPMM       4.100   0.100   S
NCPST       2.010   1.000   P
NCPVC       2.190   1.000   P
NCPVC       3.660   0.200   S
NCPHO       2.750   1.000   P
NCPHO       4.790   0.100   S
NCPPC       2.540   1.000   P
NCPPC       4.220   0.100   S
NCPHP       2.820   1.000   P
NCPHP       4.770   0.100   S
NCPCA       4.050   1.000   P
NCPHA       3.520   0.500   P
NCPWK       3.630   1.000   P
NCPSM       4.240   0.500   P
NCPCR       4.500   0.500   P
NCPGH       3.720   0.200   P
NCPSR       4.550   1.000   P
NCPMC       5.540   0.500   P
NCPPT       5.500   1.000   P
NCPMR       5.650   0.500   P
NCPAG       6.300   0.200   P
NCPSA       6.810   0.500   P
NCPSC       7.460   1.000   P
NCPTR       7.810   0.500   P
NCPMP       7.690   0.500   P
NCPAN       7.580   0.500   P
NCPDR       9.630   0.200   P
NCPAD       8.570   0.200   P
NCPIR       9.260   0.500   P
NCPHS       9.280   0.500   P
NCPBP      10.560   0.100   P
NCPMG       9.820   1.000   P
NCPLO      10.410   0.500   P
NCPJL      10.760   0.100   P
NCPTA      11.310   1.000   P
NCBPI      14.540   0.100   P
# 1992 10  1  6 55 46.14  35.9428 -120.4963    9.05 1.21  0.27  0.41  0.05     318592
NCPMM       2.380   0.200   P
NCPMM       4.130   0.100   S
NCPST       2.030   0.500   P
NCPVC       3.670   0.100   S
NCPVC       2.210   0.200   P
NCPHO       2.750   1.000   P
NCPHO       4.760   0.200   S
NCPPC       2.560   1.000   P
NCPPC       4.240   0.100   S
NCPHP       2.850   1.000   P
NCPCA       4.050   0.500   P
NCPHA       3.500   0.100   P
NCPWK       3.640  -1.000   P
NCPSM       4.260   0.200   P
NCPGH       3.650   0.100   P
NCPSR       4.560   0.500   P
NCPPT       5.540   0.500   P
NCPMR       5.700   0.200   P
NCPSA       6.640   0.100   P
NCPAN       7.560   0.100   P
NCPAD       8.590   0.100   P
NCPIR       9.240   0.100   P
NCPHS       9.100   0.100   P
NCPMG       9.830   0.200   P
NCPLO      10.430   0.200   P
NCPJL      10.890   0.200   P
# 1992 10  7 13  4 28.47  35.9700 -120.5292    3.83 2.79  0.14  0.21  0.07     319103
NCPMM       1.540   1.000   P
NCPST       1.490   1.000   P
NCPVC       1.670   1.000   P
NCPPC       1.670   1.000   P
NCPPC       2.780   0.100   S
NCPHP       1.790   1.000   P
NCPSM       3.280   1.000   P
NCPHO       3.000   1.000   P
NCPHF       3.500   0.500   P
NCPCR       4.080   1.000   P
NCPCA       4.640   1.000   P
NCPWK       3.980   1.000   P
NCPHA       4.110   1.000   P
NCPGH       4.520   0.500   P
NCPPT       4.720   1.000   P
NCPSR       5.420   1.000   P
NCPMC       6.270   1.000   P
NCPSA       6.270   1.000   P
NCPMR       6.570   0.500   P
NCPAR       8.040   0.500   P
NCPMP       7.050   1.000   P
NCPAG       7.090   0.500   P
NCPKE       9.080   1.000   P
NCPAN       7.600   1.000   P
NCPDR       9.250   0.500   P
NCPSC       8.160   1.000   P
NCPOP       8.240   0.200   P
NCPTR       8.520   0.200   P
NCPAD       8.800   0.500   P
NCPHB      11.670   0.200   P
NCPHS       9.160   1.000   P
NCPIR       9.960   0.500   P
NCPLO       9.810   1.000   P
NCPBP      11.110   0.200   P
NCPMG      10.500   1.000   P
NCPHC      11.620   0.200   P
NCPBM      11.580   1.000   P
NCPTA      11.820   1.000   P
NCBRV      12.110   0.200   P
NCPCB      12.530   0.500   P
NCPAP      13.090   1.000   P
CIYEG      14.110   0.500   P
NCPKY      14.050   0.500   P
NCBMS      15.060   0.200   P
NCBBG      15.050   0.100   P
NCBPI      13.750   0.200   P
NCBSG      13.720   0.500   P
CISIM      14.990   0.200   P
NCPPB      15.320   0.100   P
NCBAV      15.670   0.100   P
NCPBI      15.970   0.200   P
NCPAB      16.360   1.000   P
NCBEH      17.530   0.200   P
NCBCW      17.030   0.500   P
NCBLR      17.970   0.200   P
NCBAP      17.550   1.000   P
NCBHR      19.420   0.500   P
NCBPO      19.240   1.000   P
NCBVY      19.790   0.200   P
NCBSR      19.640   0.200   P
NCBPR      19.860   1.000   P
NCBPC      20.430   1.000   P
NCHFP      20.680   0.200   P
NCHJG      21.570   0.200   P
NCJRG      27.320   0.500   P
# 1992 10 22 10 15 52.37  35.9580 -120.5140    2.58 1.12  0.26  0.40  0.05     321607
NCPMM       1.110  -1.000   P
NCPMM       2.040   0.100   S
NCPST       1.090   1.000   P
NCPVC       1.380   1.000   P
NCPVC       2.430   0.100   S
NCPPC       1.720   1.000   P
NCPHP       2.000   0.500   P
NCPHP       3.420   0.100   S
NCPHO       2.570   1.000   P
NCPHF       3.180   1.000   P
NCPSM       3.660   0.100   P
NCPCA       4.220   0.500   P
NCPCR       4.320   0.500   P
NCPWK       3.640   1.000   P
NCPHA       3.850   0.200   P
NCPPT       5.050  -1.000   P
NCPMR       6.290   0.200   P
NCPJL      10.780   0.200   P
NCBPI      14.410   0.500   P
# 1992 10 26  6 52 15.25  35.9427 -120.5028    9.11 1.30  0.18  0.27  0.05     320979
NCPMM       2.330   0.200   P
NCPMM       4.200   0.100   S
NCPST       2.000   1.000   P
NCPVC       2.200   1.000   P
NCPVC       3.650   0.200   S
NCPPC       2.500   1.000   P
NCPPC       4.150   0.200   S
NCPHO       2.810   1.000   P
NCPHO       4.850   0.200   S
NCPHP       2.750   1.000   P
NCPHP       4.700   0.200   S
NCPHF       3.000   0.200   P
NCPHF       5.430   0.200   S
NCPCA       4.130   1.000   P
NCPWK       3.700   1.000   P
NCPHA       3.690   0.100   P
NCPSM       4.150   1.000   P
NCPCR       4.440   1.000   P
NCPSR       4.650   1.000   P
NCPMC       5.630   0.200   P
NCPPT       5.410   1.000   P
NCPMR       5.790   0.500   P
NCPSA       6.700   1.000   P
NCPMP       7.620   0.200   P
NCPSC       7.550   1.000   P
NCPAN       7.570   0.200   P
NCPAD       8.610   1.000   P
NCPIR       9.340   0.100   P
NCPHS       9.230   1.000   P
NCPMG       9.890   1.000   P
NCPLO      10.340   0.200   P
NCPJL      10.800   0.500   P
NCPTA      11.220   0.200   P
NCPAP      13.210   0.200   P
NCBPI      14.390   0.200   P
NCBSG      14.280   0.100   P
NCBVL      16.380   0.200   P
NCBJC      17.380   0.200   P
# 1992 10 26  6 55 14.73  35.9430 -120.4968    9.18 3.20  0.17  0.23  0.07     320981
NCPMM       2.390   1.000   P
NCPST       2.030   1.000   P
NCPVC       2.230   1.000   P
NCPHO       2.840   1.000   P
NCPPC       2.540   1.000   P
NCPHP       2.790   1.000   P
NCPHF       3.020   1.000   P
NCPCA       4.140   1.000   P
NCPWK       3.720   1.000   P
NCPHA       3.640   1.000   P
NCPSM       4.200   1.000   P
NCPCR       4.490   1.000   P
NCPGH       3.910   1.000   P
NCPSR       4.670   1.000   P
NCPMC       5.660   1.000   P
NCPMC       9.750   0.100   S
NCPPT       5.450   1.000   P
NCPMR       5.780   1.000   P
NCPAG       6.280   1.000   P
NCPAR       8.240   0.200   P
NCPKE       8.600   0.200   P
NCPSA       6.740   0.500   P
NCPOP       7.380   1.000   P
NCPSC       7.570   1.000   P
NCPMP       7.650   1.000   P
NCPTR       7.780   1.000   P
NCPAN       7.600   1.000   P
NCPDR       9.560   1.000   P
NCPAD       8.600   0.500   P
NCPPG      10.550   1.000   P
NCPHB      11.370   1.000   P
NCPIR       9.290   1.000   P
NCPHS       9.270   1.000   P
NCPBP      10.230   0.200   P
NCPHR      10.590   0.200   P
NCPMG       9.920   1.000   P
NCPLO      10.370   1.000   P
NCPJL      10.830   1.000   P
NCPBM      10.940   1.000   P
NCPTA      11.330   1.000   P
NCPHC      11.600   1.000   P
NCPCB      12.380   0.100   P
NCBRV      12.690   0.500   P
CIYEG      13.340   0.200   P
NCPKY      13.520   1.000   P
NCPAP      13.280   1.000   P
CISIM      14.280   1.000   P
NCBMS      15.140   0.200   P
NCPPB      14.900   0.200   P
NCBBG      15.750   1.000   P
NCBPI      14.330   1.000   P
NCBSG      14.230   0.500   P
NCPBI      15.380   1.000   P
NCPAB      15.600   0.500   P
NCBAV      29.890   0.100   S
NCBVL      15.930   0.500   P
NCBEM      16.800   0.100   P
NCBSM      16.290   1.000   P
NCBEH      17.820   0.500   P
NCBJO      17.360   1.000   P
NCBCW      17.350   1.000   P
CICRG      18.270   1.000   P
NCBJC      17.310   1.000   P
NCBLR      18.510   0.200   P
NCBAP      17.770   0.200   P
NCBHR      19.450   0.500   P
NCBCG      19.140   0.200   P
CISCC      19.390   1.000   P
NCBPO      19.650   1.000   P
NCBVY      20.100   1.000   P
NCBSR      19.720   1.000   P
NCBPR      19.580   0.200   P
NCBPC      20.480   1.000   P
NCHFP      20.420   1.000   P
CIPKM      21.930   0.500   P
NCHJG      21.630   0.500   P
NCMHD      22.700   1.000   P
NCHMO      23.310   0.200   P
NCHCR      23.620   0.100   P
NCJRR      25.800   1.000   P
CIWOF      25.770   0.200   P
NCJRG      26.960   0.500   P
CIWJP      29.390   0.500   P
CIBMT      29.620   0.200   P
# 1992 10 26  7  5 57.73  35.9392 -120.4980    8.98 2.10  0.16  0.23  0.07     320982
NCPMM       2.400   0.200   P
NCPST       2.030   1.000   P
NCPVC       2.230   1.000   P
NCPVC       3.680   0.200   S
NCPHO       2.790   1.000   P
NCPHO       4.850   0.200   S
NCPPC       2.560   1.000   P
NCPPC       4.240   0.200   S
NCPHF       2.960   1.000   P
NCPHF       5.330   0.200   S
NCPHP       2.830   1.000   P
NCPHP       4.810   0.200   S
NCPCA       4.110   1.000   P
NCPHA       3.570   0.500   P
NCPWK       3.670   1.000   P
NCPSM       4.240   1.000   P
NCPCR       4.510   1.000   P
NCPGH       3.840   0.100   P
NCPSR       4.600   1.000   P
NCPMC       5.580   1.000   P
NCPPT       5.500   1.000   P
NCPMR       5.720   1.000   P
NCPAG       6.330   0.200   P
NCPAR       8.260   0.200   P
NCPOP       7.790   1.000   P
NCPSC       7.500   0.500   P
NCPTR       7.750   0.100   P
NCPMP       7.720   0.500   P
NCPAN       7.600   1.000   P
NCPDR       9.720   0.200   P
NCPAD       8.590   0.200   P
NCPIR       9.250   0.200   P
NCPHS       9.280   1.000   P
NCPBP      10.430   0.100   P
NCPMG       9.860   1.000   P
NCPLO      10.430   1.000   P
NCPBM      10.880   1.000   P
NCPJL      10.880   1.000   P
NCPTA      11.280   1.000   P
NCPHC      11.640   0.100   P
NCPCB      12.550   0.100   P
NCBRV      12.950   0.100   P
CIYEG      13.390   0.200   P
NCPKY      13.370   0.100   P
NCPAP      13.290   0.200   P
CISIM      14.360   0.100   P
NCBPI      14.520   0.200   P
NCBSG      14.310   0.200   P
NCBAV      16.380   0.100   P
CIBCH      15.680   0.100   P
NCBJO      17.520   0.200   P
NCBJC      17.540   0.500   P
NCBAP      17.880   0.200   P
NCBPR      20.200   0.200   P
NCBPC      20.550   0.200   P
# 1992 10 26  7 27 40.67  35.9427 -120.4943    9.34 3.63  0.17  0.20  0.07     320983
NCPMM       2.420   1.000   P
NCPST       2.050   1.000   P
NCPVC       2.250   1.000   P
NCPHO       2.810   1.000   P
NCPPC       2.570   1.000   P
NCPHF       3.000   0.200   P
NCPHP       2.840   1.000   P
NCPCA       4.120   1.000   P
NCPHA       3.600   1.000   P
NCPWK       3.690   1.000   P
NCPSM       4.250   1.000   P
NCPGH       3.860   1.000   P
NCPSR       4.620   1.000   P
NCPMC       5.610   1.000   P
NCPPT       5.510   1.000   P
NCPMR       5.730   1.000   P
NCPAG       6.250   0.500   P
NCPAR       8.050   0.100   P
NCPKE       8.590   0.500   P
NCPSA       6.790   1.000   P
NCPOP       7.330   1.000   P
NCPSC       7.530   1.000   P
NCPMP       7.690   1.000   P
NCPTR       7.720   0.200   P
NCPAN       7.610   1.000   P
NCPDR       9.600   0.500   P
NCPAD       8.610   0.500   P
NCPPG      10.510   1.000   P
NCPHB      11.260   0.500   P
NCPIR       9.250   1.000   P
NCPHS       9.300   1.000   P
NCPBP      10.190   0.200   P
NCPHR      10.460   0.200   P
NCPBW      10.280   1.000   P
NCPMG       9.880   1.000   P
NCPLO      10.420   1.000   P
NCPJL      10.870   1.000   P
NCPJL      19.500   0.100   S
NCPBM      10.880   1.000   P
NCPTA      11.300   1.000   P
NCPHC      11.630   0.200   P
NCPCB      12.400   0.200   P
NCBRV      12.760   1.000   P
CIYEG      13.230   0.500   P
NCPKY      13.490   1.000   P
NCPAP      13.310   1.000   P
CISIM      14.250   0.200   P
NCBMS      15.200   0.500   P
NCPPB      14.890   0.500   P
NCBBG      15.490   0.200   P
NCBPI      14.400   0.200   P
NCBSG      14.300   1.000   P
NCPBI      15.320   1.000   P
NCPAB      15.590   0.500   P
NCBAV      15.990   0.200   P
NCBAV      29.980   0.100   S
CIBCH      15.710   1.000   P
NCBVL      16.000   1.000   P
NCBEM      16.900   0.200   P
NCBSM      16.330   0.500   P
NCBEH      17.710   1.000   P
NCBRM      18.630   0.200   P
CICRG      18.020   0.200   P
NCBJO      17.460   0.500   P
NCBCW      17.300   1.000   P
NCBJC      17.390   1.000   P
NCBLR      18.050   0.200   P
NCBAP      17.830   0.200   P
NCBCG      19.260   1.000   P
CISCC      19.370   1.000   P
NCBPO      18.770   0.100   P
NCBVY      19.870   1.000   P
NCBSR      19.600   1.000   P
NCBPR      19.430   1.000   P
NCBPC      19.790   1.000   P
NCHFP      20.630   1.000   P
CIPKM      21.910   0.500   P
NCHJG      21.250   1.000   P
NCHBT      21.950   1.000   P
NCMHD      22.430   1.000   P
NCHFE      23.180   0.100   P
NCHMO      22.810   1.000   P
NCHCR      23.620   1.000   P
NCHCO      23.810   0.500   P
NCJRR      25.750   1.000   P
CIWOF      25.700   0.200   P
NCJCB      25.490   0.100   P
NCJTG      26.740   0.100   P
CISLC      27.530   0.200   P
NCJRG      26.980   0.200   P
NCCCO      26.650   0.200   P
NCJUC      27.250   0.500   P
NCJST      27.780   1.000   P
# 1992 10 26  8 20 17.47  35.9370 -120.4932    9.19 1.72  0.19  0.28  0.04     320986
NCPMM       2.390   0.200   P
NCPST       2.040   0.500   P
NCPVC       2.230   1.000   P
NCPVC       3.720   0.200   S
NCPHO       2.720   1.000   P
NCPHO       4.710   0.200   S
NCPPC       2.600   1.000   P
NCPPC       4.370   0.100   S
NCPHF       2.890   0.200   P
NCPHF       5.220   0.200   S
NCPHP       2.900   1.000   P
NCPHP       4.910   0.200   S
NCPCA       4.010   1.000   P
NCPHA       3.470   1.000   P
NCPWK       3.590   1.000   P
NCPSM       4.320   1.000   P
NCPGH       3.720   0.200   P
NCPSR       4.490   1.000   P
NCPMC       5.480   1.000   P
NCPPT       5.590   0.500   P
NCPMR       5.630   0.200   P
NCPAG       6.290   0.100   P
NCPSA       6.880   0.500   P
NCPSC       7.420   0.500   P
NCPMP       7.770   0.200   P
NCPAN       7.610   1.000   P
NCPAD       8.640   0.500   P
NCPIR       9.180   0.500   P
NCPHS       9.310   1.000   P
NCPBP      10.490   0.200   P
NCPMG       9.770   1.000   P
NCPLO      10.500   0.500   P
NCPJL      10.940   1.000   P
NCPTA      11.220   0.500   P
NCPKY      13.400   0.200   P
NCPAP      13.360   0.200   P
NCBPI      14.560   0.100   P
NCBSG      14.470   0.200   P
NCBVL      16.480   0.100   P
NCBJC      17.660   0.200   P
NCBAP      18.000   0.200   P
NCBPR      20.180   0.100   P
# 1992 10 26 12 57 52.59  35.9522 -120.5172   10.48 1.02  0.45  0.83  0.05     321003
NCPMM       2.550   0.200   P
NCPST       2.100   0.500   P
NCPVC       2.260   0.500   P
NCPVC       3.890   0.200   S
NCPPC       4.230   0.100   S
NCPPC       2.450   1.000   P
NCPHP       2.640  -1.000   P
NCPHO       2.950  -1.000   P
NCPHO       5.170   0.200   S
NCPHF       3.820   0.100   P
NCPCA       4.290  -0.500   P
NCPSM       4.040   0.200   P
NCPWK       3.780   0.500   P
NCPCR       4.370   0.200   P
NCPAN       7.470   0.100   P
# 1992 10 28 17 41 30.87  35.9363 -120.4948    8.90 2.17  0.19  0.27  0.06     321313
NCPMM       2.330   0.500   P
NCPST       1.950   1.000   P
NCPVC       2.150   1.000   P
NCPVC       3.620   0.200   S
NCPHO       2.670   1.000   P
NCPHO       4.670   0.500   S
NCPPC       2.510   1.000   P
NCPHF       2.830   1.000   P
NCPHP       2.810   1.000   P
NCPCA       3.960   1.000   P
NCPWK       3.550   1.000   P
NCPHA       3.430   0.500   P
NCPSM       4.240   1.000   P
NCPGH       3.700   0.500   P
NCPCR       4.490   1.000   P
NCPSR       4.470   1.000   P
NCPMC       5.430   0.500   P
NCPPT       5.510   1.000   P
NCPMR       5.580   0.500   P
NCPAG       6.270   1.000   P
NCPRC       7.680   0.200   P
NCPSA       6.800   0.500   P
NCPOP       7.510   1.000   P
NCPSC       7.380   1.000   P
NCPTR       7.710   0.200   P
NCPMP       7.720   0.500   P
NCPAN       7.550   0.500   P
NCPDR       9.790   1.000   P
NCPAD       8.550   1.000   P
NCPIR       9.120   0.200   P
NCPHS       9.240   1.000   P
NCPBP      10.470   1.000   P
NCPMG       9.750   1.000   P
NCPBW      10.400   0.500   P
NCPLO      10.430   1.000   P
NCPBM      10.730   0.500   P
NCPJL      10.860   1.000   P
NCPTA      11.190   1.000   P
CIYEG      13.290   0.500   P
NCPAP      13.270   0.500   P
NCBPI      14.540   0.500   P
NCBSG      14.430   1.000   P
NCBVL      16.350   0.200   P
NCBJC      17.410   0.200   P
NCBAP      17.830   0.200   P
# 1992 10 28 23 13 12.40  35.9363 -120.4912    9.06 1.85  0.29  0.33  0.05     321333
NCPMM       2.410   0.500   P
NCPST       2.020   1.000   P
NCPVC       2.220   1.000   P
NCPVC       3.690   0.200   S
NCPHO       2.710   1.000   P
NCPHF       2.860   0.500   P
NCPPC       2.590   1.000   P
NCPHP       2.900   1.000   P
NCPCA       3.980   1.000   P
NCPHA       3.440   1.000   P
NCPWK       3.580   1.000   P
NCPGH       3.720   0.200   P
NCPSM       4.350   0.500   P
NCPSR       4.480   1.000   P
NCPMC       5.460   1.000   P
NCPMR       5.600   1.000   P
NCPPT       5.590   1.000   P
NCPAG       6.360   1.000   P
NCPSC       7.390   1.000   P
NCPMP       7.810   1.000   P
NCPAN       7.600   0.500   P
NCPAD       8.640   0.200   P
NCPIR       9.170   0.200   P
NCPHS       9.320   0.500   P
NCPMG       9.780   1.000   P
NCPBM      10.750   0.200   P
NCPJL      10.940   0.500   P
NCPTA      11.220   0.200   P
CIYEG      13.300   0.200   P
NCBPI      14.650   0.500   P
NCPBI      15.290   0.200   P
NCBSG      14.480   0.500   P
NCBJC      17.660   0.500   P
