# 1992 11  7 10 25 30.77  35.9418 -120.4960   10.16 1.00  0.41  0.84  0.03     324429
NCPMM       2.560   0.500   P
NCPST       2.080   0.200   P
NCPVC       2.290  -1.000   P
NCPVC       3.730   0.200   S
NCPHO       2.750   0.200   P
NCPHO       4.740   0.100   S
NCPPC       2.630   1.000   P
NCPHP       2.920  -1.000   P
NCPCA       4.030  -1.000   P
NCPWK       3.630  -1.000   P
NCPSR       4.520   0.500   P
NCPPT       5.590   0.200   P
NCPSC       7.450   0.500   P
# 1992 11 22  0  2 46.39  35.9563 -120.5125    9.80 1.76  0.31  0.34  0.07     326454
NCPMM       2.620   0.500   P
NCPST       2.170   1.000   P
NCPVC       2.330   1.000   P
NCPPC       2.480   1.000   P
NCPHP       2.680   1.000   P
NCPHO       3.040   1.000   P
NCPHF       3.320   0.500   P
NCPSM       3.980   0.500   P
NCPCA       4.370  -1.000   P
NCPWK       3.880   1.000   P
NCPCR       3.960   0.200   P
NCPHA       4.020   1.000   P
NCPGH       4.080   0.200   P
NCPSR       4.850   0.200   P
NCPPT       5.180   1.000   P
NCPMC       5.860   0.200   P
NCPMR       5.970   0.200   P
NCPAG       6.740   0.500   P
NCPMP       7.100   0.200   P
NCPAN       7.490   0.500   P
NCPSC       7.710   0.500   P
NCPHS       9.100   0.500   P
NCPIR       9.610   0.200   P
NCPBW       9.510   0.500   P
NCPLO      10.080   0.500   P
NCPMG      10.000   0.200   P
NCPJL      10.550   0.200   P
NCPBM      11.080   0.500   P
NCPTA      11.380   0.200   P
NCPAP      13.030   0.200   P
NCBPI      14.260   0.200   P
NCBSG      14.110   0.500   P
# 1992 11 30  8  6 14.74  35.9590 -120.5185    9.22 1.24  0.30  0.40  0.05     327374
NCPMM       2.440   0.500   P
NCPST       2.130   1.000   P
NCPVC       2.300   1.000   P
NCPVC       3.840   0.100   S
NCPPC       2.400   1.000   P
NCPHP       2.570   1.000   P
NCPHO       3.100   1.000   P
NCPHF       3.410   0.500   P
NCPSM       3.860   0.500   P
NCPCR       4.310   0.500   P
NCPCA       4.440  -1.000   P
NCPWK       3.980   1.000   P
NCPSR       5.240   0.100   P
NCPPT       5.070   1.000   P
NCPSA       6.470   0.500   P
NCPAD       8.570   0.500   P
NCPHS       9.090  -1.000   P
NCPLO       9.950   0.200   P
NCPMG      10.120   0.200   P
NCPJL      10.480   0.200   P
# 1992 12 22 10 11 16.19  35.9635 -120.5315    9.58 1.85  0.24  0.29  0.10     329833
NCPMM       2.440   1.000   P
NCPST       2.190   1.000   P
NCPVC       2.340   1.000   P
NCPVC       3.970   0.100   S
NCPPC       2.320   0.500   P
NCPHP       2.450   1.000   P
NCPHO       3.200   1.000   P
NCPHO       5.600   0.100   S
NCPSM       3.620   1.000   P
NCPHF       3.680   1.000   P
NCPCR       4.190   0.500   P
NCPWK       4.040   1.000   P
NCPCA       4.520   0.500   P
NCPHA       3.850   1.000   P
NCPGH       4.630   1.000   P
NCPPT       4.820   1.000   P
NCPSR       5.210   0.200   P
NCPMC       6.100   0.500   P
NCPRC       6.940   0.500   P
NCPMR       6.470   1.000   P
NCPSA       6.220   0.500   P
NCPAG       7.090   1.000   P
NCPAN       7.390   0.500   P
NCPSC       7.900   0.500   P
NCPAD       8.510   1.000   P
NCPHS       8.890   0.500   P
NCPIR       9.740   0.200   P
NCPLO       9.710   0.500   P
NCPJL      10.250   0.500   P
NCPBP      10.950   0.500   P
NCPMG      10.170   0.500   P
NCPBM      11.250   0.500   P
NCPAP      12.830   0.200   P
NCBPI      13.800   0.500   P
NCBJC      16.670   1.000   P
# 1992 12 25  3 35  6.99  35.9352 -120.4885    9.69 3.33  0.16  0.23  0.08     330031
NCPMM       2.450   1.000   P
NCPST       2.050   1.000   P
NCPVC       2.240   1.000   P
NCPHO       2.720   1.000   P
NCPHF       2.870   1.000   P
NCPHF       5.160   0.100   S
NCPPC       2.640   1.000   P
NCPHP       2.950   1.000   P
NCPCA       3.990   1.000   P
NCPHA       3.460   1.000   P
NCPWK       3.610   1.000   P
NCPGH       3.720   1.000   P
NCPSM       4.380   1.000   P
NCPCR       4.610   1.000   P
NCPSR       4.480   1.000   P
NCPMC       5.470   1.000   P
NCPMC       9.250   0.100   S
NCPMR       5.610   0.200   P
NCPPT       5.650   1.000   P
NCPAG       6.090   1.000   P
NCPAR       8.370   0.500   P
NCPRC       7.770   1.000   P
NCPRC      14.700   0.100   S
NCPSA       6.920   1.000   P
NCPOP       7.200   1.000   P
NCPSC       7.400   1.000   P
NCPTR       7.570   0.500   P
NCPMP       7.830   1.000   P
NCPAN       7.610   1.000   P
NCPDR       9.680   1.000   P
NCPPG      10.380   0.500   P
NCPIR       9.080   1.000   P
NCPHB      11.150   0.500   P
NCPHS       9.330   1.000   P
NCPBP      10.000   1.000   P
NCPMG       9.780   1.000   P
NCPHR      10.590   0.100   P
NCPBW      10.310   0.100   P
NCPWM      12.760   0.200   P
NCPLO      10.530   1.000   P
NCPBM      10.750   1.000   P
NCPJL      10.990   1.000   P
NCPTA      11.220   1.000   P
NCPHC      11.630   1.000   P
NCPCB      12.300   0.500   P
NCBRV      12.850   1.000   P
NCPKY      13.390   1.000   P
CISIM      13.870   0.100   P
NCPAP      13.370   1.000   P
NCPPB      14.810   0.500   P
NCBMS      15.230   0.500   P
NCPBI      15.210   1.000   P
NCBBG      15.530   0.500   P
NCBPI      14.490   1.000   P
NCBSG      14.440   1.000   P
NCPAB      15.480   0.500   P
CIBCH      15.550   1.000   P
NCBAV      16.010   0.500   P
NCBVL      16.070   1.000   P
NCBEM      16.910   0.500   P
NCBSM      16.440   1.000   P
NCBEH      17.660   0.200   P
CICRG      17.820   0.200   P
NCBRM      18.350   0.100   P
NCBJO      17.530   1.000   P
NCBCW      17.310   0.200   P
NCBJC      17.450   1.000   P
NCBLR      18.170   0.500   P
NCBAP      17.850   0.200   P
NCBHR      19.590   0.500   P
CISCC      19.230   0.500   P
NCBCG      19.000   0.100   P
NCPML      19.410   0.200   P
NCBPO      18.980   0.200   P
NCBSL      20.620   0.200   P
NCHJS      20.460   0.200   P
NCBVY      19.740   0.500   P
NCBSR      19.510   0.200   P
NCBPR      19.390   0.200   P
NCBPC      19.730   0.200   P
CITMB      21.310   0.100   P
NCHFP      20.330   0.100   P
NCHLT      21.350   0.100   P
CIPKM      21.760   0.500   P
NCHPH      22.090   0.100   P
NCHSL      23.050   0.200   P
NCHSF      21.720   0.100   P
NCHJG      21.370   0.200   P
NCMBE      22.080   0.200   P
NCMHD      22.380   0.200   P
NCHPL      23.480   0.200   P
NCHER      23.500   0.100   P
CIMAR      23.710   0.200   P
NCHMO      22.770   0.100   P
NCHCA      24.210   0.100   P
NCPTQ      23.400   0.100   P
NCHCO      23.930   0.100   P
NCHGS      24.720   0.100   P
NCHGW      24.770   0.500   P
NCHSP      25.420   0.100   P
NCMYL      24.980   0.200   P
CIWOF      25.800   0.100   P
NCJRR      25.360   0.200   P
CIARV      26.990   0.200   P
NCJRG      27.040   0.500   P
NCJUC      27.300   1.000   P
NCJST      27.880   1.000   P
NCJBL      29.390   0.500   P
NCJPP      31.520   0.500   P
NCJPS      31.930   0.100   P
# 1992 12 29 12 51 45.72  35.9483 -120.5115    9.22 1.35  0.33  0.28  0.05     330333
NCPMM       2.450   0.200   P
NCPST       2.070   1.000   P
NCPVC       2.260   0.500   P
NCPVC       3.780   0.200   S
NCPPC       2.450   1.000   P
NCPHO       2.910   1.000   P
NCPHO       5.120   0.200   S
NCPHP       2.680   1.000   P
NCPCA       4.260   0.500   P
NCPSM       4.040   0.500   P
NCPWK       3.770   1.000   P
NCPCR       4.370   0.200   P
NCPPT       5.250  -1.000   P
NCPMC       5.750   0.200   P
NCPAG       6.580   0.200   P
NCPSA       6.580   0.200   P
NCPSC       7.590   0.200   P
NCPAD       8.640  -1.000   P
NCPHS       9.110   0.500   P
NCPMG       9.900   0.500   P
NCPLO      10.170   0.200   P
NCPJL      10.620   0.200   P
# 1993  2 10 10 18 38.28  35.9323 -120.4893    7.73 1.16  0.22  0.38  0.04     336886
NCPMM       2.320   0.200   P
NCPST       1.840   1.000   P
NCPVC       2.060   1.000   P
NCPVC       3.400   0.200   S
NCPHO       2.530   1.000   P
NCPHO       4.390   0.100   S
NCPHF       2.770   0.200   P
NCPPC       2.520   1.000   P
NCPPC       4.140   0.100   S
NCPCA       3.900  -1.000   P
NCPHA       3.320   0.200   P
NCPWK       3.480  -1.000   P
NCPGH       3.440   0.200   P
NCPSM       4.310   0.200   P
NCPCR       4.600   0.500   P
NCPSR       4.430   1.000   P
NCPMC       5.350   0.100   P
NCPPT       5.640  -1.000   P
NCPAD       8.510   0.100   P
NCPMG       9.740   0.200   P
NCPJL      11.040   0.500   P
# 1993  2 12  7 10 47.47  35.9660 -120.5275    9.70 1.20  0.20  0.33  0.03     336986
NCPMM       2.570   0.200   P
NCPMM       4.650   0.100   S
NCPST       2.290   1.000   P
NCPVC       4.070   0.100   S
NCPVC       2.440   1.000   P
NCPPC       2.420   1.000   P
NCPPC       4.060   0.100   S
NCPHP       4.320   0.100   S
NCPHO       3.300   1.000   P
NCPHO       5.770   0.100   S
NCPSM       3.700   0.500   P
NCPHF       3.970   0.100   P
NCPCR       4.270  -1.000   P
NCPCA       4.590   0.500   P
NCPWK       4.130   1.000   P
NCPHA       4.170   0.200   P
NCPGH       4.700   0.200   P
NCPPT       4.890  -1.000   P
NCPSR       5.200   0.100   P
NCPMC       6.180   0.200   P
NCPRC       7.010   0.100   P
NCPMP       7.040   0.100   P
NCPAN       7.460   0.200   P
NCPSC       7.980   0.100   P
NCPHS       8.950   0.200   P
NCPIR       9.940   0.200   P
NCPLO       9.780   0.500   P
NCPJL      10.400   0.200   P
NCPMG      10.190   0.100   P
NCPAP      12.890   0.100   P
NCBJC      16.940   0.200   P
# 1993  2 15 17 10 60.17  35.9705 -120.5273    9.98 2.81  0.14  0.21  0.07     337175
NCPMM       2.520   1.000   P
NCPST       2.280   1.000   P
NCPVC       2.430   1.000   P
NCPPC       2.380   1.000   P
NCPPC       3.900   0.100   S
NCPHP       2.480   1.000   P
NCPSM       3.620   1.000   P
NCPHO       3.350   1.000   P
NCPHO       5.860   0.100   S
NCPHF       3.630   0.500   P
NCPHF       6.720   0.100   S
NCPCR       4.230   1.000   P
NCPCA       4.640   1.000   P
NCPWK       4.180   1.000   P
NCPHA       4.240   1.000   P
NCPGH       4.510   0.500   P
NCPPT       4.830   1.000   P
NCPSR       5.270   0.500   P
NCPMC       6.260   1.000   P
NCPRC       6.930   0.500   P
NCPSA       6.240   1.000   P
NCPAR       7.900   0.500   P
NCPMP       6.990   1.000   P
NCPAG       7.000   0.200   P
NCPKE       8.930   0.500   P
NCPAN       7.480   0.500   P
NCPDR       9.190   1.000   P
NCPSC       8.060   1.000   P
NCPOP       7.990   0.200   P
NCPTR       8.380   0.500   P
NCPAD       8.630   0.500   P
NCPHB      11.130   0.100   P
NCPHS       8.980   1.000   P
NCPHR       9.710   0.200   P
NCPIR       9.860   1.000   P
NCPLO       9.730   1.000   P
NCPWM      11.770   0.200   P
NCPBP      11.070   0.500   P
NCPMG      10.340   1.000   P
NCPHC      11.460   1.000   P
NCPBM      11.430   1.000   P
NCPTA      11.610   1.000   P
NCBRV      12.000   0.500   P
NCPCB      12.340   0.100   P
NCPAP      12.870   1.000   P
NCPKY      13.840   0.500   P
NCBBG      14.780   0.200   P
NCBPI      13.680   0.200   P
NCBSG      13.610   0.500   P
CISIM      14.850   0.200   P
NCPPB      15.130   0.100   P
NCBAV      15.160   0.200   P
NCBVL      15.200   0.100   P
NCPBI      15.780   0.200   P
NCPAB      15.970   0.100   P
NCBEM      16.340   0.200   P
NCBSM      15.620   0.500   P
CIBCH      16.310   0.500   P
NCBEH      17.160   0.500   P
NCBJO      16.840   0.100   P
NCBRM      18.010   0.200   P
NCBJC      16.710   0.500   P
NCBCW      16.820   0.200   P
NCBLR      17.370   0.100   P
NCBAP      17.190   0.500   P
CICRG      18.940   0.100   P
NCBCG      18.630   0.100   P
NCBPO      18.860   0.100   P
NCBSL      19.960   0.100   P
NCBVY      19.210   0.100   P
NCBSR      19.240   0.100   P
NCBPR      18.800   0.100   P
CISCC      19.860   0.200   P
NCBPC      19.190   0.100   P
NCPML      19.860   0.100   P
NCHFP      19.870   0.100   P
NCHLT      21.050   0.100   P
NCHJG      20.940   0.100   P
CIPKM      22.350   0.200   P
NCMHD      22.560   0.200   P
NCHMO      22.560   0.200   P
NCJUC      26.600   0.500   P
# 1993  3  2  6  8 12.04  35.9607 -120.5208    9.84 1.29  0.38  0.32  0.04     338575
NCPMM       2.570   0.500   P
NCPST       2.270   1.000   P
NCPVC       2.420   1.000   P
NCPVC       4.040   0.200   S
NCPPC       2.480   1.000   P
NCPPC       4.140   0.100   S
NCPHP       2.650   1.000   P
NCPHP       4.520   0.200   S
NCPHO       3.220   1.000   P
NCPHF       3.630   0.100   P
NCPSM       3.870   0.500   P
NCPCA       4.520   0.500   P
NCPWK       4.030   1.000   P
NCPHA       4.040   0.200   P
NCPGH       4.070   0.100   P
NCPSR       5.020   0.200   P
NCPPT       5.050  -1.000   P
NCPMC       6.040   0.200   P
NCPMP       7.180   0.100   P
NCPAN       7.310   0.100   P
NCPSC       7.860   0.500   P
NCPHS       9.020   0.200   P
NCPIR       9.750   0.100   P
NCPLO       9.940   0.200   P
NCPJL      10.490   0.100   P
# 1993  3 11  7 50 51.71  35.9642 -120.5267    9.84 1.22  0.27  0.43  0.06     340036
NCPMM       2.510   0.200   P
NCPST       2.240   1.000   P
NCPVC       2.390   1.000   P
NCPPC       2.410   1.000   P
NCPHP       2.550   1.000   P
NCPHO       3.220   1.000   P
NCPSM       3.740   0.500   P
NCPHF       3.720   1.000   P
NCPCR       4.280  -1.000   P
NCPCA       4.540   1.000   P
NCPWK       4.060   1.000   P
NCPHA       4.090   0.200   P
NCPPT       4.940   0.100   P
NCPSR       5.080   0.500   P
NCPMC       6.090   0.500   P
NCPAN       7.450   0.200   P
NCPSC       7.910   0.200   P
NCPAD       8.750   0.500   P
NCPHS       8.980   0.200   P
NCPIR       9.780   0.200   P
NCPLO       9.830  -1.000   P
NCPJL      10.410   0.100   P
NCPMG      10.200   0.200   P
# 1993  3 14  7 13 58.92  35.9400 -120.4915   10.65 3.36  0.15  0.25  0.08     340175
NCPMM       2.530   1.000   P
NCPST       2.160   1.000   P
NCPVC       2.340   1.000   P
NCPHO       2.840   1.000   P
NCPPC       2.660   1.000   P
NCPHF       2.990   1.000   P
NCPHP       2.940   1.000   P
NCPCA       4.090   1.000   P
NCPHA       3.560   1.000   P
NCPWK       3.700   1.000   P
NCPSM       4.330   1.000   P
NCPGH       3.820   1.000   P
NCPCR       4.580   1.000   P
NCPSR       4.550   1.000   P
NCPMC       5.550   1.000   P
NCPMC       9.580   0.100   S
NCPPT       5.570   1.000   P
NCPAG       6.250   0.100   P
NCPAR       8.320   1.000   P
NCPKE       8.560   1.000   P
NCPSA       6.830   1.000   P
NCPOP       7.230   1.000   P
NCPSC       7.470   1.000   P
NCPTR       7.660   1.000   P
NCPMP       7.760   1.000   P
NCPAN       7.590   1.000   P
NCPDR       9.590   1.000   P
NCPAD       8.590   1.000   P
NCPIR       9.150   1.000   P
NCPHB      11.110   1.000   P
NCPHS       9.270   1.000   P
NCPBP       9.990   0.500   P
NCPHR      10.420   0.200   P
NCPMG       9.820   1.000   P
NCPBW      10.190   0.200   P
NCPWM      12.330   0.500   P
NCPLO      10.440   1.000   P
NCPBM      10.800   1.000   P
NCPJL      10.890   1.000   P
NCPTA      11.240   1.000   P
NCPHC      11.560   1.000   P
NCPCB      12.230   0.200   P
NCBRV      12.770   1.000   P
NCPKY      13.400   1.000   P
CISIM      14.120   1.000   P
NCPAP      13.280   1.000   P
NCPPB      14.760   0.500   P
NCBBG      15.330   1.000   P
NCBPI      14.410   1.000   P
NCBSG      14.320   1.000   P
NCPBI      15.220   1.000   P
NCPAB      15.480   0.500   P
CIBCH      15.580   1.000   P
NCBAV      15.810   1.000   P
NCBAV      29.830   0.100   S
NCBVL      16.020   0.500   P
NCBEM      16.710   1.000   P
NCBSM      16.340   1.000   P
NCBEH      17.550   1.000   P
CICRG      17.830   0.500   P
NCBRM      18.200   0.200   P
NCBJO      17.300   0.500   P
NCBCW      17.160   0.200   P
NCBJC      17.230   0.200   P
NCBLR      18.080   0.200   P
NCBAP      17.270   0.200   P
NCBHR      19.570   0.200   P
NCBCG      18.900   0.200   P
CISCC      19.240   1.000   P
NCPML      19.410   0.500   P
NCBPO      18.860   0.200   P
NCBSL      20.660   0.200   P
NCHJS      20.130   0.100   P
NCBVY      19.710   0.200   P
NCBSR      19.500   0.200   P
NCBPR      19.330   0.200   P
NCBPC      19.570   0.200   P
NCHFP      20.190   0.500   P
NCHLT      21.350   0.100   P
NCHPH      22.000   0.100   P
CIPKM      21.720   1.000   P
NCHSF      21.740   0.500   P
NCHJG      21.460   0.200   P
NCHBT      22.070   0.100   P
NCMBE      21.950   0.100   P
NCHPL      23.050   0.200   P
NCHDL      22.460   0.200   P
NCHER      23.010   0.100   P
CIMAR      23.040   0.100   P
NCHMO      22.440   0.100   P
NCHCR      23.270   0.100   P
NCHCA      24.060   0.100   P
NCHCO      23.830   0.100   P
NCHCB      24.190   0.100   P
NCHGW      24.240   0.200   P
NCHSP      23.950   0.200   P
NCJEL      25.410   0.100   P
CISYP      25.920   0.200   P
NCJRR      25.260   0.200   P
NCJPL      25.930   0.100   P
CIWOF      24.950   0.100   P
CIPLE      26.550   0.200   P
NCJCB      25.990   0.100   P
NCJBZ      26.030   0.100   P
NCCAD      25.980   0.100   P
NCJEC      26.460   0.100   P
NCJTG      26.920   0.100   P
NCCMP      27.000   0.100   P
CISLC      27.400   0.200   P
CIARV      26.460   0.100   P
CIWAS      26.910   0.500   P
NCJHL      26.930   0.100   P
NCMMI      27.560   0.200   P
CIRYS      28.100   0.200   P
NCJRG      26.570   0.100   P
NCCCO      27.920   0.100   P
CITEJ      28.060   0.500   P
NCJAL      27.120   0.100   P
NCCAO      28.050   0.200   P
NCJUC      26.900   0.100   P
NCJST      27.470   0.100   P
NCMBU      28.240   0.200   P
NCJSS      27.780   0.100   P
NCCMM      29.330   0.100   P
CIWJP      28.120   0.100   P
CIBMT      28.980   0.100   P
NCCMH      29.620   0.100   P
NCMBO      29.160   0.200   P
NCJBL      29.030   0.200   P
# 1993  3 24  5 53 36.15  35.9705 -120.5328    9.50 1.10  0.35  0.73  0.04     341038
NCPMM       2.510   0.100   P
NCPST       2.320   1.000   P
NCPVC       4.140   0.200   S
NCPVC       2.470   1.000   P
NCPPC       2.400  -1.000   P
NCPPC       3.960   0.100   S
NCPHP       2.500   0.500   P
NCPHP       4.190   0.100   S
NCPSM       3.620   0.200   P
NCPHO       3.370  -1.000   P
NCPHO       5.800   0.100   S
NCPHF       3.730   0.200   P
NCPCR       4.250  -0.500   P
NCPCA       4.660   0.200   P
NCPWK       4.160   0.200   P
NCPHA       4.230   0.100   P
NCPGH       4.110   0.100   P
NCPPT       4.820  -0.500   P
# 1993  4  4 16 48 55.70  35.9492 -120.5135    6.12 1.48  0.26  0.22  0.05     342941
NCPMM       1.830   0.200   P
NCPST       1.530   1.000   P
NCPVC       1.760   1.000   P
NCPVC       3.030   0.200   S
NCPPC       2.060   1.000   P
NCPPC       3.490   0.200   S
NCPHP       2.330   1.000   P
NCPHO       2.650   1.000   P
NCPHF       3.000   0.200   P
NCPSM       3.790   0.500   P
NCPCA       4.150   0.500   P
NCPWK       3.610   1.000   P
NCPHA       3.600   0.500   P
NCPCR       4.300   0.500   P
NCPSR       4.820   0.200   P
NCPPT       5.140   1.000   P
NCPMC       5.780   1.000   P
NCPSC       7.660   0.200   P
NCPOP       7.950   0.200   P
NCPAD       8.650   0.500   P
NCPHS       9.180   0.200   P
NCPLO      10.180   0.500   P
NCPMG      10.010   0.500   P
NCPJL      10.690   0.200   P
NCHJG      21.850   1.000   P
NCHBT      21.330   1.000   P
NCHOR      21.810   1.000   P
NCHCA      22.530   1.000   P
NCHGS      23.720   1.000   P
NCCAO      27.240   1.000   P
# 1993  4  8  1 29 10.16  35.9645 -120.5230    6.89 1.51  0.38  0.28  0.05     344153
NCPMM       2.030   0.500   P
NCPST       1.810   1.000   P
NCPVC       1.990   1.000   P
NCPVC       3.400   0.200   S
NCPPC       2.050   1.000   P
NCPHP       2.200   1.000   P
NCPHO       2.990   1.000   P
NCPSM       3.550   1.000   P
NCPHF       3.390   0.200   P
NCPCR       4.100   0.200   P
NCPCA       4.400   0.500   P
NCPWK       3.920   1.000   P
NCPHA       3.960   0.200   P
NCPPT       4.830   1.000   P
NCPSR       5.130   0.200   P
NCPMC       6.050   1.000   P
NCPMP       7.120   1.000   P
NCPSC       7.920   0.500   P
NCPAD       8.640   0.200   P
NCPHS       9.040   0.500   P
NCPIR       9.850   0.500   P
NCPJL      10.420   0.500   P
NCPMG      10.210   0.200   P
