# 1991  3 13 21 26 32.56  35.9683 -120.5277   10.13 1.17  0.55  0.61  0.03     207970
NCPMM       2.540   0.100   P
NCPST       2.240  -1.000   P
NCPRP       2.970   0.100   P
NCPVC       2.390   0.500   P
NCPPC       2.400   1.000   P
NCPPC       4.090   0.100   S
NCPHP       2.530  -1.000   P
NCPHO       3.210   1.000   P
NCPHO       5.660   0.100   S
NCPSM       3.740   0.100   P
NCPHF       3.780   0.200   P
NCPCA       4.500   0.200   P
NCPWK       4.050  -1.000   P
NCPPT       4.870   0.200   P
NCPSR       5.300   0.200   P
NCPJL      10.370   0.100   P
# 1991  3 22 11 21 53.05  35.9595 -120.5223    9.98 2.40  0.16  0.23  0.06     214684
NCPMM       2.430   1.000   P
NCPST       2.130   1.000   P
NCPVC       2.280   1.000   P
NCPVC       3.880   0.100   S
NCPPC       2.320   1.000   P
NCPPC       3.960   0.100   S
NCPHP       2.560   1.000   P
NCPHP       4.310   0.100   S
NCPHO       3.120   1.000   P
NCPHO       5.470   0.100   S
NCPHF       3.560   0.500   P
NCPHF       6.660   0.100   S
NCPSM       3.690   1.000   P
NCPCR       4.310   1.000   P
NCPCA       4.440   1.000   P
NCPWK       3.960   1.000   P
NCPGH       4.460   0.200   P
NCPSR       5.020   0.500   P
NCPPT       4.890   1.000   P
NCPMC       5.990   1.000   P
NCPMR       6.160   0.200   P
NCPRC       7.110   0.500   P
NCPSA       6.380   1.000   P
NCPAG       6.940   0.200   P
NCPAR       8.050   0.500   P
NCPMP       7.110   1.000   P
NCPKE       8.890   0.200   P
NCPAN       7.500   0.500   P
NCPSC       7.830   0.500   P
NCPOP       7.800   1.000   P
NCPDR       9.320   0.200   P
NCPTR       8.160   0.200   P
NCPAD       8.500   0.500   P
NCPHB      11.200   1.000   P
NCPHS       9.040   0.500   P
NCPPG      11.040   1.000   P
NCPIR       9.720   0.500   P
NCPHR      10.070   1.000   P
NCPBW       9.490   0.200   P
NCPLO       9.790   0.500   P
NCPBP      11.110   1.000   P
NCPWM      12.200   0.200   P
NCPMG      10.120   0.500   P
NCPJL      10.310   0.500   P
NCPBM      11.180   0.200   P
NCPTA      11.420   0.500   P
NCBRV      12.210   0.200   P
CIYEG      13.680   0.200   P
NCPAP      12.970   0.500   P
NCPKY      13.640   0.200   P
NCBBN      14.610   0.200   P
NCBMS      15.110   0.500   P
CISIM      14.710   0.200   P
NCBBG      15.070   0.100   P
NCBPI      13.850   0.200   P
NCBSG      13.770   0.500   P
NCPPB      15.430   0.200   P
NCPBI      15.770   0.200   P
NCPAB      16.170   0.500   P
NCBVL      16.070   1.000   P
NCBEM      16.570   0.500   P
NCBSM      16.030   1.000   P
CIBCH      16.240   0.200   P
NCBEH      17.010   0.200   P
NCBJO      16.870   1.000   P
NCBCW      17.070   0.100   P
NCBJC      16.980   0.500   P
NCBLR      17.940   0.100   P
NCBAP      17.570   1.000   P
CICRG      18.920   0.500   P
NCBPF      19.760   0.200   P
NCBVY      19.520   0.100   P
NCBSR      19.330   0.200   P
NCBPR      20.120   0.500   P
NCBPC      20.240   0.100   P
NCHFP      20.670   0.100   P
NCMHD      22.480   0.100   P
NCHMO      22.130   0.100   P
NCMMI      27.980   1.000   P
NCJRG      27.020   0.200   P
# 1991  4 12  6 29 14.96  35.9667 -120.5150    9.88 2.02  0.18  0.24  0.06     210422
NCPMM       2.450   0.500   P
NCPMM       4.460   0.100   S
NCPST       2.160   1.000   P
NCPVC       2.310   1.000   P
NCPVC       3.880   0.100   S
NCPRP       2.980   0.500   P
NCPPC       2.360   1.000   P
NCPPC       4.040   0.100   S
NCPHP       2.500   1.000   P
NCPHP       4.330   0.100   S
NCPHO       3.150   1.000   P
NCPHO       5.470   0.100   S
NCPSM       3.740   1.000   P
NCPHF       3.460   0.500   P
NCPHF       6.340   0.100   S
NCPWK       3.980   1.000   P
NCPCA       4.470   0.500   P
NCPGH       4.290   0.200   P
NCPPT       4.930   1.000   P
NCPSR       5.020   0.500   P
NCPMC       6.000   1.000   P
NCPMR       6.250   0.200   P
NCPAG       6.910   0.200   P
NCPMP       7.100   0.500   P
NCPKE       8.870  -1.000   P
NCPAN       7.440   0.500   P
NCPSC       7.840   0.500   P
NCPAD       8.570   0.200   P
NCPHS       8.960   0.500   P
NCPIR       9.720   0.200   P
NCPLO       9.830   0.500   P
NCPBP      10.740   0.100   P
NCPJL      10.350   0.200   P
NCPMG      10.120   0.500   P
NCPBM      11.200   0.200   P
NCPTA      11.440   0.500   P
NCPCB      12.330   0.200   P
NCPAP      12.910   0.500   P
CIYEG      13.930   1.000   P
NCPKY      13.730   0.100   P
NCBPI      13.890   0.200   P
CIBCH      16.520   0.500   P
NCBPC      19.400   0.200   P
# 1991  4 12  9 47 15.62  35.9682 -120.5203    9.83 2.20  0.14  0.18  0.06     210432
NCPMM       2.510   0.500   P
NCPMM       4.670   0.100   S
NCPST       2.230   1.000   P
NCPRP       3.020   1.000   P
NCPVC       2.390   1.000   P
NCPVC       3.960   0.100   S
NCPPC       2.400   1.000   P
NCPPC       4.050   0.100   S
NCPHP       2.530   1.000   P
NCPHP       4.310   0.100   S
NCPHO       3.230   1.000   P
NCPHO       5.590   0.100   S
NCPSM       3.730   1.000   P
NCPHF       3.550   0.200   P
NCPHF       6.500   0.100   S
NCPCA       4.530   1.000   P
NCPWK       4.060   1.000   P
NCPGH       4.620   0.500   P
NCPPT       4.920   1.000   P
NCPSR       5.110   0.500   P
NCPMC       6.110   1.000   P
NCPMR       6.250   0.200   P
NCPSA       6.320   1.000   P
NCPAR       7.960   0.100   P
NCPAG       6.900   0.200   P
NCPMP       7.090   0.500   P
NCPAN       7.460   1.000   P
NCPDR       9.280   0.200   P
NCPSC       7.930   1.000   P
NCPOP       7.760   0.200   P
NCPTR       8.340   0.500   P
NCPAD       8.590   0.500   P
NCPHS       9.000   1.000   P
NCPPG      11.130   1.000   P
NCPHR      10.070   0.200   P
NCPIR       9.770   0.200   P
NCPBW       9.520   0.500   P
NCPLO       9.820   0.500   P
NCPBP      10.920   0.500   P
NCPJL      10.350   0.200   P
NCPMG      10.200   0.500   P
NCPBM      11.300   0.500   P
NCPHC      11.450   0.200   P
NCPTA      11.490   0.200   P
NCPCB      12.360   0.200   P
NCPAP      12.910   0.500   P
CIYEG      13.820   0.200   P
NCBBN      14.430   0.200   P
NCPKY      13.710   0.200   P
NCBBG      15.010   0.200   P
NCBPI      13.880   0.200   P
NCBSG      13.700   0.200   P
CISIM      14.570   0.100   P
NCPBI      15.790   0.200   P
NCBVL      15.570   0.500   P
NCBEM      16.390   0.200   P
NCBSM      15.840   0.200   P
CIBCH      16.240   0.200   P
NCBEH      17.370   0.200   P
NCBJO      16.850   0.500   P
NCBJC      16.970   0.200   P
NCBAP      17.440   0.500   P
NCBCG      18.770   0.200   P
NCBPF      18.870   0.100   P
NCBVY      19.850   0.200   P
NCBSR      19.750   0.100   P
NCBPC      20.040   0.500   P
# 1991  4 26  9 43 57.79  35.9655 -120.5265    9.81 1.74  0.18  0.25  0.06     211311
NCPMM       2.520   1.000   P
NCPMM       4.580   0.200   S
NCPST       2.240   1.000   P
NCPRP       3.010   0.500   P
NCPVC       2.400   1.000   P
NCPVC       4.040   0.200   S
NCPPC       2.380   1.000   P
NCPPC       4.040   0.200   S
NCPHP       2.410   0.500   P
NCPHP       4.320   0.100   S
NCPHO       3.270   1.000   P
NCPHO       5.670   0.200   S
NCPSM       3.690   0.500   P
NCPHF       3.590   0.100   P
NCPCR       4.260   1.000   P
NCPCA       4.570   1.000   P
NCPWK       4.080   1.000   P
NCPHA       4.130   1.000   P
NCPGH       4.610   0.500   P
NCPPT       4.880   1.000   P
NCPSR       5.170   0.200   P
NCPMC       6.150   0.500   P
NCPRC       7.000   0.500   P
NCPMR       6.380   0.200   P
NCPSA       6.280   1.000   P
NCPAG       7.030   0.200   P
NCPAN       7.430   1.000   P
NCPDR       9.300   0.200   P
NCPSC       7.940   0.500   P
NCPAD       8.630   0.200   P
NCPHS       8.970   0.500   P
NCPBW       9.470   0.200   P
NCPIR       9.850   0.500   P
NCPLO       9.780   1.000   P
NCPJL       9.700   0.200   P
NCPBP      11.140   0.200   P
NCPMG      10.220   0.500   P
NCPBM      11.320   0.200   P
NCPTA      11.550   0.200   P
NCPAP      12.900   0.500   P
NCBPI      13.890   0.200   P
NCBSG      13.760   0.500   P
NCBJO      16.890   0.500   P
NCBJC      16.940   0.500   P
NCBCG      18.890   0.200   P
# 1991  4 29  3  8 38.35  35.9795 -120.5310   10.11 1.14  0.36  0.32  0.05     211474
NCPMM       2.630   0.500   P
NCPMM       4.960   0.100   S
NCPRP       3.060   0.500   P
NCPST       2.390   1.000   P
NCPVC       2.540   1.000   P
NCPVC       4.200   0.100   S
NCPPC       2.420   1.000   P
NCPPC       3.970   0.100   S
NCPHP       2.480   1.000   P
NCPHP       4.110   0.100   S
NCPSM       3.570   0.500   P
NCPHO       3.460   1.000   P
NCPHO       5.950   0.100   S
NCPCR       4.270   0.100   P
NCPHF       3.800   0.200   P
NCPCA       4.710   0.500   P
NCPWK       4.270   1.000   P
NCPHA       4.340   0.500   P
NCPGH       4.760   0.200   P
NCPPT       4.760   0.500   P
NCPSR       5.400   0.200   P
NCPMC       6.350   0.500   P
NCPSA       6.170   0.500   P
NCPAG       7.190   0.200   P
NCPHS       8.920   0.500   P
NCPBW       9.490   0.100   P
NCPLO       9.640   0.200   P
NCPJL      10.180   0.200   P
NCPAP      12.940   0.100   P
# 1991  5  6  8 59 38.72  35.9627 -120.5197    9.70 2.08  0.20  0.27  0.09     211968
NCPMM       2.440   0.500   P
NCPST       2.160   1.000   P
NCPVC       2.320   1.000   P
NCPRP       2.980   1.000   P
NCPPC       2.360   1.000   P
NCPHP       2.500   1.000   P
NCPHO       3.140   1.000   P
NCPSM       3.730   1.000   P
NCPHF       3.400   1.000   P
NCPCR       4.270   1.000   P
NCPCA       4.460   1.000   P
NCPWK       3.970   1.000   P
NCPHA       4.000   1.000   P
NCPGH       4.290   1.000   P
NCPPT       4.940   1.000   P
NCPSR       5.040   0.500   P
NCPMC       6.020   1.000   P
NCPMR       6.170   0.500   P
NCPRC       7.060   0.500   P
NCPSA       6.330   1.000   P
NCPAR       8.030   0.100   P
NCPAG       6.720   0.200   P
NCPMP       7.120   0.500   P
NCPKE       8.870   1.000   P
NCPAN       7.440   0.500   P
NCPSC       7.850   1.000   P
NCPOP       8.320   1.000   P
NCPDR       9.300   0.200   P
NCPTR       8.310   1.000   P
NCPAD       8.490   0.200   P
NCPHS       8.990   1.000   P
NCPPG      11.070   1.000   P
NCPHR      10.100   0.500   P
NCPIR       9.680   0.200   P
NCPBW       9.520   0.200   P
NCPLO       9.850   1.000   P
NCPBP      10.840   0.500   P
NCPJL      10.380   0.500   P
NCPMG      10.140   1.000   P
NCPBM      11.220   0.500   P
NCPTA      11.460   1.000   P
NCPCB      12.340   0.200   P
NCPAP      12.900   1.000   P
CIYEG      13.820   1.000   P
NCBBN      14.680   0.500   P
NCPKY      13.680   0.500   P
NCBPI      13.820   0.200   P
NCBSG      13.940   1.000   P
CISIM      14.820   1.000   P
NCPBI      15.830   0.200   P
NCBVL      15.680   0.500   P
CIBCH      16.280   0.200   P
NCBJO      17.000   1.000   P
NCBAP      17.530   1.000   P
NCBPF      19.500   0.500   P
NCBVY      19.710   0.500   P
NCBPC      20.060   0.100   P
NCMHD      22.460   0.500   P
# 1991  5  8 20  1 55.25  35.9407 -120.4913   10.21 2.16  0.21  0.30  0.10     212106
NCPMM       2.510   0.500   P
NCPST       2.130   1.000   P
NCPVC       2.330   1.000   P
NCPVC       3.880   0.100   S
NCPRP       3.160   1.000   P
NCPHO       2.800   1.000   P
NCPHO       4.860   0.100   S
NCPPC       2.640   1.000   P
NCPHF       2.940   0.500   P
NCPHP       2.920   1.000   P
NCPHP       5.010   0.100   S
NCPCA       4.050   1.000   P
NCPHA       3.520   0.500   P
NCPWK       3.650   1.000   P
NCPSM       4.320   1.000   P
NCPCR       4.570   1.000   P
NCPGH       3.760   1.000   P
NCPSR       4.520   1.000   P
NCPMC       5.510   1.000   P
NCPPT       5.560   1.000   P
NCPMR       5.640   0.500   P
NCPAG       6.140   0.500   P
NCPKE       8.430   1.000   P
NCPRC       7.680   0.200   P
NCPSA       6.840   1.000   P
NCPOP       7.640   1.000   P
NCPSC       7.410   0.500   P
NCPTR       7.740   0.200   P
NCPMP       7.810   0.100   P
NCPAN       7.570   0.500   P
NCPDR       9.640   0.500   P
NCPPG      10.590   1.000   P
NCPIR       9.190   0.500   P
NCPHS       9.260   1.000   P
NCPBP      10.080   0.500   P
NCPMG       9.780   1.000   P
NCPWM      11.160   0.500   P
NCPLO      10.470   1.000   P
NCPBM      10.770   0.500   P
NCPJL      10.880   1.000   P
NCPTA      11.210   0.500   P
NCBRV      13.060   0.500   P
CIYEG      13.300   0.500   P
NCPAP      13.250   0.200   P
NCBPI      14.540   1.000   P
NCBSG      14.360   0.200   P
CIBCH      15.750   0.500   P
NCBVL      16.290   1.000   P
NCBEM      17.590   1.000   P
CICRG      18.310   0.200   P
NCBJO      17.640   0.500   P
NCBJC      17.700   1.000   P
NCBAP      18.020   1.000   P
NCBVY      20.180   0.100   P
NCBSR      20.580   0.500   P
NCBPC      21.020   1.000   P
NCMCL      36.440   0.200   P
# 1991  5  8 20  3 54.36  35.9430 -120.4912   10.09 1.21  0.53  0.69  0.05     212107
NCPMM       2.610  -1.000   P
NCPST       2.210   0.500   P
NCPVC       3.960   0.100   S
NCPRP       3.250   0.500   P
NCPHO       2.880   1.000   P
NCPHF       3.010   1.000   P
NCPPC       2.730   1.000   P
NCPPC       4.590   0.200   S
NCPHP       3.010   1.000   P
NCPCA       4.130   0.500   P
NCPHA       3.570   0.500   P
NCPWK       3.730   0.500   P
NCPGH       3.840   0.500   P
NCPSM       4.430   0.200   P
NCPSR       4.580  -1.000   P
NCPMC       5.580   0.200   P
NCPPT       5.640   0.500   P
NCPLO      10.610   0.100   P
# 1991  5  8 20  7 20.25  35.9445 -120.4915   10.77 1.18  0.52  0.98  0.13     212108
NCPST       2.260   0.500   P
NCPMM       2.750   0.200   P
NCPVC       2.460   0.500   P
NCPVC       4.010   0.200   S
NCPHO       2.940   1.000   P
NCPHO       5.000   0.100   S
NCPRP       3.300   1.000   P
NCPHF       3.070   0.200   P
NCPPC       2.780   0.500   P
NCPHP       3.060   1.000   P
NCPWK       3.780   1.000   P
NCPHA       3.630   0.100   P
NCPCA       4.200   1.000   P
NCPSM       4.460   0.500   P
NCPSR       4.620  -1.000   P
NCPMC       5.640   0.500   P
NCPPT       5.680   0.500   P
NCPJL      11.020   0.500   P
# 1991  6  8  6 56 14.50  35.9715 -120.5297    5.88 1.00  0.48  0.32  0.04     219120
NCPMM       1.940   0.500   P
NCPST       1.740   1.000   P
NCPRP       2.520   0.200   P
NCPVC       1.920   1.000   P
NCPVC       3.290   0.100   S
NCPPC       1.910   1.000   P
NCPHP       2.020   1.000   P
NCPSM       3.370   0.200   P
NCPHO       3.030   0.500   P
NCPHF       3.460   0.200   P
NCPCR       4.040   0.200   P
NCPWK       3.950   0.500   P
NCPHA       4.060   0.500   P
NCPGH       4.460   0.200   P
NCPPT       4.710   0.200   P
NCPSR       5.260   0.200   P
NCPSA       6.250  -1.000   P
NCPMP       7.050   0.500   P
# 1991  7  7  1 24 58.76  35.9673 -120.5230    9.80 1.24  0.24  0.31  0.05     223774
NCPMM       2.490   0.200   P
NCPMM       4.660   0.100   S
NCPST       2.200   1.000   P
NCPRP       3.020   0.500   P
NCPVC       2.370   1.000   P
NCPVC       3.980   0.200   S
NCPPC       2.370   1.000   P
NCPHP       2.510   1.000   P
NCPHP       4.320   0.100   S
NCPHO       3.210   1.000   P
NCPHO       5.580   0.100   S
NCPSM       3.710   1.000   P
NCPHF       3.510   0.100   P
NCPCA       4.520  -1.000   P
NCPWK       4.030   1.000   P
NCPHA       4.190   0.200   P
NCPGH       4.550   0.200   P
NCPPT       4.910   0.500   P
NCPSR       5.070   0.200   P
NCPMC       6.040   0.200   P
NCPSA       6.300   1.000   P
NCPAG       7.000   0.200   P
NCPMP       7.120   0.200   P
NCPAD       8.700  -1.000   P
NCPHS       8.960   0.200   P
NCPLO       9.810   0.200   P
NCPJL      10.410   0.500   P
# 1991  7 11 10 49 54.94  35.9662 -120.5250    9.46 2.19  0.20  0.29  0.07     224104
NCPMM       2.490   1.000   P
NCPST       2.220   1.000   P
NCPRP       2.990   1.000   P
NCPVC       2.290   0.500   P
NCPPC       2.370   1.000   P
NCPHP       2.490   1.000   P
NCPHO       3.230   1.000   P
NCPSM       3.680   1.000   P
NCPHF       3.600   0.500   P
NCPCR       4.260   1.000   P
NCPCA       4.540   1.000   P
NCPWK       4.080   1.000   P
NCPHA       4.110   1.000   P
NCPGH       4.650   0.500   P
NCPPT       4.880   1.000   P
NCPSR       5.140   0.200   P
NCPMC       6.120   1.000   P
NCPMR       6.390   0.500   P
NCPSA       6.290   1.000   P
NCPAR       8.190   0.200   P
NCPAG       7.040   0.200   P
NCPMP       7.060   0.500   P
NCPKE       8.840   0.200   P
NCPAN       7.440   1.000   P
NCPDR       9.190   0.500   P
NCPSC       7.950   1.000   P
NCPTR       8.290   0.200   P
NCPAD       8.540   0.500   P
NCPHS       8.970   1.000   P
NCPIR       9.870   0.500   P
NCPLO       9.780   1.000   P
NCPJL      10.310   0.200   P
NCPBP      11.280   1.000   P
NCPMG      10.230   0.200   P
NCPBM      11.440   0.500   P
NCPTA      11.520   0.200   P
NCBRV      12.240   0.500   P
NCPAP      12.960   1.000   P
CIYEG      14.080   1.000   P
NCPBI      15.920   0.200   P
CIBCH      16.640   0.200   P
NCBJC      16.880   1.000   P
NCBCW      17.040   0.200   P
NCBAP      17.440   1.000   P
NCBVY      19.680   1.000   P
NCBSR      19.280   0.200   P
NCBPR      19.680   0.100   P
NCJST      26.560   0.200   P
# 1991  7 22 23 51 31.56  35.9683 -120.5292    9.47 1.60  0.24  0.20  0.07     225169
NCPMM       2.500   0.200   P
NCPST       2.210   1.000   P
NCPRP       2.990   0.500   P
NCPVC       2.370   1.000   P
NCPVC       3.990   0.100   S
NCPPC       2.340   1.000   P
NCPPC       4.190   0.100   S
NCPHP       2.460   1.000   P
NCPHO       3.240   1.000   P
NCPHO       5.700   0.100   S
NCPSM       3.640   0.500   P
NCPHF       3.580   0.200   P
NCPCA       4.520   0.500   P
NCPWK       4.090   0.500   P
NCPHA       4.110   0.500   P
NCPGH       4.630   0.500   P
NCPPT       4.820   1.000   P
NCPSR       5.320   1.000   P
NCPMC       6.120   0.500   P
NCPMR       6.650   0.200   P
NCPSA       6.230   1.000   P
NCPAR       7.660   0.200   P
NCPAG       7.040   0.200   P
NCPMP       7.050   0.500   P
NCPAN       7.400   0.500   P
NCPSC       7.990   0.500   P
NCPAD       8.620   1.000   P
NCPHS       8.910   0.500   P
NCPLO       9.800   0.500   P
NCPJL      10.350   0.500   P
NCPMG      10.240   1.000   P
NCBJC      16.960   0.500   P
