# 1987 11 17  4 11 58.72  35.9727 -120.5353   10.15 2.08  0.19  0.28  0.06   10085435
NCPMM       2.640   1.000   P
NCPST       2.380   1.000   P
NCPVC       2.520   1.000   P
NCPVC       4.230   0.200   S
NCPPC       2.410   1.000   P
NCPHP       2.460   1.000   P
NCPHO       3.470   1.000   P
NCPHO       5.990   0.200   S
NCPCR       4.260   1.000   P
NCPCA       4.740   1.000   P
NCPWK       4.280   1.000   P
NCPHA       4.360   1.000   P
NCPPT       4.740   1.000   P
NCPSR       5.380   1.000   P
NCPMC       6.380   1.000   P
NCPRC       6.850   1.000   P
NCPSA       6.150   1.000   P
NCPMR       6.620   1.000   P
NCPAR       7.970   0.100   P
NCPMP       6.890   0.500   P
NCPAG       7.180   0.200   P
NCPKE       9.360   0.500   P
NCPPR       7.170   0.200   P
NCPAN       7.460   1.000   P
NCPSH       8.240   1.000   P
NCPTR       8.460   0.200   P
NCPAD       8.640   1.000   P
NCPHS       8.930   1.000   P
NCPBW       9.320   0.100   P
NCPLO       9.640   1.000   P
NCPJL      10.170   1.000   P
NCPMG      10.410   1.000   P
NCPHC      11.440   1.000   P
NCPBM      11.530   1.000   P
NCPTA      11.730   0.200   P
NCBPI      13.560   0.200   P
NCBSG      13.740   0.200   P
NCBVL      15.390   0.100   P
NCBSM      15.470   0.200   P
CIBCH      16.770   1.000   P
NCBJC      16.480   0.200   P
NCBLR      17.610   0.100   P
NCBSR      19.650   0.500   P
# 1988  1  6  7  3 37.12  35.9630 -120.5307    9.68 1.05  0.69  0.51  0.04     110568
NCPMM       2.580   0.500   P
NCPMM       4.460   0.100   S
NCPST       2.300   1.000   P
NCPVC       2.450   1.000   P
NCPVC       4.080   0.100   S
NCPPC       2.460   1.000   P
NCPHP       2.590   1.000   P
NCPHO       3.300   0.500   P
NCPWK       4.120  -1.000   P
NCPPT       4.950  -1.000   P
NCPSR       5.240  -0.500   P
NCPSA       6.380   1.000   P
NCPHS       9.040   0.500   P
# 1988  1 26 16 33 40.37  35.9682 -120.5232    5.16 0.99  0.92  1.08  0.03     111422
NCPMM       1.210   0.100   P
NCPST       1.340  -0.500   P
NCPVC       1.550   0.500   P
NCPPC       1.650   0.500   P
NCPHP       1.840  -1.000   P
NCPHO       2.840   0.200   P
NCPSM       3.370   0.100   P
NCPWK       3.810   0.200   P
NCPPT       4.810  -0.500   P
NCPSR       5.400   0.200   P
# 1988  2 28  6  7 10.57  35.9638 -120.5265    9.67 1.21  0.36  0.31  0.05   10086282
NCPMM       2.490   0.200   P
NCPMM       4.520   0.100   S
NCPST       2.210   1.000   P
NCPVC       2.350   1.000   P
NCPVC       3.970   0.500   S
NCPPC       2.380   1.000   P
NCPHP       2.510   1.000   P
NCPHP       4.240   0.200   S
NCPHO       3.200   1.000   P
NCPHO       5.620   0.500   S
NCPSM       3.690   1.000   P
NCPCR       4.260   0.200   P
NCPCA       4.500   0.500   P
NCPWK       4.020   1.000   P
NCPHA       4.020   0.200   P
NCPGH       4.560   0.100   P
NCPPT       4.910   1.000   P
NCPSR       5.070   0.200   P
NCPMC       6.070   0.100   P
NCPSA       6.300  -1.000   P
# 1988  3  2 22 31 34.45  35.9728 -120.5297    3.33 1.54  0.28  0.38  0.05     113195
NCPMM       1.510   1.000   P
NCPMM       2.880   0.200   S
NCPST       1.460   1.000   P
NCPVC       1.650   1.000   P
NCPVC       2.800   0.200   S
NCPPC       1.620   1.000   P
NCPPC       2.780   0.200   S
NCPHP       1.750   1.000   P
NCPHP       3.060   0.100   S
NCPSM       3.240   1.000   P
NCPHO       2.980   1.000   P
NCPCR       4.050   0.500   P
NCPCA       4.630   0.500   P
NCPWK       3.940   0.500   P
NCPHA       4.090   0.500   P
NCPPT       4.670   1.000   P
NCPSR       5.400   0.200   P
NCPSA       6.240   0.500   P
NCPHS       9.090   0.100   P
NCPJL      10.490   1.000   P
NCPMG      10.490   0.500   P
# 1988  3  8  7 56 13.42  35.9780 -120.5230    4.69 0.97  0.38  0.42  0.04     113507
NCPMM       1.550  -0.500   P
NCPMM       2.910   0.100   S
NCPST       1.500  -1.000   P
NCPVC       1.680   0.500   P
NCPPC       2.850   0.100   S
NCPHP       1.800  -1.000   P
NCPSM       3.300   0.200   P
NCPHO       3.010   0.500   P
NCPCR       4.040   0.100   P
NCPWK       3.890   0.100   P
NCPHA       4.130   0.500   P
NCPGH       4.820   0.100   P
NCPPT       4.720  -0.500   P
NCPSR       5.470   0.100   P
NCPSA       6.260   0.200   P
NCPAN       7.400   0.100   P
NCPHS       9.170   0.200   P
# 1988  3 31  8 47 33.33  35.9355 -120.4928    9.76 2.04  0.23  0.36  0.06     114851
NCPMM       2.470   0.500   P
NCPST       2.070   0.500   P
NCPVC       2.260   1.000   P
NCPHO       2.720   0.500   P
NCPPC       2.620   1.000   P
NCPHP       2.900   1.000   P
NCPCA       3.950   0.500   P
NCPHA       3.400   0.200   P
NCPWK       3.560   1.000   P
NCPGH       3.660   0.500   P
NCPSM       4.310   0.500   P
NCPCR       4.540   0.500   P
NCPSR       4.400   1.000   P
NCPMC       5.400   0.500   P
NCPMR       5.540   0.200   P
NCPPT       5.560   0.500   P
NCPAG       6.140   0.100   P
NCPKE       8.720   0.200   P
NCPSA       6.780   0.200   P
NCPPR       6.690   0.200   P
NCPSC       7.320   0.500   P
NCPTR       7.510   0.200   P
NCPMP       7.770   0.100   P
NCPAN       7.530   0.200   P
NCPAD       8.490   0.500   P
NCPHS       9.210   1.000   P
NCPWM      12.710  -1.000   P
NCPLO      10.440   0.500   P
NCPBM      10.670   0.500   P
NCPJL      10.880   0.500   P
NCPTA      11.420   1.000   P
CIYEG      13.200   0.200   P
NCPAP      13.320   0.500   P
NCBBG      16.750   1.000   P
NCBPI      14.610   0.100   P
NCBSG      14.600   0.100   P
NCBVL      16.650   0.500   P
CICRG      18.410   0.500   P
NCBJO      17.670   0.500   P
NCBJC      17.680   0.500   P
NCBPC      20.690   0.100   P
# 1988  4 14  6 37 48.50  35.9762 -120.5272    6.32 0.93  0.33  0.68  0.03     115651
NCPMM       1.770   0.500   P
NCPST       1.630   1.000   P
NCPVC       1.810   1.000   P
NCPPC       1.770   1.000   P
NCPHP       1.880   1.000   P
NCPSM       3.110   0.200   P
NCPHO       3.010   0.500   P
NCPCR       4.040   0.500   P
NCPCA       4.620   0.500   P
NCPWK       3.970   0.500   P
NCPHA       4.160   0.200   P
NCPPT       4.660  -1.000   P
NCPSR       5.410   0.200   P
# 1988  5 23  9 51 23.61  35.9627 -120.5260    9.88 2.02  0.15  0.24  0.05     117746
NCPMM       2.500   0.500   P
NCPST       2.210   1.000   P
NCPVC       2.360   1.000   P
NCPVC       3.960   0.100   S
NCPPC       2.370   1.000   P
NCPPC       4.010   0.100   S
NCPHP       2.500   1.000   P
NCPHP       4.270   0.100   S
NCPHO       3.200   1.000   P
NCPHO       5.580   0.200   S
NCPSM       3.710   1.000   P
NCPCR       4.250   1.000   P
NCPCA       4.520   1.000   P
NCPWK       4.030   1.000   P
NCPHA       4.060   1.000   P
NCPGH       4.590   0.500   P
NCPPT       4.900   1.000   P
NCPSR       5.080   0.500   P
NCPMC       6.080   1.000   P
NCPMR       6.450   0.200   P
NCPRC       7.050   0.500   P
NCPSA       6.280   1.000   P
NCPAR       8.250   0.100   P
NCPAG       6.960   0.200   P
NCPMP       7.060   0.500   P
NCPPR       6.960   0.500   P
NCPAN       7.430   1.000   P
NCPSC       7.900   0.500   P
NCPDR       9.140   0.100   P
NCPTR       8.330   0.100   P
NCPAD       8.540   0.200   P
NCPHB      11.380   0.200   P
NCPHS       8.960   1.000   P
NCPBW       9.490   0.200   P
NCPLO       9.790   1.000   P
NCPWM      12.430   1.000   P
NCPJL      10.320   0.100   P
NCPMG      10.190   0.500   P
NCPBM      11.260   0.500   P
NCPTA      11.510   0.100   P
NCPCB      12.200   0.100   P
NCPAP      12.880   0.200   P
CIYEG      13.790   0.100   P
NCBPI      13.840   0.100   P
NCBSG      13.960   0.200   P
NCPBI      15.880   0.200   P
NCBVL      15.420   0.200   P
NCBSM      16.500   0.500   P
CIBCH      16.220   0.100   P
NCBJO      16.770   0.100   P
NCBJC      16.940   0.200   P
NCBAP      17.620   0.500   P
NCBPC      20.470   0.100   P
NCJBZ      29.670   0.100   P
NCCAD      33.360   0.200   P
# 1988  6  9  3 17 21.77  35.9697 -120.5307    3.84 2.81  0.17  0.24  0.07     118605
NCPMM       1.540   1.000   P
NCPST       1.490   1.000   P
NCPVC       1.670   1.000   P
NCPPC       1.660   1.000   P
NCPHP       1.790   1.000   P
NCPSM       3.280   1.000   P
NCPHO       3.000   1.000   P
NCPCR       4.090   1.000   P
NCPWK       3.970   1.000   P
NCPCA       4.650   1.000   P
NCPHA       4.120   1.000   P
NCPGH       4.510   0.200   P
NCPPT       4.720   1.000   P
NCPSR       5.410   1.000   P
NCPMC       6.280   1.000   P
NCPRC       7.070   1.000   P
NCPSA       6.280   1.000   P
NCPMR       6.570   0.500   P
NCPAR       8.040   0.200   P
NCPMP       7.040   1.000   P
NCPAG       7.220   0.200   P
NCPKE       9.070   0.200   P
NCPPR       7.240   0.500   P
NCPAN       7.600   1.000   P
NCPDR       9.250   0.500   P
NCPSC       8.170   1.000   P
NCPTR       8.530   1.000   P
NCPHS       9.150   1.000   P
NCPHR       9.890   0.200   P
NCPBW       9.540   1.000   P
NCPLO       9.800   1.000   P
NCPJL      10.490   1.000   P
NCPMG      10.500   1.000   P
NCPBM      11.610   1.000   P
NCPTA      11.830   1.000   P
NCPCB      12.550   1.000   P
NCPAP      13.070   1.000   P
NCBBN      14.720   0.100   P
CIYEG      14.110   1.000   P
NCPKY      14.070   1.000   P
NCBMS      16.210   0.500   P
NCBBG      16.160   0.100   P
NCBPI      14.210   0.500   P
NCPPB      15.410   0.200   P
NCBAV      17.200   0.200   P
NCBVL      15.890   0.200   P
NCPBI      16.150   1.000   P
NCPAB      13.780   0.500   P
NCBSM      16.090   0.200   P
CIBCH      16.530   0.200   P
NCBEH      18.050   1.000   P
NCBJC      16.990   0.200   P
NCBCW      17.000   0.200   P
NCBAP      17.500   0.200   P
CICRG      19.340   0.100   P
NCBPF      19.290   0.200   P
NCBVY      20.010   0.500   P
NCBSR      20.180   0.200   P
NCBPR      20.030   1.000   P
NCBPC      20.450   1.000   P
NCHFP      21.060   0.200   P
NCHJG      22.200   1.000   P
NCHMO      23.540   0.200   P
NCJRG      27.630   0.200   P
NCJUC      30.500   0.500   P
# 1988  8 26 13 12  5.37  35.9625 -120.5205    9.53 1.14  0.51  0.44  0.04     122877
NCPMM       2.510   0.500   P
NCPST       2.200   1.000   P
NCPVC       2.360   1.000   P
NCPPC       2.410   1.000   P
NCPHP       2.550   0.500   P
NCPHO       3.170   1.000   P
NCPSM       3.790   0.500   P
NCPHF       3.690   0.200   P
NCPCA       4.500   0.500   P
NCPWK       4.010   0.500   P
NCPHA       4.030   0.500   P
NCPGH       4.560   0.200   P
NCPSR       5.040   0.500   P
NCPPT       4.970  -1.000   P
NCPAN       7.440   0.500   P
NCPSC       8.000   0.500   P
NCPHS       8.960   0.200   P
NCPJL      10.540  -1.000   P
# 1988  9 25  4 16 17.40  35.9588 -120.5145    4.46 1.03  0.41  0.46  0.04     124333
NCPMM       1.520  -1.000   P
NCPST       1.340   1.000   P
NCPVC       1.550   0.500   P
NCPPC       1.850   1.000   P
NCPHP       2.100   1.000   P
NCPHO       2.650   1.000   P
NCPSM       3.620   0.500   P
NCPCA       4.330   0.500   P
NCPWK       3.670   1.000   P
NCPHA       3.640   0.500   P
NCPSR       4.970   0.500   P
NCPPT       5.010   0.500   P
# 1988  9 26  4 37 22.72  35.9377 -120.4987    9.09 1.69  0.18  0.29  0.06     124369
NCPMM       2.410   0.200   P
NCPMM       4.080   0.100   S
NCPST       1.950   1.000   P
NCPVC       2.130   0.200   P
NCPVC       3.590   0.100   S
NCPHO       2.690   1.000   P
NCPHO       4.710   0.100   S
NCPPC       2.480   1.000   P
NCPPC       4.270   0.100   S
NCPHF       2.880   0.100   P
NCPHF       5.400   0.100   S
NCPHP       2.760   1.000   P
NCPHP       4.710   0.100   S
NCPCA       4.010   1.000   P
NCPWK       3.570   1.000   P
NCPHA       3.470   1.000   P
NCPSM       4.190   1.000   P
NCPGH       3.740   0.100   P
NCPCR       4.440   0.500   P
NCPSR       4.490   1.000   P
NCPMC       5.480   1.000   P
NCPMC       9.510   0.100   S
NCPPT       5.440   1.000   P
NCPMR       5.770   0.200   P
NCPAG       6.350   1.000   P
NCPSA       6.730   1.000   P
NCPAR       8.430   1.000   P
NCPSC       7.400   1.000   P
NCPMP       7.650   0.500   P
NCPAN       7.520   1.000   P
NCPDR       9.740   1.000   P
NCPAD       8.510   0.100   P
NCPHS       9.210   1.000   P
NCPHR      10.370   0.100   P
NCPMG       9.770   1.000   P
NCPBW      10.090   0.200   P
NCPLO      10.340   1.000   P
NCPBM      10.770   1.000   P
NCPJL      10.800   0.200   P
NCPTA      11.200   0.100   P
CIYEG      13.340   0.100   P
NCBPI      14.580   0.100   P
CIBCH      15.630   0.100   P
NCBVL      16.520   1.000   P
NCBPC      21.160   0.500   P
# 1988 10 12  4 57 54.20  35.9552 -120.5192    4.70 1.62  0.20  0.23  0.06     125330
NCPMM       1.590   1.000   P
NCPMM       2.750   0.100   S
NCPST       1.400   1.000   P
NCPVC       1.630   1.000   P
NCPVC       2.760   0.100   S
NCPPC       1.870   1.000   P
NCPPC       3.180   0.100   S
NCPHP       2.090   1.000   P
NCPHO       2.710   1.000   P
NCPHO       4.890   0.100   S
NCPHF       3.130   0.200   P
NCPSM       3.600   1.000   P
NCPCA       4.290   0.200   P
NCPWK       3.730   1.000   P
NCPCR       4.260   1.000   P
NCPHA       3.760   1.000   P
NCPGH       4.120   0.100   P
NCPSR       5.010   1.000   P
NCPPT       4.990   1.000   P
NCPMC       5.920   1.000   P
NCPMR       6.440   0.500   P
NCPSA       6.500   1.000   P
NCPAG       7.000   0.100   P
NCPMP       7.290   0.500   P
NCPSC       7.830   0.200   P
NCPHS       9.190   0.500   P
NCPBW       9.770   0.200   P
NCPLO      10.070   1.000   P
NCPMG      10.180   0.200   P
NCPJL      10.630   0.200   P
NCPTA      11.570   0.200   P
# 1988 11 10 12 52 26.58  35.9633 -120.5208   10.17 2.41  0.19  0.26  0.06     126745
NCPMM       2.530   1.000   P
NCPST       2.230   1.000   P
NCPVC       2.380   1.000   P
NCPPC       2.420   1.000   P
NCPHP       2.560   1.000   P
NCPHO       3.210   1.000   P
NCPSM       3.780   1.000   P
NCPHF       3.520   0.500   P
NCPCA       4.520   1.000   P
NCPWK       4.030   1.000   P
NCPHA       4.070   1.000   P
NCPGH       4.310   0.500   P
NCPSR       5.060   1.000   P
NCPPT       4.960   1.000   P
NCPMC       6.070   1.000   P
NCPMR       6.220   0.500   P
NCPSA       6.340   1.000   P
NCPAR       8.060   0.500   P
NCPAG       6.900   1.000   P
NCPMP       7.130   0.500   P
NCPKE       8.870   0.500   P
NCPPR       6.970   0.500   P
NCPAN       7.450   1.000   P
NCPSC       7.890   1.000   P
NCPDR       9.330   1.000   P
NCPTR       8.220   0.500   P
NCPAD       8.550   1.000   P
NCPHB      11.390   1.000   P
NCPHS       8.990   1.000   P
NCPHR       9.670   0.500   P
NCPBW       9.780   1.000   P
NCPLO       9.840   1.000   P
NCPMG      10.180   1.000   P
NCPJL      10.490   1.000   P
NCPBM      11.260   1.000   P
NCPHC      11.460   0.500   P
NCPTA      11.490   0.500   P
NCBRV      12.540   0.200   P
NCPAP      12.920   0.500   P
CIYEG      13.770   0.500   P
NCPKY      13.710   0.500   P
NCBMS      15.470   1.000   P
NCBBG      15.620   0.500   P
NCBPI      13.870   0.200   P
CISIM      14.790   0.500   P
NCBSG      13.890   0.500   P
NCPPB      15.280   0.200   P
NCBAV      16.450   0.100   P
NCPBI      15.720   0.500   P
NCPAB      15.950   0.500   P
NCBVL      15.710   0.500   P
NCBEM      16.610   0.100   P
NCBSM      15.930   0.500   P
CIBCH      16.150   0.500   P
NCBJO      16.880   0.500   P
NCBAP      17.510   1.000   P
CICRG      18.920   0.500   P
CISCC      19.960   0.200   P
NCBPC      19.920   0.100   P
# 1989  1  6  3 23 14.32  35.9610 -120.5365    9.66 1.26  0.91  0.63  0.04   10089087
NCPMM       2.730   0.100   P
NCPST       2.310  -1.000   P
NCPVC       2.460  -1.000   P
NCPHP       2.590  -1.000   P
NCPSM       3.790   0.200   P
NCPCR       4.330   0.100   P
NCPWK       4.080   0.200   P
NCPHA       4.130   0.200   P
NCPPT       4.960  -0.500   P
NCPSR       5.370   0.100   P
NCPSA       6.320   0.200   P
# 1989  1 29 15 33 41.67  35.9733 -120.5355    9.65 1.32  0.30  0.41  0.06     130609
NCPMM       2.600   0.500   P
NCPST       2.320   1.000   P
NCPVC       2.470   1.000   P
NCPPC       2.350   1.000   P
NCPHP       2.400   1.000   P
NCPSM       3.480   1.000   P
NCPHO       3.430   1.000   P
NCPCR       4.210  -1.000   P
NCPHF       3.740   0.500   P
NCPCA       4.710   1.000   P
NCPHA       4.330   1.000   P
NCPPT       4.690   1.000   P
NCPGH       4.760   0.500   P
NCPSR       5.360   0.500   P
NCPMC       6.360   0.500   P
NCPSA       6.140   0.500   P
NCPAG       7.180   0.500   P
NCPAN       7.440   0.500   P
NCPSC       8.160   0.500   P
NCPHS       8.900   0.500   P
NCPLO       9.660   1.000   P
NCPJL      10.240   0.500   P
NCPMG      10.410   0.500   P
# 1989  3 16  0 12 10.05  35.9665 -120.5287    9.55 1.79  0.23  0.36  0.08     132918
NCPMM       2.460   0.500   P
NCPST       2.180   1.000   P
NCPVC       2.320   0.500   P
NCPPC       2.320   1.000   P
NCPHP       2.430   0.500   P
NCPSM       3.620   1.000   P
NCPHO       3.170   0.500   P
NCPHF       3.690   1.000   P
NCPCR       4.190   1.000   P
NCPCA       4.500   1.000   P
NCPWK       4.020   0.500   P
NCPHA       4.040   0.500   P
NCPGH       4.560   0.200   P
NCPPT       4.810   0.500   P
NCPSR       5.080   0.500   P
NCPMC       6.070   0.200   P
NCPMR       6.600   1.000   P
NCPSA       6.190   0.500   P
NCPAG       6.940   0.500   P
NCPAN       7.360   0.200   P
NCPAD       8.690   1.000   P
NCPHS       8.870   0.200   P
NCPIR       9.990   1.000   P
NCPLO       9.690   0.500   P
NCPJL      10.230   0.500   P
NCPMG      10.180   1.000   P
NCPTA      11.470   0.200   P
NCPAP      12.810   0.500   P
CIYEG      14.040   1.000   P
NCBSG      13.580   0.500   P
NCPBI      16.160   0.200   P
NCBJC      16.870   0.200   P
# 1989  5  5  2 29 47.97  35.9663 -120.5258    9.81 2.01  0.21  0.26  0.06     135611
NCPMM       2.470   0.500   P
NCPST       2.200   1.000   P
NCPVC       2.350   1.000   P
NCPPC       2.340   1.000   P
NCPHP       2.460   1.000   P
NCPHO       3.210   1.000   P
NCPHO       5.570   0.200   S
NCPSM       3.660   0.500   P
NCPHF       3.560   0.100   P
NCPCR       4.210   0.500   P
NCPCA       4.510   0.200   P
NCPHA       4.080   1.000   P
NCPGH       4.610   0.200   P
NCPPT       4.850   1.000   P
NCPSR       5.110   0.100   P
NCPMC       6.090   1.000   P
NCPMR       6.430   0.100   P
NCPSA       6.260   1.000   P
NCPAG       7.010   0.200   P
NCPMP       7.010   0.200   P
NCPPR       7.220   0.500   P
NCPAN       7.410   0.100   P
NCPDR       9.280  -1.000   P
NCPSC       7.910   0.500   P
NCPAD       8.640   1.000   P
NCPHS       8.940   1.000   P
NCPBW       9.650   1.000   P
NCPLO       9.750   0.500   P
NCPJL      10.280   0.200   P
NCPMG      10.200   0.500   P
NCPBM      11.290   0.200   P
NCPTA      11.540   1.000   P
NCPAP      12.940   1.000   P
CIYEG      13.900   1.000   P
NCPBI      16.340   0.200   P
CIBCH      16.350   0.200   P
NCBPC      20.250   1.000   P
# 1989  5 25 20 41 54.57  35.9718 -120.5302    4.83 1.00  0.55  0.49  0.04     136882
NCPMM       1.780   0.500   P
NCPST       1.600   1.000   P
NCPVC       1.790   1.000   P
NCPPC       1.780   1.000   P
NCPHP       1.900   1.000   P
NCPSM       3.320  -0.500   P
NCPHO       2.990   0.500   P
NCPHF       3.870   0.100   P
NCPCA       4.600   0.200   P
NCPWK       3.940  -1.000   P
NCPHA       3.950   0.200   P
NCPGH       4.620   0.100   P
NCPPT       4.670   0.200   P
NCPJL      10.390   0.500   P
# 1989  8 23  5 57 31.68  35.9558 -120.5158    2.76 1.29  0.36  0.46  0.06     142794
NCPMM       1.130   0.500   P
NCPST       1.100  -1.000   P
NCPVC       1.370   0.500   P
NCPPC       1.730   0.500   P
NCPHP       2.010   1.000   P
NCPHO       2.580   0.500   P
NCPHF       3.110   0.200   P
NCPSM       3.660   0.200   P
NCPWK       3.670  -1.000   P
NCPCR       4.310  -0.500   P
NCPHA       3.700   0.500   P
NCPGH       4.350   0.200   P
NCPSR       5.160   0.200   P
NCPPT       5.080  -1.000   P
NCPMC       5.900   0.500   P
