# 1990 11 30  4 25 59.59  35.9467 -120.4997    9.95 3.09  0.14  0.22  0.07     201478
NCPMM       2.480   1.000   P
NCPMM       4.260   0.200   S
NCPST       2.130   1.000   P
NCPVC       2.310   1.000   P
NCPRP       3.080   1.000   P
NCPPC       2.550   1.000   P
NCPPC       4.260   0.200   S
NCPHO       2.910   1.000   P
NCPHO       5.020   0.200   S
NCPHP       2.780   1.000   P
NCPHP       4.760   0.200   S
NCPHF       3.080   1.000   P
NCPHF       5.570   0.200   S
NCPCA       4.190   1.000   P
NCPWK       3.760   1.000   P
NCPSM       4.140   1.000   P
NCPCR       4.450   1.000   P
NCPGH       3.940   1.000   P
NCPSR       4.680   1.000   P
NCPPT       5.380   1.000   P
NCPMC       5.690   1.000   P
NCPMC       9.810   0.100   S
NCPMR       5.790   1.000   P
NCPRC       7.510   0.500   P
NCPAR       8.240   1.000   P
NCPSA       6.670   1.000   P
NCPKE       8.620   0.500   P
NCPMP       7.560   1.000   P
NCPOP       7.370   0.500   P
NCPSC       7.580   1.000   P
NCPAN       7.540   1.000   P
NCPTR       7.850   0.500   P
NCPDR       9.720   1.000   P
NCPAD       8.570   1.000   P
NCPPG      10.530   0.500   P
NCPHB      11.140   0.500   P
NCPIR       9.330   1.000   P
NCPHS       9.190   1.000   P
NCPHR      10.420   0.100   P
NCPBP      10.510   0.200   P
NCPBW      10.000   0.500   P
NCPMG       9.910   1.000   P
NCPLO      10.270   1.000   P
NCPWM      12.530   0.100   P
NCPJL      10.720   1.000   P
NCPBM      10.930   1.000   P
NCPTA      11.310   1.000   P
NCPCB      12.270   0.200   P
NCBRV      12.590   0.500   P
CIYEG      13.330   0.200   P
NCPKY      13.510   1.000   P
NCPAP      13.180   1.000   P
CISIM      14.270   0.200   P
NCBBN      14.460   1.000   P
NCBMS      15.180   0.200   P
NCPPB      14.820   0.200   P
NCBBG      15.420   0.100   P
NCBPI      14.240   0.200   P
NCBSG      14.180   0.500   P
NCPBI      15.340   0.200   P
NCPAB      15.600   0.200   P
NCBAV      15.940   0.100   P
CIBCH      15.770   0.200   P
NCBVL      15.860   0.200   P
NCBEM      16.780   0.100   P
NCBSM      16.160   0.500   P
NCBEH      17.880   0.100   P
NCBSC      17.220   0.200   P
NCBRM      18.300   0.100   P
NCBJO      17.280   0.500   P
NCBCW      17.320   0.200   P
NCBJC      17.300   0.500   P
CICRG      18.190   0.200   P
NCBLR      19.870   0.500   P
NCBAP      17.730   0.500   P
NCBHR      19.350   0.100   P
NCBCG      19.150   1.000   P
CISCC      19.350   0.100   P
NCHQR      20.280   0.100   P
NCPML      19.460   0.100   P
NCBPF      19.000   0.100   P
NCBSL      20.450   0.100   P
NCHJS      20.830   1.000   P
NCBVY      19.900   0.100   P
NCBSR      19.460   0.200   P
NCBPR      19.900   0.100   P
NCBPC      19.500   0.100   P
NCHFP      20.310   0.200   P
NCHLT      21.290   0.100   P
CITMB      21.610   0.100   P
NCHSL      22.770   0.200   P
NCHSF      21.240   0.100   P
CIPKM      21.850   0.200   P
NCHKR      22.510   0.100   P
NCHJG      21.310   0.100   P
NCHFH      22.210   0.100   P
NCMHD      22.490   1.000   P
NCHER      24.230   1.000   P
NCHMO      23.140   0.100   P
NCHCR      23.740   0.200   P
CIMAR      23.760   0.200   P
NCHCA      24.220   0.200   P
NCHCO      23.840   0.500   P
NCJEL      27.230   0.500   P
CISYP      25.980   0.200   P
NCJRR      25.240   0.200   P
NCJPL      28.650   0.500   P
CIWOF      26.000   0.100   P
CIABL      26.170   0.100   P
CIPLE      27.590   0.500   P
NCJTG      30.260   1.000   P
NCMMI      27.770   0.200   P
CIWAS      27.440   0.500   P
CIRYS      28.380   1.000   P
NCJRG      27.610   0.200   P
NCCCO      31.730   0.500   P
CIWJP      29.830   0.500   P
NCJBC      33.560   0.500   P
CIBMT      29.300   0.200   P
NCMPR      32.820   0.200   P
CIWBS      33.590   0.200   P
CISND      34.090   0.500   P
CIWCH      34.060   0.500   P
NNSTR      35.500   1.000   P
NCMSL      36.480   0.200   P
NNBHP      37.250   0.200   P
NCMGP      37.290   0.200   P
NCMDC      36.390   0.200   P
NNWMD      36.340   1.000   P
NCMCS      37.840   0.500   P
NCMLM      39.460   0.200   P
CITOW      38.600   0.500   P
NNORC      38.540   0.500   P
NNPOC      41.750   0.200   P
NNMGN      40.930   0.100   P
# 1990 11 30  4 28  8.28  35.9445 -120.5018    9.60 1.92  0.22  0.28  0.07     201479
NCPMM       2.410   0.200   P
NCPMM       4.310   0.200   S
NCPST       2.060   1.000   P
NCPVC       2.240   1.000   P
NCPVC       3.770   0.200   S
NCPRP       3.030   0.500   P
NCPPC       2.480   1.000   P
NCPPC       4.250   0.200   S
NCPHO       2.830   1.000   P
NCPHO       4.850   0.100   S
NCPHP       2.730   1.000   P
NCPHP       4.730   0.100   S
NCPHF       3.010   0.200   P
NCPHF       5.690   0.100   S
NCPCA       4.120   1.000   P
NCPWK       3.690   1.000   P
NCPSM       4.100   1.000   P
NCPCR       4.400   0.500   P
NCPGH       3.860   0.500   P
NCPSR       4.600   1.000   P
NCPPT       5.330   1.000   P
NCPMC       5.620   0.500   P
NCPMR       5.730   0.200   P
NCPRC       7.620   1.000   P
NCPSA       6.640   1.000   P
NCPMP       7.520   0.200   P
NCPSC       7.520   0.500   P
NCPAN       7.490   0.200   P
NCPAD       8.490   0.200   P
NCPIR       9.280   0.100   P
NCPHS       9.150   0.500   P
NCPBP      10.510   1.000   P
NCPBW      10.020   0.100   P
NCPMG       9.840   0.500   P
NCPLO      10.230   0.500   P
NCPJL      10.700   0.500   P
NCPTA      11.230   0.100   P
CIYEG      13.340   0.100   P
NCPAP      13.160   1.000   P
NCBPI      14.220   0.200   P
NCBVL      16.140   0.200   P
NCBJO      17.400   0.500   P
NCBJC      17.420   1.000   P
NCBAP      17.710   1.000   P
NCBPC      20.710   1.000   P
# 1990 11 30 17  8 21.71  35.9470 -120.4950   10.56 0.90  0.38  0.74  0.03     201530
NCPMM       2.550   0.200   P
NCPST       2.060   0.200   P
NCPVC       2.280   0.200   P
NCPVC       3.780   0.200   S
NCPRP       3.040   0.200   P
NCPHO       2.810  -1.000   P
NCPHO       4.880   0.100   S
NCPPC       2.500   1.000   P
NCPPC       4.290   0.200   S
NCPHP       2.740   1.000   P
NCPHP       4.700   0.100   S
NCPHF       3.040   0.200   P
NCPCA       4.110  -0.500   P
NCPWK       3.660   0.500   P
NCPSM       4.120   0.500   P
NCPPT       5.340   0.200   P
NCPHS       9.120   0.200   P
# 1990 12  4 13 13 59.14  35.9518 -120.5012    9.60 1.81  0.24  0.20  0.07     201750
NCPST       1.910   1.000   P
NCPMM       2.310   0.200   P
NCPVC       2.090   1.000   P
NCPVC       3.640   0.200   S
NCPPC       2.310   1.000   P
NCPPC       4.140   0.100   S
NCPRP       2.860   1.000   P
NCPHP       2.540   1.000   P
NCPHP       4.530   0.100   S
NCPHO       2.720   1.000   P
NCPHO       4.910   0.100   S
NCPHF       2.910   0.200   P
NCPHF       5.890   0.100   S
NCPWK       3.570   1.000   P
NCPSM       3.890   1.000   P
NCPCA       4.030   0.500   P
NCPCR       4.210   0.200   P
NCPGH       3.760   0.500   P
NCPSR       4.490   0.500   P
NCPPT       5.110   1.000   P
NCPMC       5.480   0.200   P
NCPMR       5.600   0.200   P
NCPSA       6.420   1.000   P
NCPRC       7.130   0.100   P
NCPAR       8.220   0.100   P
NCPMP       7.290   0.200   P
NCPAN       7.310   0.200   P
NCPSC       7.390   0.200   P
NCPAD       8.310   0.200   P
NCPHS       8.960   0.500   P
NCPIR       9.220   0.200   P
NCPBW       9.780   0.100   P
NCPBP      10.580  -1.000   P
NCPMG       9.700   0.500   P
NCPLO      10.020   0.500   P
NCPJL      10.230   0.100   P
NCPBM      10.750   0.200   P
NCPTA      11.090   0.200   P
CIYEG      13.250   0.100   P
NCPKY      13.280   0.100   P
NCPAP      12.800   0.100   P
NCBPI      14.130   1.000   P
NCBSG      14.120   0.200   P
NCBVL      16.090   0.200   P
NCBJO      17.010   0.100   P
NCBJC      17.170   0.100   P
NCBAP      17.450   0.100   P
# 1990 12  4 13 32 25.73  35.9520 -120.5017    9.76 1.78  0.23  0.23  0.07     201753
NCPMM       2.500   0.200   P
NCPST       2.160   1.000   P
NCPVC       2.340   1.000   P
NCPVC       3.890   0.200   S
NCPRP       3.110   1.000   P
NCPPC       2.550   1.000   P
NCPPC       4.240   0.100   S
NCPHO       2.970   1.000   P
NCPHO       5.140   0.200   S
NCPHP       2.770   1.000   P
NCPHP       4.760   0.100   S
NCPHF       3.140   0.200   P
NCPCA       4.250   0.500   P
NCPWK       3.810   1.000   P
NCPSM       4.130   0.500   P
NCPCR       4.450   0.500   P
NCPGH       3.990   0.500   P
NCPSR       4.730   0.500   P
NCPPT       5.350   1.000   P
NCPMC       5.740   0.200   P
NCPMR       5.850   0.200   P
NCPRC       7.470   0.100   P
NCPSA       6.660   1.000   P
NCPMP       7.520   0.200   P
NCPSC       7.640   0.500   P
NCPAN       7.550   0.200   P
NCPAD       8.570   0.200   P
NCPIR       9.470   0.100   P
NCPHS       9.190   0.500   P
NCPBW       9.830   0.100   P
NCPBP      10.530   0.200   P
NCPMG       9.940   0.500   P
NCPLO      10.260   0.500   P
NCPJL      10.700   0.200   P
NCPBM      10.990   0.200   P
NCPTA      11.270   0.100   P
CIYEG      13.550   0.100   P
NCPAP      13.170   0.500   P
NCBPI      14.390   0.100   P
NCBJO      17.400   0.500   P
NCBJC      17.510   0.500   P
NCBAP      17.790   0.100   P
# 1990 12  4 14 13 48.52  35.9512 -120.5012   11.29 0.88  0.39  0.42  0.04     201754
NCPMM       2.570   0.100   P
NCPST       2.120   0.500   P
NCPVC       2.270   0.100   P
NCPVC       3.840   0.100   S
NCPRP       3.070   0.200   P
NCPPC       2.520   0.500   P
NCPPC       4.330   0.100   S
NCPHO       2.930   0.500   P
NCPHO       5.090   0.100   S
NCPHP       2.750   0.500   P
NCPHF       3.120   0.100   P
NCPCA       4.220   0.200   P
NCPWK       3.780  -1.000   P
NCPSM       4.090   0.200   P
NCPSR       4.690   0.200   P
NCPPT       5.330  -0.500   P
NCPHS       9.150  -0.500   P
# 1990 12  6  5 25 58.60  35.9507 -120.5043    9.42 1.51  0.47  0.33  0.06     201907
NCPMM       2.390   0.100   P
NCPST       2.030   1.000   P
NCPVC       2.220   0.500   P
NCPVC       3.760   0.200   S
NCPRP       3.000   0.500   P
NCPPC       2.420   1.000   P
NCPHP       2.640   1.000   P
NCPHO       2.840   1.000   P
NCPHF       3.000   0.100   P
NCPWK       3.680   1.000   P
NCPSM       4.010   0.500   P
NCPCA       4.140   0.200   P
NCPCR       4.330   0.200   P
NCPGH       3.850   0.200   P
NCPSR       4.590   0.500   P
NCPPT       5.220  -1.000   P
NCPMC       5.760  -1.000   P
NCPSA       6.380   0.100   P
NCPMP       7.390   0.200   P
NCPSC       7.490   0.200   P
NCPAD       8.440   0.100   P
NCPIR       9.380   0.100   P
NCPHS       9.040   0.500   P
NCPMG       9.810   0.500   P
NCPLO      10.110   0.200   P
NCPJL      10.550   0.100   P
# 1991  1  7 18 43 25.20  35.9753 -120.5282    5.81 1.04  0.50  0.46  0.04     204315
NCPMM       1.920   0.500   P
NCPMM       3.740   0.100   S
NCPST       1.730   1.000   P
NCPRP       2.460   0.200   P
NCPVC       1.910   1.000   P
NCPVC       3.260   0.200   S
NCPPC       1.890   1.000   P
NCPPC       3.320   0.100   S
NCPHP       2.000  -1.000   P
NCPSM       3.370   0.200   P
NCPHO       3.040   1.000   P
NCPHF       3.450   0.100   P
NCPCR       4.150   0.100   P
NCPCA       4.520   0.100   P
NCPWK       3.970   0.500   P
NCPHA       4.060   0.500   P
NCPGH       4.440   0.200   P
NCPPT       4.680   0.100   P
NCPSR       5.260   0.100   P
# 1991  1 15  1 49 47.97  35.9735 -120.5378    9.50 1.05  0.34  0.68  0.04     204778
NCPMM       2.530   0.100   P
NCPST       2.310   0.500   P
NCPVC       2.460   0.500   P
NCPVC       4.140   0.100   S
NCPPC       2.350   0.500   P
NCPPC       4.020   0.100   S
NCPHP       2.410   0.500   P
NCPHP       4.120   0.100   S
NCPSM       3.600   0.200   P
NCPHO       3.400   1.000   P
NCPCR       4.200  -0.500   P
NCPHF       3.760   0.200   P
NCPCA       4.690   0.200   P
NCPWK       4.220  -1.000   P
NCPPT       4.700   0.200   P
NCPSA       6.150   0.100   P
# 1991  1 29  5 46 10.70  35.9737 -120.5283   10.18 1.13  0.67  0.47  0.03     205479
NCPMM       2.500   0.100   P
NCPMM       4.680   0.100   S
NCPST       2.210  -1.000   P
NCPVC       2.370   1.000   P
NCPVC       4.020   0.200   S
NCPRP       2.960   0.200   P
NCPPC       2.330   0.500   P
NCPPC       4.000   0.200   S
NCPHP       2.430  -1.000   P
NCPHP       4.210   0.100   S
NCPHO       3.230   0.500   P
NCPHO       5.710   0.100   S
NCPSM       3.610   0.200   P
NCPCA       4.540   0.200   P
NCPWK       4.060  -1.000   P
NCPPT       4.760   0.200   P
NCPMC       6.090   0.200   P
NCPSA       6.180   0.200   P
# 1991  2  5 11 21 18.78  35.9780 -120.5317    9.85 2.05  0.17  0.20  0.06     205933
NCPMM       2.580   0.500   P
NCPRP       2.990   1.000   P
NCPST       2.320   1.000   P
NCPVC       2.470   1.000   P
NCPVC       4.170   0.200   S
NCPPC       2.360   1.000   P
NCPPC       3.990   0.200   S
NCPHP       2.410   1.000   P
NCPHP       4.130   0.100   S
NCPSM       3.520   0.500   P
NCPHO       3.410   1.000   P
NCPHO       5.950   0.100   S
NCPCR       4.210   0.500   P
NCPHF       3.730   0.200   P
NCPCA       4.690   1.000   P
NCPWK       4.230   1.000   P
NCPHA       4.320   1.000   P
NCPPT       4.680   1.000   P
NCPGH       4.610   0.100   P
NCPSR       5.330   0.100   P
NCPRC       6.810   0.200   P
NCPMC       6.330   1.000   P
NCPSA       6.110   1.000   P
NCPMR       6.500   0.200   P
NCPMP       6.860   0.200   P
NCPAG       7.130   0.200   P
NCPAN       7.420   1.000   P
NCPDR       9.060   0.200   P
NCPSC       8.120   0.500   P
NCPOP       8.400   1.000   P
NCPTR       8.470   0.100   P
NCPAD       8.590   0.500   P
NCPHS       8.900   1.000   P
NCPBW       9.270   0.200   P
NCPIR       9.990   0.200   P
NCPLO       9.590   0.500   P
NCPJL      10.140   0.500   P
NCPBP      11.140   0.200   P
NCPMG      10.380   0.500   P
NCPHC      11.380   0.200   P
NCBRV      11.840   0.100   P
NCPBM      11.480   0.200   P
NCPTA      11.600   0.100   P
NCPAP      12.760   0.200   P
CIYEG      14.020   0.200   P
NCPKY      13.800   0.200   P
NCBPI      13.620   0.200   P
NCBSG      13.530   0.200   P
CISIM      15.100   1.000   P
NCBVL      15.700   0.200   P
CIBCH      16.530   0.500   P
NCBJO      16.690   1.000   P
NCBJC      16.580   0.200   P
NCBVY      19.510   0.100   P
NCBSR      19.310   0.200   P
# 1991  2 10  0 38 25.15  35.9555 -120.5125    7.16 1.89  0.15  0.22  0.08     206220
NCPMM       2.140   0.200   P
NCPMM       3.790   0.100   S
NCPST       1.810   1.000   P
NCPVC       2.010   1.000   P
NCPVC       3.340   0.200   S
NCPRP       2.720   1.000   P
NCPPC       2.210   1.000   P
NCPPC       3.670   0.100   S
NCPHP       2.420   1.000   P
NCPHP       4.100   0.100   S
NCPHO       2.850   1.000   P
NCPHO       4.980   0.100   S
NCPHF       3.140   0.200   P
NCPHF       6.210   0.100   S
NCPSM       3.800   1.000   P
NCPCA       4.290   1.000   P
NCPWK       3.760   1.000   P
NCPCR       4.280   1.000   P
NCPHA       3.770   1.000   P
NCPGH       4.130   0.200   P
NCPSR       4.860   0.100   P
NCPPT       5.090   1.000   P
NCPMC       5.820   0.500   P
NCPMR       6.080   0.100   P
NCPAG       6.670   0.200   P
NCPRC       7.210   0.100   P
NCPSA       6.500   1.000   P
NCPMP       7.300   0.200   P
NCPAN       7.590   1.000   P
NCPSC       7.700   0.200   P
NCPAD       8.560   0.500   P
NCPHS       9.140   1.000   P
NCPIR       9.570   0.200   P
NCPBW       9.740   0.200   P
NCPLO      10.080   0.500   P
NCPMG      10.040   0.500   P
NCPJL      10.570   0.500   P
NCPBM      11.120   0.500   P
NCPTA      11.410   0.500   P
CIYEG      13.640   0.100   P
NCPAP      13.090   0.200   P
NCBPI      14.260   0.200   P
NCBVL      16.060   0.100   P
NCBJO      17.380   0.100   P
NCBJC      17.280   1.000   P
NCBAP      17.810   0.200   P
# 1991  2 28 15  2 57.10  35.9588 -120.5132    4.09 2.12  0.18  0.20  0.10     207406
NCPMM       1.490   1.000   P
NCPMM       2.660   0.100   S
NCPST       1.350   1.000   P
NCPVC       1.600   1.000   P
NCPVC       2.710   0.100   S
NCPRP       2.210   1.000   P
NCPPC       1.850   1.000   P
NCPPC       3.180   0.200   S
NCPHP       2.090   1.000   P
NCPHP       3.720   0.100   S
NCPHO       2.690   1.000   P
NCPHF       3.110   0.500   P
NCPHF       6.490   0.100   S
NCPSM       3.640   1.000   P
NCPCA       4.290   1.000   P
NCPWK       3.720   1.000   P
NCPCR       4.270   1.000   P
NCPGH       4.140   0.200   P
NCPSR       5.030   0.500   P
NCPPT       5.030   1.000   P
NCPMC       5.910   1.000   P
NCPMR       6.210   0.200   P
NCPRC       7.430   0.200   P
NCPAG       6.860   0.200   P
NCPSA       6.550   1.000   P
NCPAR       8.190   0.100   P
NCPMP       7.330   0.500   P
NCPAN       7.150   0.200   P
NCPSC       7.830   1.000   P
NCPOP       8.010   1.000   P
NCPTR       8.090   0.100   P
NCPAD       8.930   1.000   P
NCPHS       9.230   1.000   P
NCPIR       9.710   1.000   P
NCPBW       9.800   1.000   P
NCPLO      10.110   0.500   P
NCPBP      10.900   0.200   P
NCPMG      10.220   0.500   P
NCPJL      10.700   1.000   P
NCPBM      11.260   0.500   P
NCPTA      11.610   0.500   P
NCPCB      12.980   0.200   P
CIYEG      13.750   0.200   P
NCPAP      13.240   0.500   P
NCPKY      13.820   0.200   P
CISIM      14.780   0.200   P
NCBPI      14.280   0.200   P
NCBSG      14.010   0.200   P
NCBAV      16.250   0.200   P
CIBCH      16.280   0.200   P
NCBEH      17.920   0.200   P
NCBJO      17.540   0.100   P
NCBPR      20.210   0.500   P
NCBPC      20.600   0.200   P
NCHFP      20.870   0.200   P
# 1991  2 28 15 33  0.76  35.9610 -120.5147    3.29 1.05  0.28  0.47  0.11     207408
NCPMM       1.410   1.000   P
NCPMM       2.550   0.200   S
NCPST       1.240   1.000   P
NCPVC       1.490   1.000   P
NCPVC       2.590   0.200   S
NCPRP       2.100   1.000   P
NCPPC       1.750   0.500   P
NCPPC       3.050   0.200   S
NCPHP       1.990  -1.000   P
NCPHO       2.580  -1.000   P
NCPHF       2.990   0.200   P
NCPHF       6.410   0.100   S
NCPSM       3.560   0.200   P
NCPCA       4.260   0.500   P
NCPCR       4.190  -1.000   P
NCPGH       4.390   0.200   P
NCPSR       4.980   0.500   P
NCPPT       4.870   0.200   P
# 1991  3  1 20 36 18.19  35.9728 -120.5218    2.64 1.11  0.49  1.04  0.02     207454
NCPMM       1.390  -0.500   P
NCPMM       2.660   0.200   S
NCPST       1.360   1.000   P
NCPRP       2.010   0.200   P
NCPVC       1.560  -1.000   P
NCPVC       2.670   0.100   S
NCPPC       1.660   1.000   P
NCPPC       2.890   0.100   S
NCPHP       1.850  -1.000   P
NCPHP       3.210   0.100   S
NCPSM       3.390   0.100   P
NCPHF       3.440   0.100   P
NCPPT       4.820  -0.500   P
# 1991  3 11 22 48 30.56  35.9765 -120.5338    9.48 1.65  0.19  0.26  0.07     207880
NCPMM       2.600   0.500   P
NCPMM       4.910   0.100   S
NCPRP       3.010   1.000   P
NCPST       2.350   1.000   P
NCPVC       2.490   1.000   P
NCPVC       4.210   0.200   S
NCPPC       2.370   1.000   P
NCPPC       3.960   0.200   S
NCPHP       2.420   1.000   P
NCPSM       3.520   0.200   P
NCPHO       3.440   1.000   P
NCPHO       6.000   0.100   S
NCPCR       4.200  -1.000   P
NCPHF       3.750   0.500   P
NCPCA       4.710   0.500   P
NCPWK       4.270   1.000   P
NCPPT       4.680   1.000   P
NCPGH       4.850   0.100   P
NCPSR       5.420   0.100   P
NCPRC       6.790   0.200   P
NCPMC       6.360   1.000   P
NCPSA       6.130   0.500   P
NCPMR       6.630   0.200   P
NCPAG       7.200   0.200   P
NCPAN       7.430   0.100   P
NCPDR       9.120   0.200   P
NCPSC       8.170   0.500   P
NCPAD       8.660   0.200   P
NCPHS       8.900   0.500   P
NCPBW       9.450   0.100   P
NCPLO       9.590   0.500   P
NCPIR      10.080   0.200   P
NCPJL      10.240   0.200   P
NCPBP      11.370   0.100   P
NCPMG      10.410   0.200   P
NCPAP      12.780   0.100   P
CIYEG      14.290   0.200   P
NCBPI      13.620   0.100   P
NCBVL      15.600   0.200   P
NCBJO      16.670   0.200   P
NCBAP      17.230   0.100   P
