# 1991  9  3  3 43 35.82  35.9673 -120.5240   10.07 2.51  0.14  0.19  0.07     229466
NCPMM       2.550   1.000   P
NCPMM       4.640   0.100   S
NCPST       2.280   1.000   P
NCPRP       3.040   1.000   P
NCPVC       2.430   1.000   P
NCPVC       4.040   0.100   S
NCPPC       2.420   1.000   P
NCPPC       4.090   0.100   S
NCPHP       2.530   1.000   P
NCPHP       4.040   0.100   S
NCPHO       3.280   1.000   P
NCPHO       5.690   0.100   S
NCPSM       3.710   0.500   P
NCPHF       3.590   0.200   P
NCPHF       6.630   0.100   S
NCPCR       4.280   1.000   P
NCPCA       4.580   1.000   P
NCPWK       4.110   1.000   P
NCPHA       4.160   1.000   P
NCPGH       4.450   0.200   P
NCPPT       4.890   1.000   P
NCPSR       5.180   1.000   P
NCPMC       6.160   1.000   P
NCPRC       7.040   0.500   P
NCPMR       6.320   0.200   P
NCPSA       6.300   1.000   P
NCPAR       7.990   0.200   P
NCPAG       6.940   0.200   P
NCPMP       7.060   0.500   P
NCPKE       8.910   0.500   P
NCPAN       7.450   0.500   P
NCPDR       9.250   0.200   P
NCPSC       7.960   0.500   P
NCPOP       8.260   0.200   P
NCPTR       8.290   0.200   P
NCPAD       8.580   0.500   P
NCPHB      10.950   0.200   P
NCPHS       8.980   0.500   P
NCPHR       9.780   0.200   P
NCPBW       9.480   0.500   P
NCPIR       9.830   0.200   P
NCPLO       9.790   1.000   P
NCPWM      12.180   0.200   P
NCPBP      10.980   0.500   P
NCPJL      10.320   0.500   P
NCPMG      10.250   1.000   P
NCPHC      11.440   0.500   P
NCPBM      11.350   0.500   P
NCPTA      11.530   0.500   P
NCBRV      12.100   0.200   P
NCPCB      12.280   0.200   P
NCPAP      12.900   0.500   P
NCBBN      13.850   0.200   P
CIYEG      13.860   0.500   P
NCPKY      13.760   0.500   P
NCBMS      14.730   0.200   P
NCBPI      13.780   0.200   P
NCBSG      13.680   0.200   P
CISIM      14.780   0.200   P
NCPPB      15.540   1.000   P
NCBAV      15.940   0.200   P
NCPBI      15.820   0.200   P
NCBVL      15.350   0.200   P
NCPAB      16.040   0.200   P
NCBEM      16.260   0.200   P
CIBCH      16.250   0.200   P
NCBEH      17.340   0.500   P
NCBJO      16.780   0.200   P
NCBRM      18.220   0.500   P
NCBJC      16.870   0.200   P
NCBCW      16.840   0.200   P
NCBLR      17.980   0.100   P
NCBAP      17.280   0.200   P
NCBHR      19.540   0.500   P
CICRG      19.460   1.000   P
NCBPF      18.730   0.500   P
NCHJS      20.900   0.500   P
NCBVY      19.740   0.500   P
NCBSR      19.300   0.100   P
CISCC      19.740   0.100   P
NCBPR      19.740   0.500   P
NCPML      20.340   0.200   P
NCBPC      20.260   1.000   P
CITMB      23.460   0.100   P
NCMHD      22.380   0.200   P
NCHDL      22.500   0.500   P
NCHER      23.500   0.200   P
NCHMO      24.380   0.100   P
NCHCO      25.140   0.100   P
CIMAR      27.780   0.500   P
NCMMI      27.900   0.200   P
NNORC      39.300   0.100   P
# 1991  9 25  9 15  2.03  35.9422 -120.4948    9.01 2.36  0.16  0.25  0.08     232245
NCPMM       2.350   1.000   P
NCPST       1.990   1.000   P
NCPVC       2.190   1.000   P
NCPVC       3.630   0.100   S
NCPRP       2.990   1.000   P
NCPHO       2.740   1.000   P
NCPPC       2.510   1.000   P
NCPHF       2.920   1.000   P
NCPHP       2.770   1.000   P
NCPCA       4.050   1.000   P
NCPWK       3.640   1.000   P
NCPHA       3.540   1.000   P
NCPSM       4.190   1.000   P
NCPCR       4.470   1.000   P
NCPGH       3.800   0.500   P
NCPSR       4.570   1.000   P
NCPMC       5.560   1.000   P
NCPPT       5.460   1.000   P
NCPMR       5.690   1.000   P
NCPAG       6.210   1.000   P
NCPAR       8.230   1.000   P
NCPKE       8.700   0.100   P
NCPSA       6.760   1.000   P
NCPSC       7.480   1.000   P
NCPMP       7.660   0.500   P
NCPTR       7.750   0.100   P
NCPAN       7.570   1.000   P
NCPDR       9.770   1.000   P
NCPAD       8.550   1.000   P
NCPIR       9.210   0.200   P
NCPHB      11.210   0.200   P
NCPHS       9.260   1.000   P
NCPBP      10.330   1.000   P
NCPHR      10.540   0.100   P
NCPMG       9.840   1.000   P
NCPBW      10.100   0.500   P
NCPWM      12.530   0.100   P
NCPLO      10.390   1.000   P
NCPJL      10.840   1.000   P
NCPBM      10.850   1.000   P
NCPTA      11.270   1.000   P
NCPHC      11.590   0.200   P
NCPCB      12.280   0.200   P
NCBRV      12.720   0.200   P
CIYEG      13.420   0.100   P
NCPKY      13.440   1.000   P
NCPAP      13.280   1.000   P
NCBBN      14.750   0.500   P
NCBPI      14.340   0.500   P
NCBSG      14.270   1.000   P
NCPBI      15.240   0.500   P
CIBCH      15.690   0.500   P
NCBVL      16.010   1.000   P
NCBEM      17.510   0.200   P
NCBSM      16.290   0.500   P
NCBEH      18.220   1.000   P
CICRG      18.620   0.200   P
NCBJO      17.560   1.000   P
NCBCW      17.540   1.000   P
NCBJC      17.560   1.000   P
NCBAP      17.890   1.000   P
CISCC      20.290   0.500   P
NCBPF      19.490   0.100   P
NCBVY      20.310   1.000   P
NCBSR      19.850   0.200   P
NCBPC      20.590   1.000   P
NCHFP      20.650   0.500   P
CIPKM      22.500   0.500   P
NCHDL      22.830   0.200   P
NCMMI      28.460   0.200   P
# 1991  9 25  9 17  1.35  35.9465 -120.4940    8.99 1.39  0.25  0.29  0.07     232246
NCPMM       2.390   0.500   P
NCPMM       4.190   0.100   S
NCPST       2.020   1.000   P
NCPVC       2.210   0.500   P
NCPRP       3.040   1.000   P
NCPHO       2.780   1.000   P
NCPHO       4.810   0.200   S
NCPPC       2.550   1.000   P
NCPPC       4.350   0.100   S
NCPHF       2.950   1.000   P
NCPHF       5.490   0.100   S
NCPHP       2.820   1.000   P
NCPHP       4.770   0.100   S
NCPCA       4.090   0.500   P
NCPHA       3.580   0.100   P
NCPWK       3.670   1.000   P
NCPSM       4.240   0.500   P
NCPCR       4.510   0.500   P
NCPGH       3.820   0.200   P
NCPSR       4.600   1.000   P
NCPMC       5.590   0.500   P
NCPPT       5.510   0.500   P
NCPMR       5.740   0.500   P
NCPAG       6.330   0.100   P
NCPSA       6.800   1.000   P
NCPSC       7.490   0.500   P
NCPMP       7.730   0.100   P
NCPAN       7.560   0.500   P
NCPAD       8.620   0.500   P
NCPIR       9.280   0.200   P
NCPHS       9.300   0.200   P
NCPMG       9.860   0.200   P
NCPLO      10.430   0.500   P
NCBVL      16.550   0.500   P
# 1991 10  3 10 54  7.81  35.9438 -120.4927    9.68 1.27  0.31  0.40  0.06     233093
NCPMM       2.520   0.200   P
NCPST       2.170   0.200   P
NCPVC       2.340   0.500   P
NCPRP       3.180   0.500   P
NCPHO       2.830   1.000   P
NCPHO       4.910   0.100   S
NCPPC       2.650   1.000   P
NCPHF       2.980   0.500   P
NCPHP       2.920   1.000   P
NCPCA       4.100   0.500   P
NCPHA       3.560   0.200   P
NCPWK       3.690   1.000   P
NCPSM       4.330   0.500   P
NCPGH       3.810   0.200   P
NCPSR       4.550   0.500   P
NCPMC       5.550   0.500   P
NCPPT       5.560   0.500   P
NCPMR       5.740   0.500   P
NCPAG       6.400   0.200   P
NCPSA       6.840   0.500   P
NCPSC       7.470   0.500   P
NCPMP       7.760   0.200   P
NCPAN       7.580   0.200   P
NCPAD       8.620   0.500   P
NCPHS       9.280   0.500   P
NCPMG       9.800   0.200   P
NCPBW      10.550   0.200   P
NCPLO      10.440   0.200   P
NCPJL      10.870   0.200   P
# 1991 11 17 20 48 35.94  35.9633 -120.5175    2.06 1.17  0.31  0.54  0.05     237730
NCPMM       1.130  -0.500   P
NCPMM       2.140   0.100   S
NCPVC       1.410   0.500   P
NCPVC       2.460   0.100   S
NCPRP       2.070   0.200   P
NCPPC       1.670   0.500   P
NCPPC       2.930   0.200   S
NCPHP       1.950   0.500   P
NCPHO       2.680  -1.000   P
NCPHF       3.210   0.200   P
NCPSM       3.560   0.200   P
NCPCR       4.300   0.200   P
NCPPT       5.030  -0.500   P
# 1991 11 27  4 49 52.65  35.9650 -120.5147    5.76 1.01  0.46  0.29  0.05     238347
NCPMM       1.830   0.500   P
NCPST       1.610   1.000   P
NCPVC       1.830   1.000   P
NCPVC       3.090   0.100   S
NCPRP       2.500   0.500   P
NCPPC       1.980   1.000   P
NCPHP       2.180   1.000   P
NCPHO       2.830   0.500   P
NCPHF       3.200   0.500   P
NCPSM       3.630   0.200   P
NCPCA       4.370   0.500   P
NCPWK       3.790   0.500   P
NCPHA       3.820   0.500   P
NCPGH       4.230   0.500   P
NCPSR       5.040   0.500   P
NCPSA       6.450   0.100   P
NCPMP       7.280   0.500   P
NCPHS       9.140   0.500   P
NCPLO      10.020  -1.000   P
# 1991 12  1  0 12 30.56  35.9630 -120.5177    5.79 1.47  0.38  0.30  0.06     238569
NCPMM       1.850   1.000   P
NCPST       1.620   1.000   P
NCPRP       2.500   0.500   P
NCPVC       1.820   1.000   P
NCPVC       3.120   0.100   S
NCPPC       1.970   1.000   P
NCPHP       2.160   1.000   P
NCPHO       2.850   1.000   P
NCPSM       3.590   0.500   P
NCPHF       3.230   0.500   P
NCPCR       4.200   0.200   P
NCPCA       4.400   0.500   P
NCPWK       3.800   1.000   P
NCPHA       3.850   1.000   P
NCPSR       5.050   0.200   P
NCPPT       5.320   0.200   P
NCPSA       6.430   1.000   P
NCPMP       7.220  -1.000   P
NCPSC       7.920   1.000   P
NCPHS       9.120   0.200   P
NCPLO       9.990   0.200   P
NCPMG      10.190   0.200   P
# 1991 12  1  0 25 43.38  35.9643 -120.5140    5.75 1.56  0.23  0.23  0.05     238570
NCPMM       1.820   1.000   P
NCPMM       3.380   0.200   S
NCPST       1.620   1.000   P
NCPVC       1.820   1.000   P
NCPVC       3.130   1.000   S
NCPRP       2.480   1.000   P
NCPPC       1.960   1.000   P
NCPPC       3.370   0.200   S
NCPHP       2.160   1.000   P
NCPHO       2.820   0.500   P
NCPHO       5.050   0.100   S
NCPHF       3.230   1.000   P
NCPSM       3.590   1.000   P
NCPCA       4.360   1.000   P
NCPWK       3.790   1.000   P
NCPHA       3.850   1.000   P
NCPSR       5.020   1.000   P
NCPPT       4.920   1.000   P
NCPMC       5.960   0.500   P
NCPRC       7.250   0.200   P
NCPSA       6.420   1.000   P
NCPAG       6.800   0.200   P
NCPMP       7.190   0.200   P
NCPSC       7.860   0.100   P
NCPAD       8.680   0.200   P
NCPHS       9.130   0.200   P
NCPLO       9.910   0.200   P
NCPJL      10.480   0.100   P
# 1991 12  1  1 40 13.22  35.9622 -120.5155    5.84 1.82  0.22  0.23  0.07     238573
NCPMM       1.840   1.000   P
NCPMM       3.200   0.100   S
NCPST       1.620   1.000   P
NCPRP       2.480   0.500   P
NCPVC       1.810   1.000   P
NCPVC       3.120   0.200   S
NCPPC       1.970   1.000   P
NCPPC       3.380   0.100   S
NCPHP       2.170   1.000   P
NCPHO       2.840   1.000   P
NCPHF       3.230   1.000   P
NCPHF       6.510   0.100   S
NCPSM       3.590   1.000   P
NCPCR       4.200   0.500   P
NCPCA       4.340   0.500   P
NCPWK       3.790   1.000   P
NCPHA       3.820   0.500   P
NCPGH       4.210   1.000   P
NCPSR       5.030   1.000   P
NCPPT       4.890   0.200   P
NCPMC       5.950   0.500   P
NCPMR       6.170   0.500   P
NCPRC       7.150   0.200   P
NCPSA       6.400   0.500   P
NCPAG       6.830   0.100   P
NCPMP       7.220   0.500   P
NCPAN       7.690   1.000   P
NCPSC       7.790   0.500   P
NCPAD       8.630   0.200   P
NCPHS       9.120   0.500   P
NCPIR       9.680   0.200   P
NCPLO       9.960   0.500   P
NCPBP      11.100   0.100   P
NCPMG      10.170   0.500   P
NCPJL      10.490   0.200   P
NCPTA      11.330   0.100   P
NCBPI      14.110   0.100   P
NCBSG      13.930   0.200   P
NCBJC      17.230   1.000   P
# 1991 12  2 17 24  1.22  35.9725 -120.5223    2.67 1.03  0.37  0.91  0.02     238664
NCPMM       1.290  -0.500   P
NCPST       1.270   1.000   P
NCPRP       1.950   0.200   P
NCPVC       1.480   1.000   P
NCPVC       2.620   0.100   S
NCPPC       1.580   0.500   P
NCPPC       2.800   0.200   S
NCPHP       1.760  -1.000   P
NCPHO       2.750   0.500   P
NCPSM       3.350   0.200   P
NCPHF       3.410   0.500   P
NCPCA       4.420   0.500   P
NCPHA       3.950   0.200   P
NCPSR       5.340   0.200   P
# 1991 12 18 14 42 19.82  35.9620 -120.5217   10.01 2.59  0.19  0.28  0.07     241159
NCPMM       2.510   1.000   P
NCPST       2.220   1.000   P
NCPVC       2.380   1.000   P
NCPRP       3.050   1.000   P
NCPPC       2.410   1.000   P
NCPHP       2.550   1.000   P
NCPHO       3.200   1.000   P
NCPSM       3.770   1.000   P
NCPHF       3.520   1.000   P
NCPCR       4.300   1.000   P
NCPCA       4.510   1.000   P
NCPWK       4.030   1.000   P
NCPHA       4.060   1.000   P
NCPGH       4.330   1.000   P
NCPPT       4.960   1.000   P
NCPSR       5.070   1.000   P
NCPMC       6.070   1.000   P
NCPMR       6.210   0.500   P
NCPRC       7.100   1.000   P
NCPSA       6.340   1.000   P
NCPAR       8.030   1.000   P
NCPAG       6.820   1.000   P
NCPMP       7.130   0.500   P
NCPKE       8.850   0.200   P
NCPAN       7.460   1.000   P
NCPSC       7.890   1.000   P
NCPOP       8.190   1.000   P
NCPTR       8.370   0.500   P
NCPAD       8.540   1.000   P
NCPHS       9.000   1.000   P
NCPPG      10.930   0.200   P
NCPHR      10.040   0.100   P
NCPIR       9.680   1.000   P
NCPBW       9.540   0.500   P
NCPLO       9.850   1.000   P
NCPBP      10.870   1.000   P
NCPJL      10.380   0.500   P
NCPMG      10.180   1.000   P
NCPBM      11.250   1.000   P
NCPHC      11.430   0.500   P
NCPTA      11.480   1.000   P
NCBRV      12.160   0.200   P
NCPCB      12.380   0.200   P
NCPAP      12.920   0.500   P
CIYEG      13.750   0.500   P
NCPKY      13.710   0.200   P
NCBMS      14.860   0.500   P
NCBPI      14.060   1.000   P
NCBVL      15.710   0.500   P
NCBEM      16.630   0.100   P
NCBSM      15.760   0.200   P
CIBCH      16.150   0.200   P
NCBJO      16.860   0.200   P
NCBCW      17.340   0.100   P
NCBJC      17.070   0.200   P
NCBAP      17.300   1.000   P
CICRG      18.950   0.500   P
NCBSR      19.570   0.200   P
NCJRG      27.010   0.100   P
# 1991 12 22 15 10 45.09  35.9557 -120.5252    8.91 1.01  0.72  0.42  0.05     241546
NCPMM       2.460   0.200   P
NCPMM       4.440   0.100   S
NCPST       2.100   0.500   P
NCPVC       2.260   1.000   P
NCPVC       3.830   0.200   S
NCPRP       3.170   0.100   P
NCPPC       2.360   0.200   P
NCPPC       3.970   0.200   S
NCPHP       2.520   1.000   P
NCPHP       4.310   0.200   S
NCPHO       3.050   0.500   P
NCPHO       5.370   0.200   S
NCPHF       3.360   0.200   P
NCPSM       3.800   0.200   P
NCPCA       4.410   0.200   P
NCPWK       3.890  -1.000   P
NCPPT       5.020  -1.000   P
# 1992  1 12 21 31 13.07  35.9755 -120.5275    4.82 1.00  0.37  0.57  0.03     242784
NCPMM       1.750  -1.000   P
NCPMM       3.270   0.200   S
NCPST       1.580   1.000   P
NCPRP       2.310   0.500   P
NCPVC       1.760   1.000   P
NCPVC       3.040   0.200   S
NCPPC       1.760   0.500   P
NCPPC       3.050   0.200   S
NCPHP       1.870  -1.000   P
NCPSM       3.290   0.200   P
NCPHO       2.970   0.200   P
NCPHO       5.350   0.200   S
NCPHF       3.400   0.200   P
NCPHF       7.070   0.200   S
NCPCA       4.580   0.200   P
NCPHA       4.010   0.200   P
NCPPT       4.670   0.200   P
NCPSA       6.210   0.200   P
NCPMP       6.970   0.100   P
# 1992  1 15 12  0 25.57  35.9622 -120.5133    2.50 1.03  0.47  1.00  0.14     244510
NCPMM       1.290   0.500   P
NCPST       1.110   1.000   P
NCPVC       1.360   1.000   P
NCPRP       1.990   0.500   P
NCPPC       1.620   1.000   P
NCPHP       1.860   1.000   P
NCPHO       2.420  -1.000   P
NCPHF       2.870   0.200   P
NCPSM       3.420   0.200   P
NCPCA       4.090   0.500   P
NCPCR       4.110   0.500   P
NCPPT       4.760   0.200   P
NCPAN       8.100  -1.000   P
# 1992  4  4  3 11 16.86  35.9742 -120.5247    5.69 1.45  0.27  0.32  0.05     261745
NCPMM       1.910   1.000   P
NCPMM       3.460   0.100   S
NCPST       1.720   1.000   P
NCPVC       1.890   1.000   P
NCPVC       3.270   0.200   S
NCPPC       1.880   1.000   P
NCPPC       3.200   0.100   S
NCPRP       2.440  -1.000   P
NCPHP       1.990   1.000   P
NCPHP       3.380   0.100   S
NCPHO       3.020   1.000   P
NCPSM       3.320   0.500   P
NCPCR       4.030   0.200   P
NCPWK       3.940   1.000   P
NCPCA       4.520   0.500   P
NCPHA       4.020   0.500   P
NCPGH       4.420   0.100   P
NCPPT       4.670   1.000   P
NCPSR       5.200   0.200   P
NCPMC       6.120   0.500   P
NCPRC       6.980   0.100   P
NCPMR       6.430   0.100   P
NCPMP       6.950   0.500   P
NCPAG       7.090   0.100   P
NCPSC       8.000   0.200   P
NCPOP       8.230   0.100   P
NCPAD       8.620   0.100   P
NCPHS       8.980   0.200   P
NCPIR       9.910   0.200   P
NCPLO       9.720   0.200   P
NCPJL      10.310   0.500   P
# 1992  4  4  3 11 48.92  35.9737 -120.5252    5.62 1.26  0.30  0.44  0.05     261801
NCPMM       1.890   1.000   P
NCPMM       3.620   0.100   S
NCPST       1.690   1.000   P
NCPVC       1.850   1.000   P
NCPVC       3.240   0.100   S
NCPPC       1.820   1.000   P
NCPPC       3.170   0.100   S
NCPRP       2.410  -1.000   P
NCPHP       1.960   1.000   P
NCPHO       2.970   1.000   P
NCPSM       3.310  -1.000   P
NCPCR       3.970   0.100   P
NCPWK       3.890   1.000   P
NCPCA       4.460   0.200   P
NCPHA       4.010   0.500   P
NCPGH       4.420   0.500   P
NCPPT       4.640   0.500   P
NCPSR       5.180   0.100   P
NCPMC       6.110   0.200   P
NCPRC       6.950   0.100   P
NCPAG       7.050   0.100   P
NCPMP       6.910   0.200   P
NCPSC       7.980   0.200   P
NCPAD       8.610   0.200   P
# 1992  4 16  6 33 54.24  35.9817 -120.5338    6.00 1.23  0.55  0.35  0.05     264907
NCPMM       2.140   0.500   P
NCPRP       2.550   0.500   P
NCPST       1.940   1.000   P
NCPVC       2.090   1.000   P
NCPPC       1.950   1.000   P
NCPHP       1.980   1.000   P
NCPSM       3.220   0.500   P
NCPHO       3.250   1.000   P
NCPHF       3.650   0.500   P
NCPCA       4.680   0.200   P
NCPWK       4.140   1.000   P
NCPHA       4.280   0.200   P
NCPPT       4.530   0.500   P
NCPMC       6.360   0.500   P
NCPSA       6.090   0.500   P
NCPMP       6.800   0.500   P
NCPLO       9.640  -1.000   P
NCPJL      10.260   0.100   P
# 1992  4 19  0  8 40.04  35.9737 -120.5262    4.70 1.00  0.50  0.86  0.07     265430
NCPMM       1.790   0.500   P
NCPMM       3.130   0.200   S
NCPST       1.580   1.000   P
NCPVC       1.770   1.000   P
NCPVC       3.070   0.200   S
NCPPC       1.800   1.000   P
NCPPC       2.930   0.100   S
NCPRP       2.340  -0.500   P
NCPHP       1.930   1.000   P
NCPSM       3.340   0.500   P
NCPHF       3.570   0.100   P
NCPCR       4.120   0.100   P
NCPCA       4.610  -0.500   P
NCPPT       4.740  -1.000   P
# 1992  4 27  7 36 21.15  35.9717 -120.5222    3.07 1.03  0.22  0.46  0.05     268334
NCPMM       1.350   0.200   P
NCPMM       2.560   0.100   S
NCPST       1.310  -1.000   P
NCPVC       1.530   1.000   P
NCPVC       2.630   0.100   S
NCPRP       2.000   0.200   P
NCPPC       1.630   0.500   P
NCPPC       2.860   0.100   S
NCPHP       1.810  -1.000   P
NCPHP       3.180   0.100   S
NCPHO       2.800   0.500   P
NCPHO       5.080   0.100   S
NCPSM       3.360   0.200   P
NCPHF       3.390   0.200   P
NCPHF       6.680   0.100   S
NCPCR       4.110   0.100   P
NCPWK       3.810   0.200   P
NCPCA       4.440  -0.500   P
NCPHA       3.900   0.200   P
NCPGH       4.630   0.200   P
NCPPT       4.780   0.200   P
NCPSR       5.210   0.200   P
NCPSA       6.300   0.200   P
# 1992  5 15 16 25 13.67  35.9635 -120.5295   10.20 1.20  0.55  0.44  0.04     276601
NCPMM       2.670   0.200   P
NCPST       2.240   1.000   P
NCPVC       2.400   1.000   P
NCPRP       3.070   0.200   P
NCPPC       2.400   1.000   P
NCPPC       4.080   0.200   S
NCPHP       2.530   1.000   P
NCPHO       3.210   1.000   P
NCPSM       3.740   0.500   P
NCPHF       3.590  -1.000   P
NCPWK       4.020   1.000   P
NCPHA       4.060   0.200   P
NCPPT       4.900   0.200   P
NCPSR       5.340   0.200   P
NCPMC       6.070   0.500   P
NCPMR       6.390   0.200   P
NCPSA       6.280  -1.000   P
NCPMP       7.100   0.500   P
NCPHS       8.920   0.200   P
