# 1989  9  6 18 38  4.43  35.9680 -120.5307    6.12 1.31  0.29  0.33  0.05     143663
NCPMM       1.940   0.500   P
NCPST       1.750   1.000   P
NCPVC       1.930   1.000   P
NCPPC       1.910   1.000   P
NCPHP       2.020   1.000   P
NCPSM       3.370   1.000   P
NCPHO       3.050   1.000   P
NCPHF       3.450   1.000   P
NCPCR       4.040   0.500   P
NCPCA       4.540   0.100   P
NCPWK       3.960   1.000   P
NCPHA       4.060   1.000   P
NCPGH       4.460   0.500   P
NCPPT       4.690   1.000   P
NCPSR       5.290   0.500   P
NCPMC       6.160   1.000   P
NCPSA       6.230   1.000   P
NCPHS       9.050   0.500   P
NCPLO       9.850   1.000   P
# 1989  9 27  0  5 39.56  35.9662 -120.5263    3.36 1.02  0.32  0.58  0.05     144663
NCPMM       1.360   0.500   P
NCPST       1.330   1.000   P
NCPVC       1.530   1.000   P
NCPPC       1.640   1.000   P
NCPHP       1.830   1.000   P
NCPHO       2.810   0.500   P
NCPSM       3.360   0.500   P
NCPHF       3.400   0.500   P
NCPCR       4.110   0.500   P
NCPWK       3.800   0.500   P
NCPCA       4.410   0.200   P
NCPPT       4.790   0.500   P
NCPSR       5.340   0.500   P
NCPHS       9.140   0.500   P
# 1989 12 15 13 11 28.48  35.9627 -120.5260    9.73 1.24  0.28  0.34  0.05     148953
NCPMM       2.540   0.500   P
NCPST       2.240   1.000   P
NCPVC       2.400   1.000   P
NCPPC       2.410   1.000   P
NCPHP       2.550   1.000   P
NCPHO       3.230   1.000   P
NCPSM       3.750   0.500   P
NCPHF       3.660   0.500   P
NCPCR       4.290   0.500   P
NCPCA       4.540   0.500   P
NCPWK       4.060   1.000   P
NCPHA       4.080   1.000   P
NCPGH       4.550   0.200   P
NCPPT       4.940   1.000   P
NCPSR       5.380   0.200   P
NCPMC       6.090   0.500   P
NCPRC       7.060   0.200   P
NCPSA       6.330   0.500   P
NCPAG       6.970   0.200   P
NCPMP       7.120   0.200   P
NCPSC       7.930   0.200   P
NCPAD       8.640   0.200   P
NCPLO       9.830   0.500   P
NCPJL      10.450   0.500   P
NCBSG      13.850   0.200   P
# 1990  1 25  8 38 16.47  35.9480 -120.5162    9.84 1.71  0.25  0.38  0.07     151215
NCPMM       2.630   0.500   P
NCPST       2.180   1.000   P
NCPVC       2.330   1.000   P
NCPPC       2.490   1.000   P
NCPHP       2.690   1.000   P
NCPHO       3.050   1.000   P
NCPHF       3.280   0.100   P
NCPSM       3.990   1.000   P
NCPCA       4.370   1.000   P
NCPCR       4.390   1.000   P
NCPWK       3.890   1.000   P
NCPHA       3.860   1.000   P
NCPGH       4.090   0.200   P
NCPSR       4.840   1.000   P
NCPPT       5.190   1.000   P
NCPMC       5.850   1.000   P
NCPRC       7.340   0.200   P
NCPAR       8.520   1.000   P
NCPSA       6.520   1.000   P
NCPSC       7.750   1.000   P
NCPDR       9.850   1.000   P
NCPAD       8.620   1.000   P
NCPHS       9.140   1.000   P
NCPLO      10.110   1.000   P
NCPMG      10.050   1.000   P
NCPJL      10.610   0.500   P
NCBPI      14.490   0.200   P
NCBSG      14.170   1.000   P
NCBVL      15.650   0.100   P
NCBJC      17.280   1.000   P
# 1990  7 29  2 39 30.92  35.9615 -120.5188    5.97 1.89  0.23  0.25  0.07     161755
NCPMM       1.880   1.000   P
NCPST       1.660   1.000   P
NCPVC       1.860   1.000   P
NCPVC       3.090   0.100   S
NCPRP       2.510   1.000   P
NCPPC       1.980   1.000   P
NCPPC       3.400   0.200   S
NCPHP       2.170   1.000   P
NCPHO       2.880   1.000   P
NCPSM       3.570   1.000   P
NCPHF       3.270   0.500   P
NCPCR       4.170   1.000   P
NCPCA       4.390   0.500   P
NCPWK       3.820   1.000   P
NCPHA       3.880   1.000   P
NCPGH       4.250   1.000   P
NCPSR       5.040   0.500   P
NCPPT       4.910   1.000   P
NCPMC       5.990   1.000   P
NCPMR       6.310   1.000   P
NCPSA       6.400   1.000   P
NCPAG       6.890   1.000   P
NCPMP       7.190   0.500   P
NCPAN       7.500   0.200   P
NCPSC       7.880   1.000   P
NCPOP       8.220   0.500   P
NCPAD       8.630   0.500   P
NCPHS       9.110   0.500   P
NCPIR       9.770   0.500   P
NCPBW       9.640   0.500   P
NCPLO       9.980   0.500   P
NCPMG      10.200   1.000   P
NCPJL      10.510   0.500   P
NCPBM      11.300   0.500   P
NCPTA      11.550   0.500   P
NCPAP      13.040   0.200   P
NCBJC      17.140   1.000   P
NCBAP      17.680   1.000   P
NCBPC      20.450   1.000   P
# 1990  8  5 21 51 30.74  35.9602 -120.5308    9.85 1.00  0.71  0.57  0.03     162162
NCPMM       2.360   0.500   P
NCPMM       4.380   0.200   S
NCPST       2.040   1.000   P
NCPVC       2.200   0.500   P
NCPVC       3.770   0.200   S
NCPRP       3.180   0.500   P
NCPPC       2.260   1.000   P
NCPPC       3.780   0.200   S
NCPHP       2.410  -1.000   P
NCPHP       4.250   0.200   S
NCPHO       3.020   1.000   P
NCPHO       5.320   0.100   S
NCPSM       3.660   0.200   P
NCPWK       3.850  -1.000   P
NCPCA       4.370   0.100   P
# 1990  8 20  8 16  3.56  35.9762 -120.5435   10.04 1.04  0.32  0.67  0.04     162932
NCPMM       2.810   0.500   P
NCPRP       3.050   0.200   P
NCPST       2.410   1.000   P
NCPVC       2.550   1.000   P
NCPPC       2.410   1.000   P
NCPHP       2.460   1.000   P
NCPSM       3.590   0.200   P
NCPHO       3.500   1.000   P
NCPCR       4.250  -1.000   P
NCPCA       4.760   0.200   P
NCPWK       4.320  -1.000   P
NCPHA       4.400   0.500   P
NCPPT       3.820   0.200   P
NCPSA       6.150   0.200   P
NCPAN       7.460   0.200   P
NCPHS       8.910   0.200   P
NCPJL      10.230   0.100   P
NCPAP      12.880   0.100   P
# 1990  8 28  9 44 40.91  35.9645 -120.5182    7.38 0.88  0.59  0.73  0.01   20092821
NCPMM       1.900  -0.500   P
NCPMM       3.540   0.100   S
NCPST       1.620  -1.000   P
NCPVC       1.800   0.500   P
NCPVC       3.120   0.200   S
NCPPC       1.900   0.500   P
NCPHP       2.090  -1.000   P
NCPHO       2.850  -0.500   P
NCPSM       3.480   0.200   P
NCPWK       3.800   0.200   P
# 1990  9 20  4 18  4.94  35.9437 -120.4988   13.60 1.15  0.45  0.56  0.04     164317
NCPMM       2.950   0.100   P
NCPMM       5.270   0.100   S
NCPST       2.570   0.200   P
NCPVC       2.680   0.500   P
NCPVC       4.550   0.100   S
NCPRP       3.530   0.500   P
NCPHO       3.110   1.000   P
NCPHO       5.410   0.100   S
NCPPC       2.900   0.500   P
NCPPC       5.000   0.100   S
NCPHF       3.230   0.500   P
NCPHP       3.140  -1.000   P
NCPHP       5.400   0.200   S
NCPCA       4.290  -0.500   P
NCPHA       3.750   0.500   P
NCPWK       3.810  -1.000   P
NCPSR       4.630   0.200   P
NCPMC       5.590   0.500   P
NCPLO      10.430  -0.500   P
# 1990  9 30 17 17 17.89  35.9772 -120.5295    5.55 1.85  0.22  0.26  0.05     164680
NCPMM       1.970   1.000   P
NCPMM       3.570   0.100   S
NCPST       1.790   1.000   P
NCPRP       2.440   1.000   P
NCPVC       1.940   1.000   P
NCPVC       3.270   0.200   S
NCPPC       1.870   1.000   P
NCPPC       3.170   0.200   S
NCPHP       1.930   1.000   P
NCPHP       3.320   0.100   S
NCPSM       3.260   1.000   P
NCPHO       3.150   1.000   P
NCPHF       3.580   1.000   P
NCPHF       7.010   0.200   S
NCPCA       4.710   1.000   P
NCPWK       4.070   1.000   P
NCPHA       4.200   1.000   P
NCPGH       4.570   1.000   P
NCPPT       4.610   1.000   P
NCPSR       5.400   1.000   P
NCPSA       6.170   1.000   P
NCPMR       6.570   1.000   P
NCPMP       6.910   1.000   P
NCPDR       9.250   1.000   P
NCPSC       8.160   1.000   P
NCPAD       8.690   0.500   P
NCPHS       9.020   1.000   P
NCPIR      10.090   1.000   P
NCPLO       9.680   1.000   P
NCPJL      10.280   1.000   P
NCPMG      10.450   1.000   P
NCPBM      11.560   0.500   P
NCPCB      12.500   0.500   P
NCPAP      12.920   0.500   P
CIBCH      16.600   0.200   P
NCBJO      17.000   0.500   P
NCBJC      16.900   0.500   P
NCBAP      17.330   0.500   P
NCBVY      19.550   0.500   P
NCBPR      19.760   0.500   P
NCBPC      20.210   0.500   P
# 1990 10  1  2 24 11.64  35.9668 -120.5127    6.27 1.03  0.49  0.86  0.08     164719
NCPMM       1.920   0.200   P
NCPST       1.670   0.500   P
NCPVC       1.870  -1.000   P
NCPPC       2.020   0.200   P
NCPRP       2.490  -1.000   P
NCPHP       2.140   1.000   P
NCPHO       2.880   1.000   P
NCPSM       3.600  -1.000   P
NCPHF       3.240   1.000   P
NCPWK       3.800   1.000   P
NCPHA       3.900   0.500   P
NCPJL      10.460   0.200   P
# 1990 10 29 11  9  4.03  35.9522 -120.5193    6.53 0.69  0.31  0.63  0.04     202535
NCPMM       1.500   0.200   P
NCPMM       2.660   0.100   S
NCPST       1.310   1.000   P
NCPVC       1.560   1.000   P
NCPVC       2.710   0.200   S
NCPRP       2.180  -1.000   P
NCPPC       1.820   1.000   P
NCPHP       2.070   1.000   P
NCPHO       2.620  -1.000   P
NCPHF       3.000   0.100   P
NCPSM       3.610   0.500   P
NCPCA       4.300   0.500   P
NCPPT       4.980   0.500   P
# 1990 11 14 19 34 14.33  35.9623 -120.5205    6.05 3.08  0.14  0.18  0.08     202223
NCPMM       1.930   1.000   P
NCPMM       3.280   0.100   S
NCPST       1.700   1.000   P
NCPVC       1.900   1.000   P
NCPRP       2.540   1.000   P
NCPPC       2.000   1.000   P
NCPPC       3.380   0.100   S
NCPHP       2.180   1.000   P
NCPHO       2.940   1.000   P
NCPHO       5.130   0.100   S
NCPSM       3.570   1.000   P
NCPHF       3.320   1.000   P
NCPHF       7.150   0.100   S
NCPCR       4.200   1.000   P
NCPCA       4.430   1.000   P
NCPWK       3.880   1.000   P
NCPHA       3.930   1.000   P
NCPGH       4.300   0.500   P
NCPPT       4.900   1.000   P
NCPSR       5.110   0.500   P
NCPMC       6.050   0.500   P
NCPMR       6.300   0.500   P
NCPRC       7.230   0.500   P
NCPSA       6.410   1.000   P
NCPMP       7.190   1.000   P
NCPAN       7.540   1.000   P
NCPSC       7.930   1.000   P
NCPOP       7.990   1.000   P
NCPDR       8.430   1.000   P
NCPAD       8.670   1.000   P
NCPHS       9.120   1.000   P
NCPPG      11.190   0.500   P
NCPHR      10.180   0.200   P
NCPIR       9.780   1.000   P
NCPBW       9.660   1.000   P
NCPLO       9.930   1.000   P
NCPBP      10.910   0.200   P
NCPWM      10.580   0.200   P
NCPJL      10.510   1.000   P
NCPMG      10.250   1.000   P
NCPBM      11.330   1.000   P
NCPHC      11.560   0.500   P
NCPTA      11.590   1.000   P
NCBRV      12.250   0.200   P
NCPCB      12.390   0.500   P
NCPAP      13.070   1.000   P
CIYEG      13.840   0.500   P
NCBBN      14.020   0.100   P
NCPKY      13.840   1.000   P
NCBMS      14.860   0.100   P
NCBBG      15.150   0.100   P
NCBPI      13.900   0.500   P
NCBSG      13.870   1.000   P
CISIM      14.720   0.100   P
NCPPB      15.060   0.100   P
NCBAV      15.870   0.200   P
NCPBI      15.700   0.100   P
NCPAB      16.320   0.200   P
NCBVL      15.490   0.200   P
NCBEM      16.630   0.100   P
NCBSM      15.880   1.000   P
CIBCH      16.220   0.200   P
NCBEH      17.540   0.100   P
NCBSC      16.860   0.100   P
NCBJO      16.940   0.500   P
NCBRM      18.400   0.100   P
NCBCW      17.070   0.500   P
NCBJC      16.990   0.500   P
NCBLR      18.030   0.100   P
NCBAP      17.540   1.000   P
CICRG      18.980   0.200   P
NCBHR      19.620   0.500   P
NCBCG      18.680   0.100   P
NCHQR      20.090   0.100   P
NCBPF      19.260   0.200   P
NCBSL      20.740   0.500   P
NCHJS      20.710   0.200   P
CISCC      19.910   0.100   P
NCBVY      19.490   0.100   P
NCBSR      19.290   0.100   P
NCPML      20.310   0.100   P
NCBPR      19.470   0.500   P
NCBPC      20.400   1.000   P
NCHFP      20.300   0.100   P
NCHSF      21.870   1.000   P
CITMB      22.980   0.100   P
NCHJG      21.600   0.100   P
CIPKM      22.380   0.100   P
NCHFE      23.290   1.000   P
NCHOR      23.640   0.200   P
NCMHD      22.910   0.500   P
NCHDL      22.190   0.100   P
NCHER      23.330   0.500   P
NCHMO      22.980   0.200   P
NCHCR      23.690   1.000   P
NCHGS      24.310   0.100   P
NCHGW      24.470   1.000   P
NCJRR      25.460   0.200   P
NCJCB      26.590   0.200   P
CIABL      27.530   0.500   P
NCJRG      27.360   0.200   P
CIBMT      30.230   0.100   P
# 1990 11 16  0 57 12.76  35.9642 -120.5248    5.99 2.40  0.15  0.17  0.06     200002
NCPMM       1.900   1.000   P
NCPMM       3.570   0.200   S
NCPST       1.690   1.000   P
NCPVC       1.870   1.000   P
NCPVC       3.230   0.100   S
NCPRP       2.480   0.500   P
NCPPC       1.930   1.000   P
NCPPC       3.340   0.100   S
NCPHP       2.090   1.000   P
NCPHP       3.540   0.100   S
NCPHO       2.940   1.000   P
NCPHO       5.270   0.100   S
NCPSM       3.460   1.000   P
NCPHF       3.340   1.000   P
NCPCR       4.110   0.500   P
NCPWK       3.880   1.000   P
NCPCA       4.450   0.500   P
NCPHA       3.950   1.000   P
NCPGH       4.330   0.500   P
NCPPT       4.800   1.000   P
NCPSR       5.140   0.500   P
NCPMC       6.070   1.000   P
NCPMR       6.320   0.200   P
NCPRC       7.130   0.500   P
NCPSA       6.320   1.000   P
NCPAR       8.150   1.000   P
NCPMP       7.080   0.500   P
NCPKE       8.970   0.200   P
NCPAN       7.480   0.500   P
NCPSC       7.940   1.000   P
NCPDR       9.480   0.200   P
NCPOP       8.080   1.000   P
NCPAD       8.620   0.500   P
NCPHS       9.060   1.000   P
NCPHR      10.080   0.100   P
NCPIR       9.830   0.500   P
NCPBW       9.540   0.500   P
NCPLO       9.860   1.000   P
NCPWM      13.100   0.100   P
NCPBP      11.310   1.000   P
NCPJL      10.420   0.500   P
NCPMG      10.260   0.500   P
NCPBM      11.340   0.500   P
NCPTA      11.580   0.200   P
NCBRV      12.520   0.200   P
NCPCB      12.400   0.200   P
NCPAP      12.990   0.500   P
CIYEG      13.810   0.100   P
NCBBN      14.810   0.200   P
NCBMS      15.200   0.100   P
NCBBG      15.270   0.100   P
NCBSG      13.760   0.100   P
CISIM      14.920   1.000   P
NCBAV      15.770   0.100   P
NCPBI      15.840   0.100   P
NCBVL      16.020   0.100   P
NCBEM      16.760   1.000   P
NCBSM      15.770   0.100   P
CIBCH      16.240   0.100   P
NCBEH      17.730   0.200   P
NCBJO      16.820   0.100   P
NCBCW      17.190   0.200   P
NCBJC      16.850   0.100   P
NCBLR      19.830   0.200   P
NCBAP      17.430   0.100   P
NCBVY      19.730   0.100   P
CISCC      20.930   0.100   P
NCBSR      19.860   0.100   P
NCBPR      19.780   0.200   P
NCBPC      20.030   1.000   P
CIPKM      22.840   0.200   P
NCHER      23.820   0.500   P
NCJRG      27.190   0.500   P
# 1990 11 16  2  5 15.86  35.9708 -120.5212    6.02 1.10  0.37  0.36  0.05     200007
NCPMM       1.890   0.200   P
NCPMM       3.620   0.100   S
NCPST       1.670   1.000   P
NCPVC       1.860   1.000   P
NCPVC       3.200   0.200   S
NCPRP       2.470   0.500   P
NCPPC       1.910   0.500   P
NCPPC       3.380   0.100   S
NCPHP       2.060   1.000   P
NCPHP       3.580   0.100   S
NCPHO       2.900   1.000   P
NCPHO       5.190   0.100   S
NCPSM       3.450   0.500   P
NCPHF       3.290   0.500   P
NCPWK       3.840   0.500   P
NCPCA       4.390   0.200   P
NCPHA       3.910   0.200   P
NCPSA       6.280   0.200   P
NCPMP       7.060   0.500   P
NCPHS       9.010   0.500   P
NCPLO       9.830   0.200   P
NCPJL      10.400   0.200   P
# 1990 11 16 10 18 27.08  35.9638 -120.5097    2.21 1.10  0.20  0.35  0.07     200018
NCPMM       1.050   0.200   P
NCPMM       1.960   0.100   S
NCPST       1.020  -1.000   P
NCPVC       1.310   0.200   P
NCPVC       2.420   0.100   S
NCPRP       1.930  -1.000   P
NCPPC       1.650  -0.500   P
NCPPC       3.090   0.100   S
NCPHP       1.940   0.200   P
NCPHO       2.500  -0.500   P
NCPHF       3.090   0.100   P
NCPSM       3.600   0.100   P
NCPWK       3.530   0.100   P
NCPCA       4.140   0.200   P
NCPHA       3.620   0.200   P
NCPCR       4.240   0.200   P
NCPGH       4.270   0.200   P
NCPSR       5.030   0.100   P
NCPPT       4.960   0.100   P
NCPMP       7.380   0.100   P
NCPAD       8.860   0.100   P
# 1990 11 16 23 45  8.04  35.9687 -120.5240    5.97 1.13  0.47  0.42  0.03     200060
NCPMM       1.910   0.200   P
NCPMM       3.580   0.100   S
NCPST       1.680  -1.000   P
NCPVC       1.860   1.000   P
NCPVC       3.200   0.200   S
NCPRP       2.490   0.200   P
NCPPC       1.920   1.000   P
NCPPC       3.390   0.200   S
NCPHP       2.090   1.000   P
NCPHO       2.910   0.500   P
NCPSM       3.460  -0.500   P
NCPHF       3.300   0.200   P
NCPCA       4.400   0.100   P
NCPWK       3.860  -1.000   P
NCPPT       4.780   0.100   P
NCPSR       5.090   0.100   P
NCPMP       7.060   0.100   P
NCPHS       9.040   0.100   P
# 1990 11 25 12 34 16.50  35.9745 -120.5265    3.97 1.00  0.61  0.94  0.02     200845
NCPMM       1.660   0.100   P
NCPMM       3.140  -0.200   S
NCPST       1.500  -1.000   P
NCPVC       1.680   0.500   P
NCPVC       2.960   0.200   S
NCPRP       2.230   0.100   P
NCPPC       1.710   0.500   P
NCPPC       3.000   0.200   S
NCPHP       1.840  -1.000   P
NCPHP       3.250   0.100   S
NCPHO       2.880   0.200   P
NCPSM       3.270   0.200   P
# 1990 11 28  3 42 54.94  35.9475 -120.5032   12.67 2.22  0.23  0.20  0.07     201333
NCPMM       2.930   0.100   P
NCPMM       5.370   0.100   S
NCPST       2.570   1.000   P
NCPVC       2.740   1.000   P
NCPVC       4.510   0.200   S
NCPRP       3.570   0.500   P
NCPPC       2.870   1.000   P
NCPPC       4.880   0.200   S
NCPHO       3.260   1.000   P
NCPHO       5.600   0.100   S
NCPHP       3.070   1.000   P
NCPHP       5.220   0.100   S
NCPHF       3.410   0.500   P
NCPHF       6.150   0.100   S
NCPCA       4.490   0.500   P
NCPWK       3.990   1.000   P
NCPSM       4.340   0.500   P
NCPCR       4.750   0.200   P
NCPGH       4.180   0.200   P
NCPSR       4.860   1.000   P
NCPPT       5.450   1.000   P
NCPMC       5.840   1.000   P
NCPMC      10.230   0.100   S
NCPMR       5.940   0.200   P
NCPRC       7.640   0.500   P
NCPAR       8.350   0.100   P
NCPSA       6.660   0.500   P
NCPMP       7.580   0.200   P
NCPOP       7.560   1.000   P
NCPSC       7.680   0.500   P
NCPTR       7.980   0.200   P
NCPAN       7.530   0.200   P
NCPAD       8.640   0.200   P
NCPIR       9.460   0.200   P
NCPHS       9.120   0.200   P
NCPBP      10.530   0.100   P
NCPBW       9.960   0.100   P
NCPMG       9.970   0.500   P
NCPLO      10.280   1.000   P
NCPJL      10.680   0.200   P
NCPBM      10.960   0.200   P
NCPTA      11.540   0.200   P
CIYEG      13.470   0.100   P
NCPKY      13.550   1.000   P
NCPAP      13.190   0.200   P
CISIM      14.620   1.000   P
NCBBN      15.340   0.200   P
NCBSG      14.210   0.100   P
CIBCH      16.000   1.000   P
NCBVL      16.120   1.000   P
NCBSM      16.570   0.500   P
NCBJO      17.340   0.100   P
NCBJC      17.100   0.100   P
NCBVY      19.870   0.500   P
NCBSR      20.130   0.200   P
NCBPC      20.200   0.500   P
