# 1993  4  8  2 10 33.07  35.9565 -120.5147    7.09 3.18  0.13  0.18  0.08     344155
NCPMM       1.990   1.000   P
NCPST       1.730   1.000   P
NCPVC       1.930   1.000   P
NCPFR       3.140   0.100   S
NCPPC       2.100   1.000   P
NCPHP       2.310   1.000   P
NCPHO       2.860   1.000   P
NCPHF       3.210   1.000   P
NCPHF       5.820   0.100   S
NCPSM       3.710   1.000   P
NCPCA       4.330   1.000   P
NCPCR       4.260   1.000   P
NCPWK       3.810   1.000   P
NCPHA       3.830   1.000   P
NCPGH       4.170   1.000   P
NCPSR       4.970   1.000   P
NCPPT       5.030   1.000   P
NCPMC       5.920   1.000   P
NCPMC      10.280   0.100   S
NCPMR       6.090   0.200   P
NCPAG       6.780   0.100   P
NCPSA       6.500   1.000   P
NCPAR       8.060   0.500   P
NCPKE       8.690   1.000   P
NCPMP       7.300   1.000   P
NCPMP      12.550   0.100   S
NCPAN       7.540   1.000   P
NCPOP       7.690   0.200   P
NCPSC       7.830   1.000   P
NCPDR       9.350   0.500   P
NCPTR       8.080   1.000   P
NCPAD       8.640   1.000   P
NCPHB      11.350   0.100   P
NCPHS       9.160   1.000   P
NCPIR       9.600   0.500   P
NCPHR      10.050   0.200   P
NCPLO      10.020   0.500   P
NCPBP      10.760   1.000   P
NCPMG      10.150   1.000   P
NCPJL      10.570   1.000   P
NCPBM      11.210   1.000   P
NCPTA      11.510   1.000   P
NCPHC      11.570   1.000   P
NCBRV      12.370   0.200   P
NCPCB      12.350   1.000   P
CIYEG      13.690   1.000   P
NCPAP      13.130   1.000   P
NCPKY      13.720   1.000   P
NCBMS      14.950   0.200   P
CISIM      14.600   0.200   P
NCBBG      15.170   0.200   P
NCBPI      13.990   0.500   P
NCBSG      13.950   1.000   P
NCPBI      15.600   0.500   P
NCBAV      15.960   0.500   P
NCPAB      15.810   0.200   P
NCBVL      15.590   0.500   P
NCBEM      16.730   0.500   P
CIBCH      16.090   1.000   P
NCBSM      15.950   0.500   P
NCBEH      17.480   0.200   P
NCBJO      17.020   0.200   P
NCBCW      17.110   0.500   P
NCBJC      17.070   0.500   P
NCBLR      17.650   0.200   P
NCBAP      17.410   0.200   P
CICRG      18.400   0.200   P
NCBHR      19.280   0.200   P
NCBCG      18.730   0.200   P
NCBPO      19.080   0.200   P
CISCC      19.760   0.500   P
NCBSL      20.510   0.200   P
NCHJS      20.330   0.200   P
NCPML      19.810   0.200   P
NCBVY      19.520   0.200   P
NCBSR      19.340   0.200   P
NCBPR      19.260   0.200   P
NCBPC      19.530   0.100   P
NCHFP      20.010   0.200   P
NCHLT      21.740   0.200   P
NCHSF      21.880   0.100   P
CITMB      22.750   0.100   P
NCHJG      21.240   0.100   P
CIPKM      22.280   0.200   P
NCMHD      22.510   0.100   P
NCMBE      22.670   0.200   P
NCHDL      22.190   0.100   P
NCHMO      23.140   0.100   P
NCHCR      23.330   0.100   P
NCHCA      23.720   0.100   P
CIMAR      24.430   0.100   P
NCHGS      24.480   0.200   P
NCHGW      24.500   0.100   P
NCJRR      25.330   0.200   P
NCJUC      27.160   0.100   P
NCJST      27.740   1.000   P
# 1993  4  9  4 26 21.68  35.9647 -120.5123    7.36 0.98  0.38  0.47  0.02     344285
NCPMM       1.880  -1.000   P
NCPST       1.630   1.000   P
NCPVC       1.840   1.000   P
NCPVC       3.180   0.200   S
NCPPC       1.970   1.000   P
NCPPC       3.370   0.200   S
NCPHP       2.170   1.000   P
NCPHO       2.830   0.500   P
NCPHF       3.210   0.100   P
NCPSM       3.560   0.500   P
NCPCA       4.290   0.200   P
NCPWK       3.780  -1.000   P
NCPPT       4.880   0.200   P
# 1993  4 11 20 19 30.45  35.9583 -120.5237    6.26 1.65  0.18  0.23  0.05     344487
NCPMM       1.880   0.500   P
NCPST       1.660   1.000   P
NCPVC       1.850   1.000   P
NCPVC       3.170   0.200   S
NCPPC       1.970   1.000   P
NCPPC       3.370   0.200   S
NCPHP       2.170   1.000   P
NCPHP       3.770   0.100   S
NCPHO       2.870   1.000   P
NCPHO       5.110   0.100   S
NCPSM       3.580   1.000   P
NCPHF       3.270   0.500   P
NCPHF       6.090   0.100   S
NCPCR       4.160  -1.000   P
NCPCA       4.390   0.500   P
NCPWK       3.810   1.000   P
NCPHA       3.880   1.000   P
NCPGH       4.230   0.200   P
NCPSR       5.050   0.200   P
NCPPT       4.900   1.000   P
NCPMC       5.980   1.000   P
NCPMR       6.190   0.100   P
NCPAN       7.500   0.200   P
NCPSC       7.870   0.500   P
NCPAD       8.610   0.200   P
NCPHS       9.090   0.500   P
NCPIR       9.730   0.500   P
NCPLO       9.960   0.500   P
NCPMG      10.180   0.500   P
NCPJL      10.490   0.500   P
NCPAP      13.070   0.500   P
NCBSG      13.940   0.200   P
NCBJO      17.030   0.100   P
NCBJC      17.110   0.200   P
NCBAP      17.510   0.200   P
# 1993  4 12 22 44 33.31  35.9598 -120.5215    6.35 2.69  0.15  0.20  0.06     344783
NCPMM       1.910   1.000   P
NCPMM       3.150   0.100   S
NCPST       1.700   1.000   P
NCPVC       1.890   1.000   P
NCPVC       3.160   0.100   S
NCPPC       2.000   1.000   P
NCPPC       3.060   0.100   S
NCPHP       2.180   1.000   P
NCPHO       2.920   1.000   P
NCPSM       3.580   1.000   P
NCPHF       3.300   1.000   P
NCPHF       6.220   0.100   S
NCPCR       4.190   1.000   P
NCPCA       4.430   1.000   P
NCPWK       3.860   1.000   P
NCPHA       3.910   1.000   P
NCPGH       4.250   1.000   P
NCPSR       5.100   1.000   P
NCPPT       4.910   1.000   P
NCPMC       6.020   1.000   P
NCPMR       6.270   0.500   P
NCPSA       6.420   1.000   P
NCPAR       8.040   0.100   P
NCPMP       7.210   1.000   P
NCPKE       8.790   0.200   P
NCPAN       7.540   0.500   P
NCPSC       7.920   1.000   P
NCPOP       7.850   0.200   P
NCPDR       9.280   0.500   P
NCPTR       8.190   0.500   P
NCPAD       8.650   0.200   P
NCPHS       9.120   1.000   P
NCPIR       9.720   0.500   P
NCPHR       9.940   0.100   P
NCPLO       9.920   0.500   P
NCPBP      10.890   0.200   P
NCPMG      10.250   0.500   P
NCPJL      10.510   1.000   P
NCPBM      11.320   1.000   P
NCPHC      11.550   0.500   P
NCPTA      11.580   1.000   P
NCBRV      12.420   0.100   P
NCPCB      12.360   0.500   P
NCPAP      13.070   0.500   P
CIYEG      13.820   0.200   P
NCPKY      13.810   0.200   P
NCBMS      15.030   0.200   P
NCBBG      15.360   0.100   P
NCBPI      13.920   0.200   P
CISIM      15.090   0.200   P
NCBSG      13.860   0.500   P
NCBAV      15.910   0.100   P
NCPBI      15.850   0.100   P
NCBVL      15.730   1.000   P
CIBCH      16.300   1.000   P
NCBJO      17.100   1.000   P
NCBCW      17.300   0.500   P
NCBJC      17.100   1.000   P
NCBAP      17.540   1.000   P
NCBPO      19.150   0.200   P
NCBSR      19.620   0.500   P
NCBPR      19.550   0.500   P
NCHFP      20.510   0.500   P
NCHJG      21.570   0.200   P
NCJRG      26.710   0.200   P
# 1993  4 14 11 58 38.05  35.9607 -120.5253    6.09 1.11  0.22  0.27  0.05     345518
NCPMM       1.890   0.500   P
NCPST       1.660   1.000   P
NCPVC       1.850   1.000   P
NCPVC       3.180   0.200   S
NCPPC       1.970   1.000   P
NCPPC       3.320   0.200   S
NCPHP       2.160   1.000   P
NCPHO       2.880   1.000   P
NCPSM       3.560   0.500   P
NCPHF       3.260   0.500   P
NCPCR       4.170   0.500   P
NCPWK       3.820   0.500   P
NCPHA       3.880   0.200   P
NCPSR       5.080   0.500   P
NCPPT       4.890   0.500   P
NCPMC       6.030   0.200   P
NCPSC       7.920   0.200   P
NCPAD       8.680   0.500   P
NCPHS       9.100   0.200   P
NCPIR       9.770   0.200   P
NCPLO       9.970   0.500   P
NCPMG      10.230   0.200   P
NCPJL      10.510   0.500   P
# 1993  4 19 22 17 46.66  35.9747 -120.5202    2.92 1.00  0.37  0.88  0.04     346063
NCPMM       1.350  -0.500   P
NCPST       1.350   1.000   P
NCPVC       1.550   1.000   P
NCPVC       2.670   0.200   S
NCPPC       1.650   1.000   P
NCPPC       2.830   0.200   S
NCPHP       1.830  -1.000   P
NCPHO       2.810   0.500   P
NCPHO       5.010   0.100   S
NCPHF       3.380   0.100   P
NCPCR       3.400   0.200   P
NCPCA       4.470  -0.500   P
NCPPT       4.780   0.500   P
NCPSR       5.330   0.200   P
# 1993  5  1  2 49 23.05  35.9673 -120.5342    9.78 1.11  0.45  0.56  0.04     346746
NCPMM       2.710   0.500   P
NCPST       2.300   1.000   P
NCPVC       2.440   1.000   P
NCPPC       2.410   1.000   P
NCPPC       4.250   0.200   S
NCPHP       2.520   1.000   P
NCPHO       3.320   1.000   P
NCPSM       3.740   0.500   P
NCPCR       4.240  -0.500   P
NCPCA       4.610   0.200   P
NCPWK       4.150  -1.000   P
NCPGH       4.730   0.200   P
NCPPT       4.840   0.500   P
NCPSR       5.360   0.200   P
NCPSA       6.230   0.500   P
NCPHS       9.080   0.200   P
NCPJL      10.370   0.200   P
# 1993  5  2  9 28 43.36  35.9510 -120.5065    8.70 3.39  0.15  0.25  0.07     346793
NCPMM       2.260   0.500   P
NCPST       1.920   1.000   P
NCPVC       2.110   1.000   P
NCPPC       2.340   1.000   P
NCPHP       2.570   1.000   P
NCPHO       2.870   1.000   P
NCPHF       3.130   1.000   P
NCPCA       4.270   1.000   P
NCPSM       3.950   1.000   P
NCPWK       3.780   1.000   P
NCPHA       3.750   1.000   P
NCPCR       4.350   1.000   P
NCPGH       4.050   1.000   P
NCPSR       4.820   1.000   P
NCPPT       5.240   1.000   P
NCPMC       5.800   1.000   P
NCPMC       9.640   0.100   S
NCPMR       5.950   1.000   P
NCPAG       6.650   0.200   P
NCPRC       7.380   1.000   P
NCPRC      12.940   0.100   S
NCPSA       6.590   1.000   P
NCPAR       8.140   1.000   P
NCPKE       8.680   1.000   P
NCPMP       7.450   1.000   P
NCPMP      12.710   0.100   S
NCPOP       7.540   1.000   P
NCPSC       7.700   1.000   P
NCPAN       7.560   1.000   P
NCPTR       7.950   1.000   P
NCPDR       9.440   1.000   P
NCPHB      11.310   0.500   P
NCPPG      10.730   1.000   P
NCPIR       9.440   1.000   P
NCPHS       9.190   1.000   P
NCPHR      10.170   0.500   P
NCPBW       9.880   1.000   P
NCPBP      10.400   0.200   P
NCPMG      10.030   1.000   P
NCPLO      10.160   1.000   P
NCPWM      12.470   1.000   P
NCPJL      10.670   1.000   P
NCPBM      11.080   1.000   P
NCPTA      11.400   1.000   P
NCPHC      11.570   1.000   P
NCBRV      12.480   1.000   P
NCPCB      12.290   1.000   P
CIYEG      13.530   1.000   P
NCPKY      13.610   1.000   P
NCPAP      13.180   1.000   P
CISIM      14.420   1.000   P
NCBMS      14.980   0.500   P
NCBBG      15.350   0.200   P
NCBPI      14.150   1.000   P
NCPPB      14.940   0.500   P
NCBSG      14.060   1.000   P
NCPBI      15.500   1.000   P
NCPAB      15.710   1.000   P
NCBAV      15.770   0.200   P
NCBVL      15.740   0.500   P
CIBCH      15.950   1.000   P
NCBEM      16.610   0.500   P
NCBSM      16.090   1.000   P
NCBEH      17.530   0.200   P
NCBRM      18.160   0.200   P
NCBJO      17.170   1.000   P
NCBCW      17.110   0.200   P
NCBJC      17.210   1.000   P
NCBLR      17.790   0.500   P
NCBAP      17.600   0.500   P
CICRG      18.430   0.200   P
NCBHR      19.240   0.500   P
NCBCG      18.780   0.200   P
CISCC      19.450   0.500   P
NCBPO      19.020   0.200   P
NCPML      19.670   0.200   P
NCBSL      20.530   0.500   P
NCHJS      20.030   0.100   P
NCBVY      19.540   0.200   P
NCBSR      19.290   0.500   P
NCBPR      19.110   0.200   P
NCBPC      19.520   0.200   P
NCHFP      20.010   0.200   P
NCHLT      21.090   0.200   P
NCHPH      21.870   0.100   P
NCHSL      22.740   0.100   P
CITMB      21.980   0.100   P
NCHSF      21.200   0.100   P
CIPKM      22.040   0.200   P
NCHJG      21.180   0.200   P
NCHBT      21.980   0.100   P
NCHFE      23.130   0.100   P
NCMHD      22.330   0.200   P
NCMBE      22.530   0.100   P
NCHOR      22.620   0.100   P
NCHPL      23.400   0.100   P
NCHDL      22.220   0.200   P
NCHER      22.720   0.100   P
NCHMO      22.750   0.100   P
NCHCR      23.120   0.100   P
NCHCA      24.000   0.100   P
CIMAR      23.750   0.100   P
NCHCO      23.430   0.100   P
NCHCB      23.620   0.100   P
NCHGS      24.510   0.100   P
NCPTQ      23.860   0.100   P
NCMYL      24.920   0.500   P
NCJRR      25.250   1.000   P
CIWOF      26.050   0.200   P
NCJTG      26.460   0.100   P
NCJRG      26.710   1.000   P
NCJAL      27.250   0.500   P
NCJUC      27.270   0.200   P
NCJST      27.720   1.000   P
NCJBL      29.060   1.000   P
# 1993  5  2 12  2 38.12  35.9582 -120.5227    6.20 1.45  0.19  0.28  0.06     346801
NCPMM       1.850   0.500   P
NCPMM       3.320   0.100   S
NCPST       1.630   1.000   P
NCPVC       1.820   1.000   P
NCPVC       3.100   0.100   S
NCPPC       1.960   1.000   P
NCPPC       3.360   0.200   S
NCPHP       2.140   1.000   P
NCPHO       2.850   1.000   P
NCPHO       5.090   0.100   S
NCPSM       3.550   1.000   P
NCPHF       3.230   1.000   P
NCPHF       6.020   0.100   S
NCPCR       4.180   1.000   P
NCPCA       4.370   1.000   P
NCPWK       3.800   1.000   P
NCPHA       3.850   0.500   P
NCPGH       4.260   0.200   P
NCPSR       5.040   0.500   P
NCPPT       4.900   1.000   P
NCPMC       5.960   1.000   P
NCPMR       6.380   0.100   P
NCPSA       6.420   1.000   P
NCPMP       7.110   0.200   P
NCPAN       7.480   0.200   P
NCPSC       7.860   0.500   P
NCPHS       9.100   0.200   P
NCPIR       9.720   0.200   P
NCPLO       9.960   0.500   P
NCPMG      10.190   0.200   P
NCPJL      10.510   0.500   P
# 1993  5  6 12 58 44.70  35.9557 -120.5190    4.62 1.55  0.19  0.22  0.06     347014
NCPMM       1.580   1.000   P
NCPMM       2.720   0.200   S
NCPST       1.390   1.000   P
NCPVC       1.620   1.000   P
NCPVC       2.760   0.100   S
NCPPC       1.870   1.000   P
NCPPC       3.160   0.100   S
NCPHP       2.090   1.000   P
NCPHO       2.710   1.000   P
NCPHF       3.120   0.500   P
NCPHF       6.420   0.200   S
NCPSM       3.600   1.000   P
NCPCA       4.290   0.200   P
NCPWK       3.730   1.000   P
NCPCR       4.240  -1.000   P
NCPHA       3.740   1.000   P
NCPGH       4.280   0.200   P
NCPSR       5.000   0.200   P
NCPPT       4.980   1.000   P
NCPMC       5.880   0.500   P
NCPMR       6.260   0.200   P
NCPRC       7.270   0.200   P
NCPSA       6.490   0.500   P
NCPMP       7.230   0.100   P
NCPSC       7.810   0.500   P
NCPHS       9.180   0.500   P
NCPIR       9.700   0.200   P
NCPLO      10.080   0.500   P
NCPBP      11.040   0.100   P
NCPMG      10.190   0.500   P
NCPJL      10.620   0.500   P
NCPBM      11.230   0.200   P
NCPTA      11.590   0.500   P
NCPAP      13.200   0.200   P
NCPKY      13.760   0.200   P
NCBPI      14.300   0.200   P
NCBAP      17.680   0.200   P
NCBVY      20.010   0.200   P
# 1993  5  9 19 28 31.77  35.9552 -120.5180    7.82 1.19  0.31  0.59  0.05     347318
NCPMM       2.160   0.200   P
NCPST       1.800   1.000   P
NCPVC       1.990   1.000   P
NCPVC       3.370   0.200   S
NCPPC       2.180   1.000   P
NCPHP       2.390   1.000   P
NCPHO       2.840  -1.000   P
NCPHF       3.420   0.200   P
NCPSM       3.740   0.200   P
NCPCA       4.300  -1.000   P
NCPCR       4.230   0.500   P
NCPHA       3.790   0.200   P
NCPGH       4.150   0.200   P
NCPPT       5.060   0.500   P
NCPMC       5.810   0.200   P
NCPMR       6.260   0.200   P
NCPSA       6.390   0.200   P
# 1993  5 16  3 14  0.71  35.9732 -120.5242    7.43 0.90  0.39  0.37  0.02     349313
NCPMM       1.930   0.500   P
NCPST       1.730   1.000   P
NCPVC       1.900   1.000   P
NCPPC       1.890   1.000   P
NCPPC       3.210   0.200   S
NCPHP       2.010   1.000   P
NCPSM       3.350  -1.000   P
NCPHO       3.030   1.000   P
NCPHF       3.470   0.100   P
NCPCA       4.530   0.200   P
NCPWK       3.970   1.000   P
NCPHA       4.090   0.200   P
NCPPT       4.660   0.500   P
NCPSR       5.280   0.200   P
NCPSA       6.220  -1.000   P
NCPJL      10.330   0.200   P
# 1993  5 25  2 56 15.30  35.9692 -120.5308    6.09 1.17  0.33  0.22  0.04     351040
NCPMM       1.980   0.500   P
NCPMM       3.740   0.200   S
NCPST       1.770   1.000   P
NCPVC       1.940   1.000   P
NCPVC       3.360   0.200   S
NCPPC       1.930   1.000   P
NCPPC       3.250   0.200   S
NCPHP       2.040   1.000   P
NCPSM       3.380   0.500   P
NCPHO       3.070   0.500   P
NCPHF       3.530   0.200   P
NCPCR       4.060   0.200   P
NCPCA       4.570   0.200   P
NCPWK       3.990   1.000   P
NCPHA       4.090   0.200   P
NCPPT       4.710   1.000   P
NCPSR       5.300  -1.000   P
NCPMC       6.210   1.000   P
NCPSA       6.250   1.000   P
NCPMP       7.010   0.200   P
NCPHS       9.000   0.200   P
NCPLO       9.780   0.500   P
NCPJL      10.360   0.500   P
NCPMG      10.380   0.200   P
# 1993  6  3  0 29  0.91  35.9630 -120.5130    4.61 1.00  0.39  0.44  0.02     351979
NCPMM       1.510   0.500   P
NCPMM       2.680   0.200   S
NCPST       1.340   1.000   P
NCPVC       1.580   1.000   P
NCPVC       2.710   0.200   S
NCPPC       1.840   1.000   P
NCPPC       3.150   0.200   S
NCPHP       2.080  -1.000   P
NCPHP       3.900   0.200   S
NCPHO       2.650   1.000   P
NCPHF       3.130   0.500   P
NCPHF       6.340   0.200   S
NCPCA       4.230   0.500   P
NCPWK       3.680  -1.000   P
NCPSR       5.000   0.500   P
NCPPT       4.980   0.200   P
# 1993  6 15 11 27 33.49  35.9738 -120.5252    6.26 0.99  0.25  0.54  0.04     355441
NCPMM       1.780  -1.000   P
NCPST       1.610   1.000   P
NCPVC       1.790   1.000   P
NCPVC       3.090   0.200   S
NCPPC       1.790   1.000   P
NCPPC       3.070   0.500   S
NCPHP       1.900   1.000   P
NCPHO       2.970   1.000   P
NCPCR       4.040  -1.000   P
NCPCA       4.610   0.500   P
NCPWK       3.940   0.500   P
NCPPT       4.690   0.200   P
NCPSR       5.290   0.500   P
NCPLO       9.790   0.500   P
# 1993  7  3  4 24 22.31  35.9725 -120.5347    4.45 1.11  0.32  0.40  0.03     364359
NCPMM       1.700   0.500   P
NCPMM       3.210   0.100   S
NCPST       1.550   1.000   P
NCPVC       1.710   1.000   P
NCPPC       1.660   1.000   P
NCPHP       1.750   1.000   P
NCPSM       3.150  -1.000   P
NCPHO       2.980   0.500   P
NCPHF       3.510   0.500   P
NCPCR       4.010   0.200   P
NCPWK       3.920   1.000   P
NCPCA       4.670   0.500   P
NCPMC       6.170   0.200   P
NCPAD       8.790  -1.000   P
NCPJL      10.270   0.200   P
# 1993  7 15 16  8 21.90  35.9645 -120.5277    9.76 1.98  0.21  0.22  0.05     368117
NCPMM       2.480   0.500   P
NCPST       2.230   1.000   P
NCPVC       2.380   1.000   P
NCPPC       2.380   1.000   P
NCPHP       2.500   1.000   P
NCPHO       3.240   1.000   P
NCPSM       3.690   1.000   P
NCPHF       3.600   0.200   P
NCPCR       4.260   0.500   P
NCPCA       4.550   0.500   P
NCPWK       4.070   1.000   P
NCPHA       4.110   0.500   P
NCPGH       4.640   0.200   P
NCPPT       4.890   1.000   P
NCPSR       5.140   0.100   P
NCPMC       6.110   1.000   P
NCPMR       6.400   0.200   P
NCPRC       6.990   0.500   P
NCPSA       6.310   1.000   P
NCPMP       7.050   0.200   P
NCPAN       7.440   0.200   P
NCPSC       7.950   0.500   P
NCPAD       8.640   0.200   P
NCPHS       8.950   0.500   P
NCPIR       9.880   0.200   P
NCPLO       9.800   0.500   P
NCPBP      11.010   0.200   P
NCPMG      10.200   0.500   P
NCPBM      11.300   0.500   P
NCPTA      11.530   0.200   P
NCPAP      12.890   0.200   P
CIYEG      14.220   1.000   P
NCBPI      13.840   0.200   P
CIBCH      16.640   0.500   P
NCBAP      17.450   1.000   P
NCMMI      26.200   1.000   P
# 1993  8  9 15 22 24.27  35.9592 -120.5187    9.84 1.04  0.28  0.31  0.04     373988
NCPMM       2.470   0.200   P
NCPMM       4.380   0.200   S
NCPST       2.130   1.000   P
NCPVC       2.300   1.000   P
NCPVC       3.870   0.200   S
NCPPC       2.400   1.000   P
NCPPC       4.010   0.200   S
NCPHP       2.590   1.000   P
NCPHP       4.460   0.200   S
NCPHO       3.070   1.000   P
NCPHO       5.400   0.200   S
NCPHF       3.560   0.200   P
NCPHF       6.330   0.100   S
NCPSM       3.840   0.500   P
NCPCA       4.420  -1.000   P
NCPWK       3.910   1.000   P
NCPGH       4.360   0.200   P
NCPPT       5.050   0.500   P
NCPMC       5.880   0.500   P
NCPMC      10.220   0.200   S
NCPSA       6.420   0.500   P
NCPSC       7.770   0.200   P
NCPAD       8.570   0.200   P
NCPHS       9.040   0.500   P
NCPMG      10.070   0.500   P
NCPJL      10.500   0.200   P
