# 1984  7 17 16 24 49.44  37.2900 -121.6703    3.62 1.85  0.11  0.29  0.04      23190
NCCCO       1.440  -1.000   P
NCCSC       2.620   0.500   P
NCCAO       2.760   1.000   P
NCCAD       3.270   0.200   P
NCJST       3.350   0.200   P
NCJCB       4.240   1.000   P
NCCML       4.340   1.000   P
NCCAL       4.280   1.000   P
NCJAL       4.460   1.000   P
NCHSP       4.780   1.000   P
NCCMM       4.790   1.000   P
NCJHL       5.070   1.000   P
NCJRR       5.300   1.000   P
NCJSS       5.390   1.000   P
NCHGS       5.500   0.500   P
NCJLX       5.850   0.200   P
NCHGW       5.890   0.200   P
NCCDV       5.990   0.500   P
NCCMJ       6.090   0.500   P
NCJBZ       6.750   0.500   P
NCHCA       6.510   0.100   P
NCJSG       7.030   0.100   P
NCCMR       6.520   0.500   P
NCJTG       7.890   0.500   P
NCJBC       6.920   0.200   P
NCCVA       7.300   1.000   P
NCHPR       7.430   0.200   P
NCJPL       8.140   0.100   P
NCCMN       7.190   0.100   P
NCJSJ       7.600   0.100   P
NCHCR       7.120   0.200   P
NCJRG       8.190   0.200   P
NCHCB       7.710   0.100   P
NCCVL       7.960   0.100   P
NCHFE       7.750   0.100   P
NCCST       8.270   0.200   P
NCHPL       7.760   0.500   P
NCJBM       8.110   0.500   P
NCHCP       8.080   1.000   P
NCJSF       4.710   0.100   P
NCJBL       8.870   0.100   P
NCJPP       9.280   1.000   P
NCHDL       9.760   0.500   P
NCHSF      11.290   1.000   P
NCHJG      10.310   0.200   P
NCJHP      10.570   1.000   P
NCJBG      10.810   0.100   P
NCHFP      11.490   0.200   P
NCBVY      12.350   0.200   P
NCHQR      11.730   0.200   P
NCBSR      12.720   1.000   P
NCJSA      13.160   0.200   P
NCJMG      14.390   0.500   P
NCCAI      16.290   0.500   P
# 1984  7 17 17 53  4.19  37.2873 -121.6647    5.57 2.33  0.10  0.22  0.04      23195
NCCCO       1.690  -1.000   P
NCCSC       2.870   1.000   P
NCCAO       2.740   1.000   P
NCCAD       3.420   0.500   P
NCJST       3.380   1.000   P
NCJCB       4.130   1.000   P
NCCML       4.310   1.000   P
NCCAL       4.310   1.000   P
NCJAL       4.460   0.500   P
NCCMM       4.720   1.000   P
NCJHL       5.020   1.000   P
NCJRR       5.210   1.000   P
NCJSS       5.380   1.000   P
NCHGS       5.380   1.000   P
NCHGW       5.780   0.500   P
NCJLX       5.790   1.000   P
NCCDV       5.960   0.500   P
NCCMJ       6.110   0.500   P
NCJBZ       6.670   0.200   P
NCHCA       6.380   0.100   P
NCCMR       6.460   0.500   P
NCJSG       7.000   0.200   P
NCJBC       6.850   0.200   P
NCCOS       6.690   0.200   P
NCHPR       7.320   1.000   P
NCHCR       6.990   1.000   P
NCJPL       7.450   0.100   P
NCCVA       7.280   0.500   P
NCCMN       7.280   0.500   P
NCJSJ       7.610   0.200   P
NCJRG       7.430   0.200   P
NCHCB       7.620   0.200   P
NCCVL       7.940   0.200   P
NCHFE       7.480   0.200   P
NCCST       8.180   0.500   P
NCHPL       7.630   1.000   P
NCCSA       8.190   0.200   P
NCJBM       8.090   0.500   P
NCHCP       7.920   1.000   P
NCHCO       8.660   0.200   P
NCHAZ       8.670   0.500   P
NCJSM       8.630   0.100   P
NCJUC       8.670   0.200   P
NCCPL       8.690   0.500   P
NCJSF       8.650   0.500   P
NCHFH       6.310   1.000   P
NCJBL       8.780   1.000   P
NCJLT       8.790   0.200   P
NCJPP       9.160   0.200   P
NCHBT       9.880   0.200   P
NCHDL       9.360   0.500   P
NCCDO       9.380   0.200   P
NCCSH       7.330   0.100   P
NCHLT       9.830   0.200   P
NCHJG      10.150   0.200   P
NCCRA      11.790   0.500   P
NCCBS      11.370   1.000   P
NCJHP      10.470   0.200   P
NCCMO      11.780   0.200   P
NCHFP      11.250   0.100   P
NCCLC      11.920   0.200   P
NCJPS      11.240   1.000   P
NCHJS      11.120   0.100   P
NCBSL      12.350   0.200   P
NCBVY      11.560   0.200   P
NCHQR      11.540   1.000   P
NCBSR      12.500   1.000   P
NCBCG      13.370   0.200   P
NCCMC      13.070   0.200   P
NCCRP      13.690   0.200   P
NCJSA      12.910   0.200   P
NCJEG      12.850   0.200   P
NCBLR      14.760   1.000   P
NCHMO      13.790   1.000   P
NCJMG      13.850   0.500   P
NCBEM      15.320   0.100   P
NCBAV      15.930   1.000   P
NCJPR      15.620   0.500   P
NCCAI      16.030   1.000   P
NCCSP      17.110   0.100   P
NCNHM      18.660   0.200   P
NCBSG      17.630   0.100   P
NCBHS      18.090   0.200   P
NCMYL      18.590   1.000   P
NCBPP      21.180   0.200   P
NCNLN      21.650   1.000   P
NCNCF      26.210   0.200   P
NCNTB      26.560   0.500   P
NCNMW      31.640   0.100   P
NCPIV      30.580   0.200   P
NCGSG      21.660   0.100   P
# 1984  7 30 14 16 49.06  37.2877 -121.6702    3.64 2.31  0.11  0.31  0.06      24519
NCCCO       1.400  -1.000   P
NCCSC       2.640   1.000   P
NCCAO       2.760   1.000   P
NCCAD       3.450   1.000   P
NCJST       3.300   1.000   P
NCJCB       4.230   1.000   P
NCCML       4.350   1.000   P
NCJAL       4.470   1.000   P
NCCAL       4.280   1.000   P
NCHSP       4.780   1.000   P
NCCMM       4.800   1.000   P
NCJHL       5.060   1.000   P
NCJRR       5.300   1.000   P
NCJSS       5.400   0.500   P
NCHGS       9.780   0.100   P
NCJLX       5.850   0.500   P
NCHGW       5.900   1.000   P
NCCDV       6.030   1.000   P
NCCMJ       6.140   0.500   P
NCCMP       6.020   1.000   P
NCJBZ       6.740   1.000   P
NCHCA       6.640   0.200   P
NCJSG       7.030   0.500   P
NCJTG       6.990   0.500   P
NCCMR       6.540   1.000   P
NCJBC       6.910   1.000   P
NCHPR       7.430   1.000   P
NCJPL       7.620   1.000   P
NCHCR       7.160   1.000   P
NCCVA       7.310   0.500   P
NCJSJ       7.600   0.200   P
NCCMN       7.350   0.500   P
NCJRG       7.500   1.000   P
NCHCB       7.780   1.000   P
NCCVL       8.000   1.000   P
NCHFE       7.660   1.000   P
NCCST       8.300   0.500   P
NCHPL       7.810   0.500   P
NCJBM       8.160   1.000   P
NCHOR       8.390   0.500   P
NCHCP       8.090   0.200   P
NCHCO       8.820   1.000   P
NCHAZ       8.840   1.000   P
NCJUC       8.870   0.100   P
NCJSF       8.720   0.500   P
NCCPL       8.770   1.000   P
NCJBL       8.850   0.500   P
NCHFH       9.350   1.000   P
NCJLT       8.910   1.000   P
NCHKR       9.410   0.200   P
NCJPP       9.250   1.000   P
NCHBT      10.090   1.000   P
NCHDL       9.500   1.000   P
NCCSH       9.930   1.000   P
NCHPH       9.590   0.200   P
NCHSF      10.910   0.500   P
NCHJG      10.300   1.000   P
NCHLT      10.340   1.000   P
NCJHP      10.570   0.500   P
NCCBS      11.520   0.200   P
NCCMO      11.940   0.500   P
NCJBG      11.010   1.000   P
NCJPS      11.400   0.200   P
NCHFP      11.370   0.500   P
NCHJS      11.120   0.100   P
NCBSL      12.440   1.000   P
NCBVY      12.270   1.000   P
NCHQR      11.750   0.500   P
NCCBR      13.530   0.200   P
NCBSR      12.630   1.000   P
NCBCG      13.480   0.100   P
NCBHR      14.030   0.200   P
NCJSA      13.020   0.200   P
NCJEG      12.850   0.200   P
NCBLR      14.780   1.000   P
NCHMO      14.100   0.200   P
NCCBW      15.740   0.200   P
NCJMG      14.180   0.200   P
NCBJO      14.740   1.000   P
NCBEH      15.240   0.200   P
NCBJC      15.110   1.000   P
NCBEM      15.670   0.200   P
NCBRM      16.340   0.100   P
NCBVL      16.420   0.500   P
NCJPR      16.010   0.200   P
NCBAV      16.170   1.000   P
NCCAI      16.150   1.000   P
NCCSP      17.010   0.200   P
NCBBG      17.880   1.000   P
NCBPI      17.130   0.500   P
NCBBN      18.630   0.200   P
NCNLH      18.900   0.100   P
NCBSG      17.940   0.500   P
NCBHS      18.050   1.000   P
NCNTA      18.470   1.000   P
NCMYL      18.780   1.000   P
NCBPP      21.740   0.100   P
NCNOL      22.290   0.500   P
NCNLN      22.160   0.200   P
NCNTB      25.210   0.500   P
NCMHD      25.990   0.100   P
NCPIV      30.980   0.500   P
# 1984  8  1 12 29 16.89  37.2895 -121.6663    5.80 1.64  0.15  0.32  0.03      24674
NCCCO       1.750   1.000   P
NCCSC       2.870   1.000   P
NCCMH       2.740   1.000   P
NCCAO       2.750   1.000   P
NCCAD       3.470   1.000   P
NCJST       3.390   1.000   P
NCJCB       4.170   1.000   P
NCCML       4.010   0.100   P
NCCAL       4.260   1.000   P
NCJAL       4.450   0.500   P
NCHSP       4.730   1.000   P
NCCMM       4.690   1.000   P
NCJHL       5.030   1.000   P
NCJRR       5.230   1.000   P
NCJSS       5.370   1.000   P
NCHGS       5.440   0.500   P
NCHGW       5.820   0.500   P
NCCDV       5.910   0.500   P
NCCMJ       6.250   0.500   P
NCCMP       5.890   0.500   P
NCJBZ       6.700   1.000   P
NCHCA       6.960   0.500   P
NCCMR       6.410   0.500   P
NCJSG       6.960   0.500   P
NCJTG       7.620   0.200   P
NCJBC       6.910   1.000   P
NCCVA       7.210   0.500   P
NCHCR       7.020   1.000   P
NCJSJ       7.660   1.000   P
NCJRG       7.510   0.200   P
NCCVL       7.900   1.000   P
NCCST       8.170   1.000   P
NCHPL       7.670   0.500   P
NCJBM       8.200   0.500   P
NCHCP       7.940   0.100   P
NCHCO       8.720   1.000   P
NCJUC       8.910   0.200   P
NCHFH      10.280   0.200   P
NCJPP       9.220   1.000   P
NCHDL       9.430   1.000   P
NCJHP      10.530   1.000   P
NCBSL      13.730   0.100   P
NCBVY      12.200   1.000   P
NCBSR      12.590   0.100   P
NCBPC      14.210   1.000   P
NCJMG      14.330   0.500   P
NCNHM      11.050   0.100   P
# 1984  8  7  9  7  6.33  37.2907 -121.6712    3.34 1.17  0.19  0.35  0.03      25096
NCCCO       1.430  -1.000   P
NCCSC       2.640   0.500   P
NCCMH       2.620   0.200   P
NCCAO       2.760   1.000   P
NCJST       3.370   0.200   P
NCCAD       3.460   0.200   P
NCJCB       4.250   1.000   P
NCCML       4.330   0.500   P
NCCAL       4.260   1.000   P
NCJAL       4.480   0.100   P
NCHSP       4.810   1.000   P
NCCMM       4.780   1.000   P
NCJHL       5.080   1.000   P
NCJRR       5.260   1.000   P
NCJSS       5.420   0.100   P
NCHGS       5.570   0.100   P
NCJEC       5.890   0.500   P
NCJLX       5.850   0.200   P
NCCDV       5.960   0.500   P
NCCMJ       6.120   0.100   P
NCJBZ       6.800   0.500   P
NCJSG       7.020   0.100   P
NCCMR       6.520   0.500   P
NCHCP       8.090   0.100   P
# 1984  8 10  7  4  4.20  37.2908 -121.6687    4.23 0.95  0.18  1.01  0.03      25305
NCCCO       1.480  -0.200   P
NCCSC       2.540   0.100   P
NCCMH       2.650   0.500   P
NCCAO       2.730  -1.000   P
NCCAD       3.460   0.200   P
NCJST       3.350   0.500   P
NCJCB       4.210   0.500   P
NCCML       4.300   0.100   P
NCCAL       4.240   0.200   P
NCJAL       4.510   0.500   P
NCHSP       4.760  -1.000   P
NCCMM       4.770   0.200   P
NCJHL       5.040   0.500   P
NCJRR       5.280   1.000   P
NCJSS       5.370   0.100   P
NCHGS       5.500   0.100   P
NCJEC       5.860   0.200   P
NCJLX       5.790   0.100   P
NCHGW       5.860   0.200   P
NCCMJ       6.080   0.100   P
NCCMP       5.980   0.100   P
NCHCP       8.040   0.100   P
# 1984  8 19 20 27 32.96  37.2848 -121.6632    6.19 0.69  0.25  0.81  0.02      25937
NCCCO       1.780   0.200   P
NCCSC       2.950  -0.500   P
NCCAO       2.690   0.200   P
NCCAD       3.100   0.100   P
NCJST       3.250   0.200   P
NCJCB       4.070  -1.000   P
NCCML       4.190   0.100   P
NCCAL       4.560   0.100   P
NCHSP       4.580  -1.000   P
NCJHL       4.990   0.200   P
NCJRR       5.150   0.500   P
NCJSS       5.530   0.100   P
NCHGS       5.290   0.200   P
NCJLX       5.800   0.200   P
NCCMR       6.520  -1.000   P
# 1984  8 25  0 19 18.36  37.2922 -121.6723    3.57 0.72  0.51  1.11  0.04      26238
NCCCO       1.510  -0.200   P
NCCSC       2.600   0.100   P
NCCMH       2.650   0.100   P
NCCAO       2.770  -1.000   P
NCJST       3.100   0.200   P
NCJCB       4.250   1.000   P
NCCML       4.350   0.100   P
NCCAL       4.270   0.200   P
NCHSP       4.780   0.200   P
NCCMM       4.780   0.500   P
NCJHL       5.060   0.100   P
NCJRR       5.320  -1.000   P
NCHGS       5.600   0.100   P
# 1984  9  6 16 33 41.64  37.2847 -121.6623    5.97 1.41  0.19  0.36  0.02      27421
NCCCO       1.710  -1.000   P
NCCSC       2.960   1.000   P
NCCAO       2.740   1.000   P
NCCAD       3.360   0.200   P
NCJST       3.460   0.100   P
NCJCB       4.080   1.000   P
NCCML       4.360   0.500   P
NCHSP       4.600   1.000   P
NCCMM       4.720   0.500   P
NCJHL       4.990   1.000   P
NCJRR       5.160   1.000   P
NCHGS       5.310   1.000   P
NCHGW       5.730   1.000   P
NCJLX       5.850   0.500   P
NCCDV       5.970   0.500   P
NCCMP       5.850   0.200   P
NCCMJ       6.140   0.200   P
NCJBZ       6.630   1.000   P
NCJSG       6.950   0.100   P
NCCMR       6.520   1.000   P
NCJBC       6.970   0.200   P
NCCVA       7.320   1.000   P
NCJRG       7.900   0.500   P
NCJSJ       7.700   1.000   P
NCCST       8.240   1.000   P
NCHOR       5.950   0.100   P
NCJPP       9.350   0.100   P
NCJHP      10.610   0.500   P
NCBPI      18.860   1.000   P
NCPAN      33.380   0.200   P
NCPHG      22.870   0.200   P
NCMLC      38.810   0.200   P
# 1984  9 10 16 24 47.13  37.2838 -121.6635    5.54 2.39  0.11  0.20  0.07      27683
NCCCO       1.660  -1.000   P
NCCSC       2.900   0.200   P
NCCAO       2.720   1.000   P
NCCAD       3.350   0.500   P
NCJST       3.370   0.500   P
NCJCB       4.090   0.500   P
NCCML       4.340   0.500   P
NCJAL       4.440   0.500   P
NCHSP       4.610   1.000   P
NCCMM       4.720   0.500   P
NCJHL       4.990   1.000   P
NCJRR       5.160   1.000   P
NCJSS       5.370   0.100   P
NCHGS       5.310   0.200   P
NCJEC       5.780   0.200   P
NCHGW       5.740   0.200   P
NCJLX       5.780   0.100   P
NCCDV       5.990   0.200   P
NCCMP       5.860   0.500   P
NCCMJ       6.150   0.200   P
NCJBZ       6.630   0.100   P
NCHCA       6.380   0.100   P
NCJTG       6.910   0.100   P
NCJSG       7.010   0.200   P
NCCMR       6.500   0.200   P
NCJBC       6.890   0.100   P
NCCOS       6.690   0.100   P
NCHPR       7.270   0.100   P
NCHCR       6.930   0.200   P
NCJPL       7.470   0.100   P
NCCVA       7.320   0.200   P
NCJRG       7.390   0.100   P
NCCMN       7.320   0.200   P
NCJSJ       7.620   0.200   P
NCHCB       7.580   0.100   P
NCHFE       7.420   0.100   P
NCCVL       7.960   0.100   P
NCHPL       7.580   0.200   P
NCCST       8.230   1.000   P
NCHOR       8.050   0.200   P
NCJBM       8.110   0.100   P
NCHCP       7.880   0.200   P
NCJSM       8.620   0.200   P
NCJUC       8.780   1.000   P
NCJSF       8.680   0.200   P
NCHFH       9.160   0.500   P
NCCPL       8.720   0.100   P
NCHKR       9.960   0.200   P
NCJBL       8.780   0.100   P
NCJLT       8.800   0.100   P
NCJPP       9.160   0.100   P
NCHDL       9.320   0.200   P
NCCDO      10.500   0.200   P
NCCSH       9.840   0.500   P
NCHSF      10.680   1.000   P
NCHLT      10.070   0.100   P
NCHJG      10.140   1.000   P
NCHSL      11.520   0.200   P
NCCBS      11.390   1.000   P
NCJHP      10.570   1.000   P
NCCMO      12.050   1.000   P
NCJBG       9.050   0.200   P
NCHFP      11.210   1.000   P
NCHJS      12.020   0.100   P
NCJPS      11.090   1.000   P
NCCLC      11.370   0.500   P
NCBSL      12.410   0.500   P
NCBVY      12.050   1.000   P
NCHQR      11.500   1.000   P
NCCBR      13.510   0.200   P
NCBSR      12.520   1.000   P
NCBCG      13.330   0.500   P
NCBHR      13.990   0.200   P
NCCMC      13.210   0.200   P
NCJSA      12.770   0.500   P
NCJEG      13.240   0.200   P
NCBLR      14.650   1.000   P
NCBPC      14.030   1.000   P
NCBJO      14.490   1.000   P
NCCBW      15.690   0.200   P
NCBEH      13.730   0.100   P
NCJMG      14.400   0.500   P
NCBJC      14.870   1.000   P
NCBEM      15.590   0.500   P
NCBVL      16.130   0.200   P
NCBAV      15.900   1.000   P
NCJPR      15.720   0.200   P
NCCAI      16.010   0.100   P
NCBBG      17.670   1.000   P
NCBBN      18.650   1.000   P
NCBSG      18.420   0.500   P
NCBHS      17.850   1.000   P
NCMYL      18.560   1.000   P
NCBPF      19.940   0.200   P
NCBPP      21.060   0.500   P
NCNOL      21.180   0.200   P
NCNLN      22.590   1.000   P
NCNTB      26.010   0.200   P
NCMHD      25.500   0.200   P
NCPCR      21.840   0.200   P
# 1984  9 10 16 33 36.94  37.2858 -121.6643    5.03 1.79  0.14  0.43  0.04      27684
NCCCO       1.050   0.100   P
NCCSC       2.910   0.500   P
NCCAO       2.720   1.000   P
NCCAD       3.370   0.200   P
NCJST       3.380   0.500   P
NCJCB       4.100   1.000   P
NCCML       4.350   0.500   P
NCJAL       4.370   0.200   P
NCHSP       4.620   1.000   P
NCCMM       4.730   1.000   P
NCJHL       5.000   1.000   P
NCJRR       5.170   0.500   P
NCJSS       5.390   0.500   P
NCHGS       5.330   0.500   P
NCJEC       5.790   0.500   P
NCHGW       5.730   0.500   P
NCJLX       5.860   0.200   P
NCCDV       5.990   0.100   P
NCCMP       5.840   0.500   P
NCCMJ       6.150   0.200   P
NCJBZ       6.670   1.000   P
NCHCA       6.120   0.100   P
NCJSG       7.020   0.200   P
NCCMR       6.510   0.500   P
NCJBC       6.890   0.500   P
NCHPR       7.070   0.100   P
NCHCR       6.950   0.500   P
NCCVA       7.330   0.500   P
NCCMN       7.310   0.100   P
NCJSJ       7.640   0.200   P
NCJRG       7.450   0.100   P
NCHCB       7.590   0.100   P
NCCVL       7.960   0.100   P
NCCST       8.280   1.000   P
NCHPL       7.570   0.500   P
NCHOR       8.460   0.100   P
NCJBM       8.170   0.200   P
NCHCP       7.890   0.200   P
NCJSM       8.670   0.200   P
NCJUC       8.890   0.100   P
NCJBL       8.850   0.100   P
NCJPP       9.210   0.100   P
NCHDL       9.320   0.100   P
NCHJG      10.220   0.500   P
NCHFP      11.440   1.000   P
NCBSL      13.330   0.500   P
NCBVY      12.120   1.000   P
NCHQR      11.510   1.000   P
NCBSR      12.510   1.000   P
NCJSA      13.370   0.200   P
NCBJO      14.400   0.100   P
NCCAI      16.390   0.200   P
# 1984  9 11  8 13 54.33  37.2853 -121.6630    6.01 0.83  0.21  0.77  0.02      27721
NCCCO       1.720   0.200   P
NCCSC       2.950  -0.500   P
NCCAO       2.730  -0.500   P
NCCAD       3.350   0.200   P
NCJST       3.380   0.100   P
NCJCB       4.080   0.500   P
NCCML       4.390   0.200   P
NCCAL       4.380   0.200   P
NCHSP       4.590  -1.000   P
NCJHL       4.960   0.200   P
NCJRR       5.150   0.500   P
NCHGS       5.280   0.100   P
NCJEC       5.770   0.100   P
NCJLX       5.810   0.100   P
NCJBZ      10.970   0.100   P
NCCMR       6.530   0.200   P
# 1984  9 11  9 29 23.69  37.2877 -121.6653    5.78 1.78  0.15  0.30  0.03      27722
NCCCO       1.710   1.000   P
NCCSC       2.880   1.000   P
NCCAO       2.740   1.000   P
NCCAD       3.440   1.000   P
NCJST       3.390   1.000   P
NCJCB       4.140   1.000   P
NCCML       4.310   1.000   P
NCCAL       4.310   1.000   P
NCJAL       4.450   0.500   P
NCHSP       4.690   1.000   P
NCCMM       4.710   1.000   P
NCJHL       5.030   1.000   P
NCJRR       5.220   1.000   P
NCJSS       5.370   0.500   P
NCHGS       5.410   0.500   P
NCJEC       5.820   1.000   P
NCHGW       5.800   0.500   P
NCJLX       5.820   0.500   P
NCCDV       5.940   1.000   P
NCCMJ       6.080   0.500   P
NCCMP       5.890   0.500   P
NCJBZ       6.680   1.000   P
NCJSG       6.980   0.500   P
NCCMR       6.460   1.000   P
NCJTG       6.950   1.000   P
NCJBC       6.880   1.000   P
NCHPR       7.330   1.000   P
NCHCR       6.990   1.000   P
NCCVA       7.250   0.500   P
NCJSJ       7.590   0.500   P
NCJRG       7.480   1.000   P
NCCVL       7.950   1.000   P
NCCST       8.230   1.000   P
NCHPL       7.640   0.500   P
NCHOR       8.420   0.100   P
NCJBM       8.240   0.500   P
NCJSM       8.780   0.100   P
NCJUC       8.920   0.200   P
NCHFH      10.280   0.500   P
NCJBL       8.830   0.100   P
NCJPP       9.260   1.000   P
NCHDL       9.400   1.000   P
NCHJG      10.190   1.000   P
NCJHP      10.560   0.100   P
NCCLC      11.330   0.500   P
NCHFP      11.490   0.500   P
NCBSL      12.190   0.100   P
NCBVY      12.170   1.000   P
NCHQR      12.010   0.200   P
NCBSR      12.510   1.000   P
NCJSA      13.060   0.200   P
NCBPC      14.150   0.200   P
NCBJO      14.740   0.100   P
NCCAI      16.210   0.100   P
