# 1984  9 11 10 26  8.19  37.2898 -121.6657    6.63 1.55  0.23  0.43  0.02      27724
NCCCO       1.860  -1.000   P
NCCSC       2.960   1.000   P
NCCAO       2.780   1.000   P
NCCAD       3.490   1.000   P
NCJST       3.400   0.200   P
NCJCB       4.170   1.000   P
NCCML       4.260   0.500   P
NCCAL       4.260   1.000   P
NCHSP       4.690   1.000   P
NCCMM       4.680   1.000   P
NCJHL       5.050   1.000   P
NCJRR       5.240   1.000   P
NCJLX       5.840   0.500   P
NCHGW       5.810   1.000   P
NCCDV       5.880   0.500   P
NCJBZ       6.730   1.000   P
NCCMR       6.420   1.000   P
NCJSG       6.970   0.100   P
NCJBC       6.890   0.500   P
NCCVA       7.210   1.000   P
NCJSJ       7.650   0.100   P
NCJRG       7.930   0.200   P
NCJBM       8.210   0.200   P
# 1984  9 23  8 43 14.72  37.2928 -121.6703    3.04 1.07  0.21  0.88  0.03      28475
NCCCO       1.460  -0.200   P
NCCSC       2.570   0.200   P
NCCMH       2.600   0.200   P
NCCAO       2.750  -1.000   P
NCJST       3.350   0.500   P
NCCAD       3.520   0.200   P
NCJCB       4.280   0.500   P
NCCAL       4.230   0.200   P
NCJAL       4.490   0.100   P
NCCMM       4.610   0.100   P
NCHSP       4.830  -1.000   P
NCJHL       5.080   0.200   P
NCCMP       6.150   0.100   P
NCHPL       7.850   0.100   P
NCHCP       5.530   0.100   P
# 1984 10 10  7 11 54.16  37.2843 -121.6672    3.35 1.90  0.13  0.30  0.05      29752
NCCCO       1.340  -1.000   P
NCCSC       2.710   1.000   P
NCCMH       2.760   1.000   P
NCCAO       2.760   1.000   P
NCCAD       3.340   1.000   P
NCJST       3.270   0.200   P
NCJCB       4.160   1.000   P
NCJAL       4.490   0.200   P
NCCML       4.440   1.000   P
NCCAL       4.400   1.000   P
NCHSP       4.690   1.000   P
NCCMM       4.840   1.000   P
NCJHL       5.050   1.000   P
NCJRR       5.270   1.000   P
NCJSS       5.400   0.200   P
NCHGS       5.450   0.500   P
NCJEC       5.850   1.000   P
NCHGW       5.850   0.500   P
NCCDV       6.130   1.000   P
NCCMJ       6.240   0.200   P
NCCMP       6.010   0.500   P
NCJBZ       6.720   1.000   P
NCHCA       6.640   0.100   P
NCJTG       6.980   1.000   P
NCJSG       7.090   1.000   P
NCCMR       6.660   1.000   P
NCJBC       6.950   0.500   P
NCHPR       7.370   0.500   P
NCHCR       7.070   1.000   P
NCJPL       7.610   1.000   P
NCJSJ       7.710   0.200   P
NCCMN       7.450   0.100   P
NCCVL       8.060   0.100   P
NCCST       8.380   0.500   P
NCHPL       7.720   0.500   P
NCHOR       8.230   0.100   P
NCJBM       8.370   0.500   P
NCHCP       8.040   0.500   P
NCHCO       8.780   0.200   P
NCJSM       8.700   0.500   P
NCJUC       9.070   0.200   P
NCHFH       9.970   1.000   P
NCCCY       8.710   0.200   P
NCJLT       8.940   0.200   P
NCJPP       9.340   1.000   P
NCHDL       9.470   1.000   P
NCHSF      10.760   0.500   P
NCHJG      10.260   1.000   P
NCJHP      10.650   0.200   P
NCJBG      11.180   0.200   P
NCHFP      11.490   0.200   P
NCJPS      11.470   0.100   P
NCCLC      11.780   0.200   P
NCBSL      12.220   1.000   P
NCBVY      12.220   1.000   P
NCHQR      11.430   0.200   P
NCBSR      12.570   1.000   P
NCJSA      13.260   0.500   P
NCBPC      14.320   0.200   P
NCBJO      14.940   0.500   P
NCJMG      14.300   0.200   P
NCBJC      15.340   1.000   P
NCBVL      16.340   0.500   P
NCCAI      16.470   0.100   P
NCBBN      18.600   0.200   P
# 1984 10 12  7 13 23.20  37.2918 -121.6680    6.85 1.21  0.19  0.58  0.02      29901
NCCCO       1.270   0.200   P
NCCSC       2.940  -1.000   P
NCCAO       2.790   1.000   P
NCCAD       3.540   1.000   P
NCJST       3.440   0.200   P
NCJCB       4.200   1.000   P
NCCAL       4.220   1.000   P
NCJAL       6.560   0.100   P
NCHSP       4.760   1.000   P
NCCMM       4.670   1.000   P
NCJHL       5.060   1.000   P
NCJRR       5.280   1.000   P
NCHGS       5.430   0.200   P
NCJEC       5.880   1.000   P
NCJLX       5.790   0.500   P
NCCDV       5.860   0.100   P
NCHGW       5.850   1.000   P
NCCMR       6.400   0.200   P
NCHCA       6.890   0.100   P
NCJSG       6.970   0.100   P
NCCVA       7.180   0.500   P
NCHCR       7.040   0.200   P
NCCST       8.150   0.500   P
NCJPP       9.140   0.200   P
NCHJG      10.300   0.100   P
# 1984 10 13 17 32 47.83  37.2907 -121.6678    5.73 1.83  0.16  0.35  0.03      30009
NCCCO       1.750  -1.000   P
NCCSC       2.840   1.000   P
NCCMH       2.730   1.000   P
NCCAO       2.750   1.000   P
NCCAD       3.480   0.100   P
NCJST       3.380   1.000   P
NCJCB       4.190   1.000   P
NCCML       4.240   1.000   P
NCCAL       4.230   1.000   P
NCJAL       4.490   0.100   P
NCHSP       4.750   1.000   P
NCCMM       4.690   1.000   P
NCJHL       5.050   1.000   P
NCJRR       5.260   1.000   P
NCJSS       5.370   1.000   P
NCHGS       5.440   0.200   P
NCJLX       5.790   1.000   P
NCHGW       5.830   1.000   P
NCCDV       5.890   1.000   P
NCCMJ       6.000   0.200   P
NCJBZ       6.750   1.000   P
NCHCA       6.980   0.200   P
NCCMR       6.420   1.000   P
NCJSG       6.960   0.500   P
NCJTG       7.080   0.200   P
NCJBC       6.890   1.000   P
NCCVA       7.200   1.000   P
NCHCR       7.260   0.100   P
NCJSJ       7.530   0.200   P
NCCVL       7.960   1.000   P
NCCST       8.170   1.000   P
NCJBM       8.080   1.000   P
NCHCP       7.970   0.100   P
NCJSM       8.580   0.100   P
NCHKR       9.210   0.200   P
NCJPP       9.190   1.000   P
NCHDL       9.960   0.200   P
NCJHP      10.530   0.100   P
NCJBG      10.920   0.200   P
NCCLC      11.280   0.200   P
NCHQR      12.670   0.500   P
NCJSA      13.830   0.100   P
NCJEG      13.460   0.100   P
NCJMG      14.590   0.200   P
NCCAI      16.080   0.200   P
# 1984 10 17 11 39  4.90  37.2900 -121.6692    3.61 0.89  0.23  1.15  0.03      30159
NCCCO       1.490   0.200   P
NCCSC       2.680   0.500   P
NCCMH       2.650  -1.000   P
NCCAO       2.730  -1.000   P
NCCAD       3.520   0.200   P
NCJST       3.340   0.500   P
NCJCB       4.210   1.000   P
NCCML       4.290   1.000   P
NCCAL       4.230   0.200   P
NCJAL       4.450   0.100   P
NCHSP       4.760   1.000   P
NCCMM       4.760   1.000   P
NCJHL       5.040   1.000   P
NCJRR       5.270   1.000   P
NCHGS       5.620   0.100   P
# 1984 10 30  2 49 48.60  37.2915 -121.6695    6.04 1.41  0.14  0.35  0.03      30929
NCCCO       1.760  -1.000   P
NCCSC       2.840   0.500   P
NCCMH       2.710   1.000   P
NCCAO       2.750   1.000   P
NCCAD       3.530   0.100   P
NCJST       3.400   1.000   P
NCJCB       4.210   1.000   P
NCCML       4.240   1.000   P
NCCAL       4.220   0.500   P
NCJAL       4.480   1.000   P
NCHSP       4.770   1.000   P
NCCMM       4.740   1.000   P
NCJHL       5.060   1.000   P
NCJRR       5.280   1.000   P
NCJSS       5.350   0.200   P
NCHGS       5.490   1.000   P
NCJEC       5.870   0.500   P
NCJLX       5.820   0.500   P
NCHGW       5.870   0.500   P
NCCDV       5.890   0.500   P
NCCMJ       6.010   1.000   P
NCJBZ       6.730   1.000   P
NCHCA       6.590   0.100   P
NCJSG       6.960   0.500   P
NCJBC       6.870   1.000   P
NCCMN       7.240   0.200   P
NCHPR       7.400   0.500   P
NCJSJ       7.530   1.000   P
NCJPL       7.590   0.200   P
NCHCR       7.080   1.000   P
NCJBM       8.040   1.000   P
NCHCP       7.970   0.500   P
NCJSM       8.590   0.100   P
NCJSF       8.650   0.100   P
NCJLT       8.750   1.000   P
NCJPP       9.140   1.000   P
NCBSC      17.680   1.000   P
# 1984 10 31  3  5 11.66  37.2858 -121.6637    6.13 2.89  0.10  0.33  0.04      31031
NCCSC       2.910   1.000   P
NCCMH       2.830   1.000   P
NCCAO       2.750   1.000   P
NCJST       3.400   1.000   P
NCJCB       4.130   1.000   P
NCCML       4.340   1.000   P
NCJAL       4.480   1.000   P
NCCAL       4.340   1.000   P
NCHSP       4.670   1.000   P
NCCMM       4.730   1.000   P
NCJHL       5.020   1.000   P
NCJRR       5.200   1.000   P
NCJSS       5.400   1.000   P
NCHGS       5.390   1.000   P
NCJEC       5.820   1.000   P
NCHGW       5.780   1.000   P
NCJLX       5.830   1.000   P
NCCDV       5.990   1.000   P
NCCMJ       6.140   1.000   P
NCJBZ       6.670   1.000   P
NCHCA       6.320   1.000   P
NCJTG       6.940   1.000   P
NCJSG       7.020   1.000   P
NCCMR       6.500   1.000   P
NCJBC       6.900   1.000   P
NCCOS       6.610   0.100   P
NCHPR       7.310   1.000   P
NCHCR       6.980   1.000   P
NCJPL       7.530   1.000   P
NCCVA       7.310   1.000   P
NCCMN       7.310   1.000   P
NCJSJ       7.630   1.000   P
NCHCB       7.630   1.000   P
NCCVL       7.960   0.500   P
NCCST       8.200   1.000   P
NCHPL       7.620   1.000   P
NCHOR       8.030   0.500   P
NCCSA       8.310   1.000   P
NCJBM       8.120   1.000   P
NCHCP       7.920   1.000   P
NCHCO       8.560   0.500   P
NCHAZ       8.650   1.000   P
NCJSM       8.640   1.000   P
NCJUC       8.680   1.000   P
NCCPL       8.660   0.200   P
NCJSF       8.680   1.000   P
NCHFH       9.070   0.200   P
NCHKR       9.370   0.200   P
NCJBL       8.820   1.000   P
NCCCY       8.460   0.100   P
NCJLT       8.830   0.500   P
NCJPP       9.220   0.500   P
NCHBT       9.540   1.000   P
NCHDL       9.360   1.000   P
NCCDO      10.240   0.500   P
NCCSH       9.510   0.100   P
NCHSF      10.690   0.200   P
NCHLT       9.730   1.000   P
NCHJG      10.130   0.500   P
NCCRA      11.790   0.100   P
NCCBS      11.380   1.000   P
NCHSL      10.780   1.000   P
NCJHP      10.520   0.500   P
NCJBG      11.020   1.000   P
NCHFP      11.220   0.200   P
NCHJS      11.230   1.000   P
NCCLC      11.340   1.000   P
NCJPS      11.230   1.000   P
NCBSL      11.790   1.000   P
NCBVY      12.040   1.000   P
NCHQR      11.360   0.500   P
NCCBR      13.050   0.100   P
NCBSR      12.390   1.000   P
NCBCG      12.960   1.000   P
NCCMC      12.950   1.000   P
NCBHR      12.980   0.500   P
NCJEG      13.480   1.000   P
NCBPC      14.050   1.000   P
NCHMO      13.790   1.000   P
NCBSC      14.540   0.500   P
NCBJO      14.380   1.000   P
NCJMG      13.980   0.500   P
NCBJC      14.760   1.000   P
NCBVL      15.850   1.000   P
NCJPR      15.770   1.000   P
NCCAI      15.960   1.000   P
NCBBG      17.060   0.500   P
NCBPI      16.800   0.500   P
NCBBN      17.790   0.200   P
NCBSG      17.350   0.100   P
NCBHS      17.880   1.000   P
NCNTA      18.350   0.500   P
NCMYL      18.560   1.000   P
NCBRV      19.520   1.000   P
NCBPF      19.160   0.200   P
NCNSP      20.880   0.100   P
NCPBW      21.220   1.000   P
NCPHR      21.900   0.100   P
NCBPP      21.110   0.500   P
NCPLO      21.270   1.000   P
NCNOL      21.270   0.100   P
NCNLN      21.790   1.000   P
NCPJL      22.860   1.000   P
NCPMP      23.720   0.200   P
NCADW      23.770   1.000   P
NCMRF      23.770   0.100   P
NCPRC      23.490   0.100   P
NCNTY      24.340   0.500   P
NCNTB      24.310   0.200   P
NCPAP      25.020   0.100   P
NCMHD      25.430   1.000   P
NCNSH      25.330   0.500   P
# 1984 10 31 15 28 48.30  37.2872 -121.6632    6.97 0.79  0.30  1.33  0.02      31037
NCCSC       3.010  -0.500   P
NCCMH       2.930   0.200   P
NCCAO       2.780  -1.000   P
NCCAO       4.920   0.100   S
NCJST       3.430   0.100   P
NCJCB       4.130  -1.000   P
NCCML       4.310   0.100   P
NCCAL       4.430   0.200   P
NCHSP       4.640  -1.000   P
NCJHL       5.040   0.200   P
NCJRR       5.200  -1.000   P
NCHGS       5.410   0.100   P
NCHCA       6.840   0.200   P
NCJSG       7.010   0.100   P
NCJPP       9.290   0.100   P
# 1984 11  1  5 22 45.95  37.2842 -121.6610    6.05 0.79  0.20  0.71  0.02      31068
NCCSC       2.950   0.500   P
NCCMH       2.900  -1.000   P
NCCAO       2.730  -1.000   P
NCJST       3.380   0.500   P
NCJCB       4.070   1.000   P
NCJAL       4.450   0.100   P
NCCAL       4.400   0.200   P
NCHSP       4.580   1.000   P
NCJHL       4.990   1.000   P
NCJRR       5.150   0.500   P
NCHGS       5.300   1.000   P
NCHGW       5.710   1.000   P
NCJLX       5.830   0.500   P
NCHCA       6.410   0.100   P
NCJSG       7.020   0.500   P
NCJPP       9.270  -1.000   P
# 1984 11 13 11 59  9.36  37.2857 -121.6657    4.42 1.31  0.19  0.42  0.03      31844
NCCCO       1.480  -1.000   P
NCCSC       2.780   1.000   P
NCCMH       2.770   1.000   P
NCCAO       2.720   1.000   P
NCJST       3.350   1.000   P
NCJCB       4.120   1.000   P
NCCML       4.370   1.000   P
NCCAL       4.360   1.000   P
NCHSP       4.650   1.000   P
NCCMM       4.770   1.000   P
NCJRR       4.910   0.500   P
NCHGS       5.390   0.200   P
NCJEC       5.810   1.000   P
NCHGW       5.770   1.000   P
NCJLX       5.840   1.000   P
NCCDV       6.040   1.000   P
NCCMJ       6.230   0.100   P
NCJBZ       6.670   1.000   P
NCHCA       6.880   1.000   P
NCJSG       7.040   1.000   P
NCCMR       6.570   0.500   P
NCHCR       6.990   0.200   P
NCCVA       7.350   1.000   P
NCJSJ       7.640   0.200   P
NCHFH      10.150   0.100   P
NCHDL       9.350   0.200   P
NCHJG      10.240   0.200   P
NCJHP      10.690   0.500   P
# 1984 11 18  0 28 55.24  37.2890 -121.6703    3.42 1.69  0.15  0.39  0.04      32049
NCCCO       1.430  -1.000   P
NCCSC       2.670   1.000   P
NCCMH       2.690   1.000   P
NCCAO       4.920   0.100   S
NCCAO       2.760   1.000   P
NCJST       3.320   1.000   P
NCJCB       4.220   1.000   P
NCCML       4.350   1.000   P
NCCAL       4.290   1.000   P
NCJAL       4.470   1.000   P
NCHSP       4.760   1.000   P
NCCMM       4.800   1.000   P
NCJHL       5.060   1.000   P
NCHGS       5.520   1.000   P
NCJEC       5.880   1.000   P
NCJLX       5.830   1.000   P
NCHGW       5.890   1.000   P
NCCDV       6.020   1.000   P
NCCMJ       6.140   0.200   P
NCJBZ       6.720   0.100   P
NCHCA       6.840   0.100   P
NCJSG       7.010   1.000   P
NCCMR       6.570   1.000   P
NCJBC       6.940   0.200   P
NCHPR       7.430   0.500   P
NCCVA       7.320   0.200   P
NCHCR       7.120   1.000   P
NCJSJ       7.660   0.200   P
NCCVL       7.990   0.200   P
NCCST       8.300   0.500   P
NCJBM       8.180   1.000   P
NCHCP       8.110   0.200   P
NCCCY       8.600   0.500   P
NCJLT       8.780   0.500   P
NCHFH      10.100   1.000   P
NCJPP       8.950   0.100   P
NCHDL       9.740   1.000   P
NCHQR      11.740   0.100   P
NCJMG      14.810   0.200   P
NCPCR      26.550   0.100   P
# 1984 11 28 11 54 37.81  37.2845 -121.6628    6.29 2.94  0.11  0.25  0.04      32676
NCCCO       1.750   1.000   P
NCCSC       2.950   1.000   P
NCCMH       2.870   1.000   P
NCCAO       2.750   1.000   P
NCCAD       3.380   1.000   P
NCJST       3.400   1.000   P
NCJCB       4.110   1.000   P
NCCML       4.350   1.000   P
NCJAL       4.470   1.000   P
NCCAL       4.370   1.000   P
NCHSP       4.630   1.000   P
NCCMM       4.740   0.500   P
NCJHL       5.020   1.000   P
NCJRR       5.190   1.000   P
NCJSS       5.410   0.200   P
NCHGS       5.330   1.000   P
NCJEC       5.810   1.000   P
NCHGW       5.740   1.000   P
NCJLX       5.840   1.000   P
NCCDV       6.010   1.000   P
NCCMP       5.860   1.000   P
NCCMJ       6.150   0.500   P
NCJBZ       6.660   1.000   P
NCHCA       6.280   1.000   P
NCJTG       6.480   0.100   P
NCJSG       7.040   1.000   P
NCCMR       6.510   1.000   P
NCJBC       6.910   1.000   P
NCCOS       6.690   1.000   P
NCHPR       7.290   1.000   P
NCHCR       6.950   1.000   P
NCCVA       7.320   1.000   P
NCCMN       7.320   1.000   P
NCJSJ       7.650   1.000   P
NCHCB       7.600   1.000   P
NCCVL       7.970   1.000   P
NCHFE       7.410   1.000   P
NCJSC       7.630   0.500   P
NCHPL       7.580   1.000   P
NCCST       8.220   1.000   P
NCHOR       8.010   1.000   P
NCCSA       8.340   1.000   P
NCJBM       8.140   1.000   P
NCHCO       8.540   1.000   P
NCHAZ       8.630   1.000   P
NCJSM       8.660   1.000   P
NCJUC       8.630   0.500   P
NCCPL       8.640   0.500   P
NCJSF       8.710   1.000   P
NCHFH       9.020   1.000   P
NCJBL       8.770   0.200   P
NCCCY       8.460   1.000   P
NCJLT       8.840   1.000   P
NCJPP       9.230   1.000   P
NCHBT       9.480   1.000   P
NCCDA       8.020   1.000   P
NCHDL       9.330   1.000   P
NCCSH       9.730   1.000   P
NCHPH      10.320   1.000   P
NCHSF      10.680   0.200   P
NCHLT       9.730   0.500   P
NCHJG      10.110   1.000   P
NCCRA      11.820   1.000   P
NCHSL      10.730   1.000   P
NCCBS      11.350   1.000   P
NCJHP      10.550   1.000   P
NCCMO      11.820   0.500   P
NCJBG      10.980   0.500   P
NCHJS      11.190   1.000   P
NCCLC      11.340   1.000   P
NCBSL      11.780   1.000   P
NCBVY      12.070   1.000   P
NCHQR      11.320   1.000   P
NCCBR      13.120   1.000   P
NCBSR      12.330   1.000   P
NCBCG      12.350   0.100   P
NCBHR      12.960   1.000   P
NCCMC      13.050   0.500   P
NCCRP      13.410   0.200   P
NCJSA      13.020   0.100   P
NCJEG      12.780   0.100   P
NCBLR      14.570   1.000   P
NCBPC      14.020   0.500   P
NCHMO      13.730   1.000   P
NCBSC      14.530   0.100   P
NCBJO      14.410   1.000   P
NCCBW      15.730   0.500   P
NCBEH      14.710   1.000   P
NCBJC      14.770   1.000   P
NCBEM      15.620   0.500   P
NCCDU      17.530   0.200   P
NCBRM      16.100   0.500   P
NCBVL      15.870   1.000   P
NCBAV      15.690   0.200   P
NCJPR      15.710   0.500   P
NCCAI      15.960   0.500   P
NCCSP      16.940   0.200   P
NCBBG      17.600   1.000   P
NCNHM      18.500   0.100   P
NCBPI      16.840   0.500   P
NCBBN      17.090   0.100   P
NCBHS      17.800   1.000   P
NCBMS      18.210   1.000   P
NCMYL      18.550   1.000   P
NCBRV      19.210   1.000   P
NCBPF      19.710   0.500   P
NCNGV      21.160   0.500   P
NCMNH      20.070   1.000   P
NCNSP      20.350   1.000   P
NCPBW      21.250   1.000   P
NCPHR      20.960   0.500   P
NCBPP      20.640   0.100   P
NCPLO      21.070   1.000   P
NCNOL      20.980   0.200   P
NCNLN      22.620   1.000   P
NCNBR      22.360   0.200   P
NCPMP      23.380   0.100   P
# 1984 12  1  8  9 13.54  37.2875 -121.6657    5.75 1.74  0.11  0.28  0.03      35929
NCCCO       1.710   1.000   P
NCCSC       2.880   1.000   P
NCCMH       2.800   1.000   P
NCCAO       2.740   1.000   P
NCCAD       3.410   1.000   P
NCJST       3.380   1.000   P
NCJCB       4.140   1.000   P
NCCML       4.320   1.000   P
NCCAL       4.320   1.000   P
NCJAL       4.470   1.000   P
NCHSP       4.680   1.000   P
NCCMM       4.730   1.000   P
NCJHL       5.020   1.000   P
NCJRR       5.220   1.000   P
NCJSS       5.400   1.000   P
NCHGS       5.390   1.000   P
NCJEC       5.820   1.000   P
NCHGW       5.780   1.000   P
NCJLX       5.820   1.000   P
NCCDV       5.970   1.000   P
NCCMJ       6.150   0.200   P
NCCMP       5.900   1.000   P
NCJBZ       6.680   1.000   P
NCHCA       6.710   0.100   P
NCJSG       7.010   1.000   P
NCCMR       6.500   1.000   P
NCJTG       6.960   0.500   P
NCJBC       6.900   0.200   P
NCHPR       7.300   0.200   P
NCHCR       7.000   1.000   P
NCCVA       7.300   1.000   P
NCCMN       7.300   0.200   P
NCJSJ       7.620   1.000   P
NCCVL       7.930   0.200   P
NCJSC       7.650   0.200   P
NCCST       8.210   1.000   P
NCHPL       7.630   1.000   P
NCHOR       8.420   0.500   P
NCJBM       8.100   1.000   P
NCHCP       7.930   0.200   P
NCHCO       8.710   1.000   P
NCJSM       8.700   0.100   P
NCJUC       8.880   0.500   P
NCHFH       9.210   0.500   P
NCCCY       8.570   0.200   P
NCJBL       8.750   0.100   P
NCJLT       8.810   0.200   P
NCJPP       9.220   1.000   P
NCHDL       9.380   0.500   P
NCHJG      10.140   0.200   P
NCJHP      10.570   1.000   P
NCCLC      11.930   0.200   P
NCHFP      11.290   0.200   P
NCBVY      12.090   0.200   P
NCHQR      11.580   0.500   P
NCBSR      12.440   0.200   P
NCJSA      12.400   0.100   P
NCBPC      14.330   0.200   P
NCBJO      14.560   0.500   P
NCJMG      14.240   0.200   P
NCCAI      16.190   0.100   P
