# 1984  4 27 19  3 15.04  37.2873 -121.6623    6.10 1.31  0.15  0.52  0.01      16802
NCCCO       1.790   0.200   P
NCCSC       2.950  -1.000   P
NCCMH       2.850   1.000   P
NCCAO       2.740  -1.000   P
NCCAD       3.400   0.500   P
NCJST       3.390   0.200   P
NCJCB       4.110   1.000   P
NCCML       4.320   0.100   P
NCCAL       4.330   0.100   P
NCJAL       7.320   0.100   P
NCHSP       4.630   1.000   P
NCCMM       4.690   0.200   P
NCJHL       4.500   0.100   P
NCHGS       5.340   0.200   P
NCHGW       5.750   0.100   P
NCJLX       5.880  -1.000   P
NCCDV       5.950   0.200   P
NCCMP       5.840   0.100   P
NCCMR       6.480   0.200   P
NCHCR       6.980   1.000   P
NCCVA       7.280   0.200   P
NCHPL       7.560   0.200   P
NCJBM       8.230   0.200   P
NCHJG      10.210   0.100   P
# 1984  4 28  0  4 31.21  37.2852 -121.6610    6.03 0.83  0.38  0.81  0.01      16821
NCCCO       1.720   0.100   P
NCCSC       2.950   0.200   P
NCCMH       2.850   0.200   P
NCCAO       2.730  -1.000   P
NCCAD       3.320   0.100   P
NCJST       3.400   0.100   P
NCJCB       4.070  -1.000   P
NCCML       4.390   0.100   P
NCCAL       4.390   0.100   P
NCHSP       4.590   0.200   P
NCCMM       4.730   0.200   P
NCJHL       4.990   0.200   P
NCJRR       5.140   0.100   P
NCHGS       5.290   0.100   P
NCHPL       7.540  -1.000   P
NCJMG      14.720   0.100   P
NCNSH      19.900   0.200   P
NCPBY      21.940   0.200   P
NCGRT      23.620   0.500   P
# 1984  4 28  1 43 47.85  37.2853 -121.6605    5.20 1.21  0.16  0.54  0.04      16827
NCCCO       1.670   0.200   P
NCCSC       2.930   0.200   P
NCCMH       2.860  -1.000   P
NCCAO       2.670   0.100   P
NCCAD       3.310   1.000   P
NCJST       3.340   0.500   P
NCJCB       4.040   1.000   P
NCCML       4.330   0.100   P
NCJAL       4.480   0.100   P
NCCAL       4.370   0.100   P
NCHSP       4.550   1.000   P
NCCMM       4.700   1.000   P
NCJHL       4.930   0.200   P
NCJRR       5.110   0.100   P
NCCMP       5.870   0.100   P
NCCMR       6.490   0.100   P
NCJSG       7.170   1.000   P
NCHCR       6.880   0.200   P
NCHPL       7.500   0.100   P
NCCST       8.230   1.000   P
NCHKR       9.620   0.500   P
NCJPP       9.260  -1.000   P
# 1984  4 28  3 54 12.20  37.2948 -121.6702    5.95 1.39  0.17  0.41  0.02      16838
NCCCO       1.820   0.500   P
NCCSC       2.830   1.000   P
NCCMH       2.650   1.000   P
NCCAO       2.770  -1.000   P
NCJST       3.410   1.000   P
NCCAD       3.570   0.200   P
NCCML       4.170   0.100   P
NCJCB       4.250   1.000   P
NCCAL       4.160   1.000   P
NCJAL       4.530   0.200   P
NCCMM       4.650   0.200   P
NCHSP       4.820   0.200   P
NCJHL       5.070   0.200   P
NCJRR       5.330   1.000   P
NCJLX       5.760   0.100   P
NCCDV       5.760   0.100   P
NCCMR       6.330   0.500   P
NCJSG       6.950   1.000   P
NCHCR       7.200   0.200   P
NCCST       8.100   1.000   P
NCHPL       7.750   0.100   P
NCJSM       8.780   0.200   P
NCNSH      25.410   0.500   P
NCPHG      49.120   0.500   P
NNWMD      33.590   1.000   P
# 1984  4 28  4 43 26.31  37.2858 -121.6652    4.25 1.47  0.18  0.34  0.03      16841
NCCCO       1.490  -1.000   P
NCCSC       2.790   1.000   P
NCCMH       2.770   1.000   P
NCCAO       2.730  -1.000   P
NCCAD       3.350   0.200   P
NCJST       3.360   0.500   P
NCJCB       4.130   1.000   P
NCJAL       4.720   0.100   P
NCCAL       4.360   0.200   P
NCHSP       4.660   0.500   P
NCCMM       4.410   0.100   P
NCJHL       5.010   1.000   P
NCJRR       5.200   1.000   P
NCHGW       5.760   0.200   P
NCJLX       5.850   0.200   P
NCCDV       6.050   0.100   P
NCJBZ       6.710   1.000   P
NCHCA       6.930   1.000   P
NCJSG       7.210   0.100   P
NCCMR       6.570   0.500   P
NCCVA       7.370   0.100   P
NCCST       8.320   1.000   P
NCHPL       7.640   0.500   P
NCJHP      10.710   0.200   P
# 1984  4 28 16 12 43.75  37.2903 -121.6662    6.01 2.09  0.11  0.36  0.04      19159
NCCCO       1.880   0.200   P
NCCSC       2.950   0.500   P
NCCMH       2.800   0.200   P
NCCAO       2.770   1.000   P
NCCAD       3.500   0.200   P
NCJST       3.410   0.200   P
NCJCB       4.180   1.000   P
NCCML       4.090   0.100   P
NCCAL       4.250   0.500   P
NCJAL       4.490   0.100   P
NCHSP       4.720   1.000   P
NCCMM       4.680   0.500   P
NCJHL       5.050   0.100   P
NCJRR       5.260   0.500   P
NCJSS       5.380   0.100   P
NCHGS       5.430   0.100   P
NCJEC       5.860   0.500   P
NCHGW       5.820   0.100   P
NCCDV       5.870   0.100   P
NCCMJ       6.010   0.100   P
NCCMP       5.870   0.500   P
NCHCA       6.400   0.100   P
NCCMR       6.380   0.100   P
NCJSG       7.000   0.100   P
NCJTG       6.970   1.000   P
NCJBC       6.910   1.000   P
NCHCR       7.060   1.000   P
NCJPL       7.650   0.100   P
NCJSJ       7.630   0.500   P
NCJRG       7.470   1.000   P
NCCVL       7.840   1.000   P
NCHFE       7.560   1.000   P
NCCST       8.130   1.000   P
NCHPL       7.640   0.200   P
NCJBM       8.090   1.000   P
NCHOR       8.400   0.100   P
NCHCP       7.940   0.100   P
NCHCO       8.740   1.000   P
NCJSM       8.700   0.500   P
NCJSF       8.610   1.000   P
NCJUC       8.750   0.200   P
NCJBL       8.830   0.200   P
NCHFH      10.250   0.100   P
NCJLT       8.840   1.000   P
NCJPP       9.200   1.000   P
NCHDL       9.430   1.000   P
NCCSH       9.750   0.100   P
NCHJG      10.310   0.500   P
NCCRA       3.840   0.200   P
NCJHP      10.630   1.000   P
NCHSL      10.860   0.100   P
NCJBG      10.650   0.100   P
NCJPS      11.150   0.500   P
NCHFP      11.520   0.500   P
NCHQR      11.520   1.000   P
NCBSR      12.500   1.000   P
NCBHR      14.080   0.100   P
NCJSA      12.720   0.200   P
NCJEG      13.040   0.200   P
NCBLR      14.840   0.100   P
NCBPC      14.340   0.500   P
NCHMO      13.900   0.500   P
NCJMG      13.990   0.200   P
NCBJO      14.740   0.500   P
NCBJC      15.270   0.500   P
NCCAI      15.950   1.000   P
NCBBG      17.710   0.500   P
NCBBN      17.110   0.200   P
NCNTA      18.570   0.100   P
NCBPF      12.520   0.100   P
NCBPP      21.590   0.500   P
# 1984  4 28 18 53 49.95  37.2888 -121.6647    6.27 2.18  0.12  0.27  0.05      16885
NCCCO       1.870   1.000   P
NCCSC       2.950   1.000   P
NCCMH       2.830   1.000   P
NCCAO       2.770   1.000   P
NCCAD       3.460   1.000   P
NCJST       3.380   0.500   P
NCJCB       4.140   1.000   P
NCCML       4.270   0.200   P
NCCAL       4.280   1.000   P
NCJAL       4.470   0.200   P
NCHSP       4.680   1.000   P
NCCMM       4.660   1.000   P
NCJHL       5.030   1.000   P
NCJRR       5.230   1.000   P
NCJSS       5.390   0.500   P
NCHGS       5.370   1.000   P
NCJEC       5.860   1.000   P
NCHGW       5.780   0.500   P
NCCDV       5.890   1.000   P
NCCMP       5.870   1.000   P
NCCMJ       6.070   1.000   P
NCJBZ       6.710   1.000   P
NCHCA       6.070   0.100   P
NCJSG       6.990   1.000   P
NCJTG       6.950   1.000   P
NCJBC       6.900   1.000   P
NCCVA       7.230   1.000   P
NCHCR       7.000   1.000   P
NCJPL       7.610   0.100   P
NCJSJ       7.570   0.200   P
NCJRG       7.520   1.000   P
NCHCB       7.680   1.000   P
NCCVL       7.890   1.000   P
NCHFE       7.480   1.000   P
NCCST       8.130   0.500   P
NCHPL       7.600   1.000   P
NCHOR       8.140   0.200   P
NCJBM       8.110   0.500   P
NCHCP       4.960   0.100   P
NCJSM       8.640   1.000   P
NCCPL       8.630   0.200   P
NCJUC       8.700   0.500   P
NCJSF       5.630   0.100   P
NCHFH       9.390   0.200   P
NCJBL       8.890   0.200   P
NCJLT       8.800   1.000   P
NCJPP       9.200   0.500   P
NCHBT       9.680   0.500   P
NCHDL       9.390   1.000   P
NCCSH       9.750   1.000   P
NCHSF      10.900   0.500   P
NCHJG      10.160   0.100   P
NCJHP      10.550   0.100   P
NCHSL      10.820   0.200   P
NCJBG       9.700   0.100   P
NCHFP      11.470   0.500   P
NCJPS      11.160   1.000   P
NCHJS      11.520   0.100   P
NCBVY      12.150   0.100   P
NCHQR      11.520   1.000   P
NCCBR      13.710   0.100   P
NCBSR      12.550   1.000   P
NCCMC      13.320   0.500   P
NCJSA      13.020   0.200   P
NCJEG      13.030   0.100   P
NCBLR      14.870   1.000   P
NCBPC      14.100   1.000   P
NCHMO      13.880   0.500   P
NCBJO      14.530   1.000   P
NCJMG      14.140   0.200   P
NCBJC      14.990   1.000   P
NCBAV      16.640   0.500   P
NCCAI      16.080   1.000   P
NCBBG      17.660   0.500   P
NCBBN      18.730   0.500   P
NCNTA      18.320   0.200   P
NCMYL      18.530   1.000   P
NCBPF      20.120   0.500   P
NCNSP      21.560   0.200   P
NCBPP      21.140   0.200   P
NCNOL      21.370   0.100   P
NCNLN      22.510   1.000   P
NCMHD      25.440   0.500   P
NCPAN      26.590   0.500   P
# 1984  4 29  2 29 16.34  37.2940 -121.6673    7.97 1.27  0.23  1.06  0.05      16911
NCCCO       1.790   0.200   P
NCCSC       2.950   0.500   P
NCCMH       2.850  -1.000   P
NCCAO       2.810  -1.000   P
NCCAD       3.680  -1.000   P
NCJST       3.480   0.200   P
NCJCB       4.220   1.000   P
NCCML       4.370   0.100   P
NCCAL       4.390   0.200   P
NCJAL       7.680   0.200   P
NCHSP       4.760   1.000   P
NCJHL       5.100  -1.000   P
NCJRR       5.290   0.200   P
NCHGS       5.490   0.500   P
NCCMJ       6.190   0.100   P
NCCMR       6.530   0.200   P
NCHCR       7.070   0.100   P
NCHPL       7.700   0.200   P
# 1984  4 30 14 46  1.74  37.2898 -121.6645    6.45 1.59  0.16  0.33  0.03      17074
NCCCO       1.870  -1.000   P
NCCSC       2.970   1.000   P
NCCMH       2.810   1.000   P
NCCAO       2.770   1.000   P
NCCAD       3.470   0.200   P
NCJST       3.410   0.200   P
NCJCB       4.160   1.000   P
NCCAL       4.260   1.000   P
NCJAL       4.460   0.100   P
NCHSP       4.700   1.000   P
NCCMM       4.680   1.000   P
NCJHL       5.050   1.000   P
NCJRR       5.230   1.000   P
NCJSS       5.390   0.200   P
NCHGS       5.380   0.500   P
NCJEC       5.870   1.000   P
NCHGW       5.790   0.500   P
NCCDV       5.860   1.000   P
NCCMJ       6.200   0.500   P
NCJBZ       6.690   0.500   P
NCHCA       6.900   0.100   P
NCCMR       6.400   1.000   P
NCJBC       6.940   1.000   P
NCCVA       7.200   1.000   P
NCHCR       7.610   0.100   P
NCCVL       7.890   1.000   P
NCCST       8.220   0.500   P
NCHPL       7.620   1.000   P
NCJBM       8.070   0.500   P
NCJSM       8.700   1.000   P
NCHFH      10.010   0.100   P
NCJLT       8.820   1.000   P
NCJPP       9.200   0.200   P
NCHDL       9.490   0.100   P
NCJSA      13.010   0.200   P
NCBPC      14.270   1.000   P
NCJMG      14.360   0.100   P
# 1984  5  2  7 34 17.77  37.2900 -121.6662    5.72 1.65  0.12  0.39  0.03      17272
NCCCO       1.740   0.200   P
NCCSC       2.860   0.500   P
NCCMH       2.740   0.500   P
NCCAO       2.740   1.000   P
NCCAD       3.460   1.000   P
NCJST       3.380   0.200   P
NCJCB       4.160   1.000   P
NCCML       4.270   0.100   P
NCCAL       4.250   1.000   P
NCJAL       4.490   0.500   P
NCHSP       4.720   1.000   P
NCCMM       4.690   0.200   P
NCJHL       5.030   1.000   P
NCJSS       5.370   0.200   P
NCHGS       5.420   0.500   P
NCJEC       5.830   0.500   P
NCJLX       5.840   1.000   P
NCHGW       5.620   0.200   P
NCCDV       5.900   0.100   P
NCCMJ       6.040   0.200   P
NCCMP       5.900   0.100   P
NCJBZ       6.740   1.000   P
NCHCA       6.950   0.500   P
NCJSG       6.500   0.100   P
NCJTG      11.430   0.200   P
NCJBC       6.900   1.000   P
NCCVA       7.220   0.200   P
NCHPR       7.350   0.100   P
NCHCR       7.020   0.500   P
NCJSJ       7.660   1.000   P
NCJRG       7.500   0.100   P
NCCVL       7.870   1.000   P
NCCST       8.160   1.000   P
NCHPL       7.650   0.200   P
NCHOR       8.420   0.200   P
NCJBM       8.200   0.500   P
NCHCP       7.950   0.100   P
NCHCO       8.110   0.200   P
NCJSM       8.600   0.200   P
NCJUC       8.850   0.500   P
NCHKR       9.500   0.100   P
NCJPP       9.240   1.000   P
NCHDL       9.430   1.000   P
NCJHP      10.530   0.500   P
NCBVY      12.200   1.000   P
NCHQR      11.710   0.200   P
NCJSA      13.020   0.200   P
NCBPC      14.190   0.100   P
NCJMG      13.240   0.100   P
NCGRT      24.790   0.100   P
# 1984  5  2 14 32 55.73  37.2942 -121.6737    3.45 1.70  0.13  0.48  0.05      17294
NCCCO       1.510  -0.500   P
NCCSC       2.580   0.100   P
NCCMH       2.550   0.200   P
NCCAO       2.770   1.000   P
NCJST       3.340   0.500   P
NCCAD       3.580   1.000   P
NCJCB       4.300   0.500   P
NCCML       4.220   0.100   P
NCCAL       4.170   0.200   P
NCJAL       4.490   0.100   P
NCCMM       4.740   0.200   P
NCHSP       4.870   0.500   P
NCJHL       5.080   1.000   P
NCJSS       5.390   0.100   P
NCJEC       5.960   0.500   P
NCJLX       5.870   1.000   P
NCHGS       5.630   0.200   P
NCCDV       5.900   0.500   P
NCCMJ       6.040   1.000   P
NCHGW       5.970   0.100   P
NCCMP       6.040   0.100   P
NCJBZ       6.800   1.000   P
NCCMR       6.440   0.100   P
NCHCA       6.790   0.100   P
NCJBC       6.940   1.000   P
NCJSJ       7.660   1.000   P
NCJPL       7.740   0.100   P
NCHCR       7.210   0.100   P
NCJRG       8.010   0.200   P
NCCVL       7.870   1.000   P
NCCST       8.250   1.000   P
NCHFE       7.920   0.500   P
NCJBM       8.070   0.500   P
NCHPL       7.870   0.100   P
NCHCP       8.160   0.200   P
NCHCO       8.860   0.500   P
NCJUC       8.960   0.200   P
NCJPP       9.210   1.000   P
NCHDL       9.650   1.000   P
NCHFP      11.710   1.000   P
NCBVY      12.660   0.500   P
NCHQR      11.820   0.200   P
NCBSR      12.900   1.000   P
NCJMG      14.380   0.100   P
# 1984  5  2 22 58 42.36  37.2850 -121.6655    3.04 1.77  0.14  0.25  0.03      17356
NCCCO       1.330  -1.000   P
NCCSC       2.720   0.500   P
NCCMH       2.770   0.100   P
NCCAO       2.750   1.000   P
NCCAD       3.350   0.500   P
NCJST       3.290   0.200   P
NCJCB       4.140   1.000   P
NCCML       4.430   0.200   P
NCJAL       4.550   0.100   P
NCCAL       4.390   0.200   P
NCHSP       4.680   1.000   P
NCCMM       4.840   1.000   P
NCJHL       5.040   1.000   P
NCJSS       5.430   1.000   P
NCHGS       5.450   0.500   P
NCJEC       5.830   0.100   P
NCHGW       5.830   1.000   P
NCJLX       5.870   0.200   P
NCCDV       6.130   0.200   P
NCCMP       6.140   0.100   P
NCCMJ       6.320   0.100   P
NCJBZ       2.290   0.200   P
NCHCA       6.630   0.100   P
NCCMR       6.620   0.200   P
NCJSJ       8.020   0.200   P
NCJRG       8.090   0.100   P
NCCST       8.370   0.200   P
NCHPL       7.750   1.000   P
NCJSM       8.670   0.100   P
NCHFH      10.360   0.500   P
NCJPP       9.430   0.500   P
NCHDL       9.540   0.500   P
NCHJG      10.360   0.200   P
NCJHP      10.590   0.100   P
NCHFP      11.590   0.500   P
NCBSL      13.140   0.500   P
NCBVY      12.480   0.200   P
NCHQR      12.070   0.500   P
NCBSR      12.640   0.500   P
NCBPC      14.300   0.500   P
NCJMG      14.500   0.200   P
# 1984  5  3 23 10 52.91  37.2882 -121.6625    6.22 1.04  0.21  0.81  0.02      17669
NCCCO       1.780   0.200   P
NCCSC       2.960   0.200   P
NCCMH       2.850  -0.500   P
NCCAO       2.740  -1.000   P
NCCAD       3.430  -0.500   P
NCJST       3.390   0.100   P
NCJCB       4.110   0.200   P
NCCAL       4.320   0.100   P
NCHSP       4.640   0.200   P
NCCMM       4.700   0.200   P
NCHGW       5.750   0.200   P
NCJLX       5.840   0.100   P
NCCDV       5.970   0.200   P
NCHPL       7.570   0.100   P
# 1984  5  4 18 42 58.07  37.2853 -121.6632    5.84 3.05  0.10  0.23  0.05      17723
NCCCO       1.730   1.000   P
NCCSC       2.940   1.000   P
NCCAO       2.730   1.000   P
NCCAO       5.150   0.100   S
NCCAD       3.350   1.000   P
NCJST       3.390   1.000   P
NCJCB       4.080   1.000   P
NCCML       4.350   1.000   P
NCJAL       4.450   0.200   P
NCCAL       4.350   1.000   P
NCHSP       4.620   1.000   P
NCCMM       4.720   1.000   P
NCJHL       5.000   1.000   P
NCJSS       5.390   1.000   P
NCHGS       5.330   1.000   P
NCJEC       5.790   1.000   P
NCHGW       5.730   1.000   P
NCJLX       5.820   1.000   P
NCCDV       5.980   1.000   P
NCCMP       5.850   1.000   P
NCCMJ       6.140   1.000   P
NCJBZ       6.640   0.500   P
NCHCA       6.300   0.100   P
NCJTG       6.880   0.200   P
NCJSG       7.020   0.500   P
NCCMR       6.500   1.000   P
NCJBC       6.900   0.500   P
NCCOS       6.690   1.000   P
NCHPR       7.270   0.500   P
NCHCR       6.930   1.000   P
NCJPL       7.500   0.100   P
NCCVA       7.320   1.000   P
NCCMN       7.320   0.500   P
NCJRG       7.750   0.500   P
NCJSJ       7.660   0.500   P
NCHCB       7.580   0.200   P
NCCVL       7.960   0.500   P
NCHFE       7.410   0.100   P
NCJSC       7.680   0.100   P
NCCST       8.220   0.500   P
NCHPL       7.550   1.000   P
NCHOR       8.140   0.500   P
NCCSA       8.350   1.000   P
NCJBM       8.150   0.500   P
NCHCP       7.850   0.200   P
NCHCO       8.540   0.100   P
NCHAZ       8.690   0.500   P
NCJSM       8.640   0.500   P
NCJUC       8.660   0.100   P
NCCPL       8.690   1.000   P
NCJSF       8.700   0.500   P
NCHFH       9.080   1.000   P
NCHKR       9.390   1.000   P
NCJBL       8.750   0.200   P
NCCCY       8.600   1.000   P
NCJLT       8.860   0.500   P
NCJPP       9.240   1.000   P
NCHBT       9.680   1.000   P
NCCDA       8.020   1.000   P
NCHDL       9.320   0.200   P
NCCDO      10.360   1.000   P
NCCSH       9.750   1.000   P
NCHPH       8.890   0.100   P
NCHSF      10.740   1.000   P
NCHLT       9.910   1.000   P
NCHJG      10.110   1.000   P
NCCRA      11.680   1.000   P
NCCBS      11.390   1.000   P
NCHSL      10.740   1.000   P
NCJHP      10.570   1.000   P
NCCMO      11.940   1.000   P
NCJBG      11.000   1.000   P
NCHFP      11.240   1.000   P
NCHJS      11.160   1.000   P
NCJPS      11.110   1.000   P
NCBSL      12.060   1.000   P
NCBVY      12.070   1.000   P
NCHQR      11.320   1.000   P
NCBSR      12.570   0.500   P
NCBCG      13.270   1.000   P
NCBHR      13.190   0.100   P
NCCMC      12.680   0.100   P
NCCRP      13.320   1.000   P
NCJSA      12.780   1.000   P
NCJEG      12.690   1.000   P
NCBPC      14.030   1.000   P
NCHMO      13.770   1.000   P
NCBSC      14.540   1.000   P
NCBJO      14.360   1.000   P
NCBEH      13.320   0.100   P
NCJMG      14.110   0.500   P
NCBJC      14.780   1.000   P
NCBEM      15.160   0.100   P
NCCDU      15.750   0.500   P
NCBRM      16.430   0.100   P
NCBVL      16.150   0.200   P
NCBAV      15.950   1.000   P
NCCAI      16.000   1.000   P
NCCSP      16.940   0.200   P
NCBBG      17.650   1.000   P
NCBPI      16.950   0.200   P
NCBBN      17.700   0.100   P
NCNLH      18.550   1.000   P
NCBSG      17.750   0.200   P
NCBHS      17.750   1.000   P
NCBMS      16.020   0.100   P
NCNTA      18.290   1.000   P
NCMYL      18.530   1.000   P
NCBPF      19.730   0.500   P
NCNGV      21.130   1.000   P
NCMNH      20.040   1.000   P
NCNSP      20.390   1.000   P
NCPBW      19.550   0.200   P
NCPHR      20.890   0.200   P
NCPLO      21.270   0.100   P
NCNLN      22.520   1.000   P
NCNBR      22.880   1.000   P
NCPJL      22.870   0.100   P
