# 1984  5  5  3 31 54.93  37.2872 -121.6658    5.65 2.45  0.11  0.26  0.04      17526
NCCCO       1.710   1.000   P
NCCSC       2.870   1.000   P
NCCMH       2.770   1.000   P
NCCAO       2.730   1.000   P
NCCAD       3.420   1.000   P
NCJST       3.390   1.000   P
NCJCB       4.130   1.000   P
NCCML       4.300   1.000   P
NCJAL       4.470   1.000   P
NCCAL       4.290   1.000   P
NCHSP       4.700   1.000   P
NCCMM       4.710   1.000   P
NCJHL       5.020   1.000   P
NCJRR       5.220   1.000   P
NCJSS       5.390   0.500   P
NCHGS       5.410   1.000   P
NCJEC       5.830   0.500   P
NCHGW       5.790   1.000   P
NCJLX       5.810   1.000   P
NCCDV       5.980   0.500   P
NCCMJ       6.110   1.000   P
NCCMP       5.890   1.000   P
NCJBZ       6.680   0.500   P
NCHCA       6.400   0.100   P
NCJSG       7.000   1.000   P
NCCMR       6.480   0.500   P
NCJTG       6.950   1.000   P
NCJBC       6.910   1.000   P
NCHCR       7.000   1.000   P
NCJPL       7.530   0.500   P
NCCVA       7.250   0.500   P
NCJSJ       7.630   1.000   P
NCJRG       7.450   1.000   P
NCCVL       7.980   1.000   P
NCHFE       7.560   0.200   P
NCCST       8.190   0.500   P
NCHPL       7.620   1.000   P
NCHOR       8.100   0.500   P
NCJBM       8.100   1.000   P
NCHCP       7.950   1.000   P
NCHCO       8.590   1.000   P
NCHAZ       8.720   0.200   P
NCJSM       8.640   1.000   P
NCJUC       7.390   0.100   P
NCCPL       8.740   1.000   P
NCJSF       8.660   1.000   P
NCHFH       9.200   1.000   P
NCHKR       9.470   0.100   P
NCJBL       9.160   0.100   P
NCJLT       8.850   1.000   P
NCJPP       9.220   0.500   P
NCHBT       9.640   0.500   P
NCHDL       9.380   0.500   P
NCCSH       9.870   0.200   P
NCHPH      10.410   1.000   P
NCHSF      10.760   1.000   P
NCHJG      10.180   1.000   P
NCJHP      10.720   1.000   P
NCCMO      11.950   0.100   P
NCHSL      10.870   0.500   P
NCJBG      10.990   0.500   P
NCHFP      11.390   0.100   P
NCJPS      11.100   1.000   P
NCHJS      11.240   1.000   P
NCBSL      12.300   1.000   P
NCBVY      12.140   1.000   P
NCHQR      11.410   0.500   P
NCBSR      12.470   1.000   P
NCBCG      13.290   1.000   P
NCCMC      14.040   1.000   P
NCBHR      12.990   0.200   P
NCCRP      13.420   0.100   P
NCJSA      13.080   0.200   P
NCJEG      13.500   0.100   P
NCBLR      14.920   1.000   P
NCBPC      14.080   1.000   P
NCHMO      13.880   1.000   P
NCCBW      15.880   0.200   P
NCBJO      14.460   1.000   P
NCJMG      14.420   0.100   P
NCBEH      13.750   0.100   P
NCBJC      14.840   1.000   P
NCBEM      15.640   1.000   P
NCBAV      15.960   1.000   P
NCJPR      15.620   1.000   P
NCCAI      15.950   1.000   P
NCBBG      17.720   1.000   P
NCBPI      16.880   1.000   P
NCBBN      18.340   1.000   P
NCNLH      18.700   0.200   P
NCBSG      17.600   0.500   P
NCBHS      18.090   0.200   P
NCMYL      18.590   0.500   P
NCBPF      19.990   0.500   P
NCNSP      21.280   0.500   P
NCPHR      21.790   0.500   P
NCNLN      22.130   0.100   P
NCPJL      23.040   0.200   P
NCPAP      25.070   0.100   P
NCMHD      25.420   0.100   P
NCPBY      27.180   0.200   P
NCMNP      28.110   0.500   P
NCGPM      34.220   0.200   P
NCPSE      26.940   0.100   P
# 1984  5  7 14 27 20.42  37.2847 -121.6630    6.06 2.85  0.10  0.21  0.05      17779
NCCCO       1.700  -1.000   P
NCCSC       2.930   0.500   P
NCCAO       2.760   1.000   P
NCCAD       3.360   1.000   P
NCJST       3.400   1.000   P
NCJCB       4.100   0.200   P
NCCML       4.370   0.200   P
NCJAL       4.470   0.200   P
NCCAL       4.380   0.500   P
NCHSP       4.630   1.000   P
NCCMM       4.740   0.500   P
NCJHL       5.020   0.500   P
NCJRR       5.190   0.500   P
NCJSS       5.400   0.200   P
NCHGS       5.340   0.100   P
NCJEC       5.810   0.200   P
NCHGW       5.760   0.100   P
NCCDV       6.020   0.200   P
NCCMP       5.870   1.000   P
NCCMJ       6.170   0.100   P
NCJBZ       6.670   0.200   P
NCHCA       6.530   0.200   P
NCJTG       6.920   0.200   P
NCJSG       7.080   1.000   P
NCCMR       6.530   0.100   P
NCJBC       6.930   0.100   P
NCCOS       6.720   1.000   P
NCHCR       6.960   0.500   P
NCJPL       7.530   0.100   P
NCCVA       7.350   0.100   P
NCCMN       7.340   0.100   P
NCJRG       7.430   0.100   P
NCJSJ       7.650   0.200   P
NCHCB       7.630   0.100   P
NCCVL       8.010   1.000   P
NCHFE       7.450   1.000   P
NCHPL       7.580   0.500   P
NCCST       8.230   1.000   P
NCHOR       8.040   1.000   P
NCCSA       8.380   1.000   P
NCHCP       7.900   0.200   P
NCJBM       8.140   0.200   P
NCHCO       8.560   1.000   P
NCHAZ       8.700   1.000   P
NCJSM       8.650   0.200   P
NCJUC       8.730   0.500   P
NCCPL       8.780   1.000   P
NCJSF       8.710   0.200   P
NCHFH       9.120   1.000   P
NCHKR       9.610   0.200   P
NCJBL       8.710   0.500   P
NCJLT       8.850   1.000   P
NCJPP       9.250   1.000   P
NCHBT       9.530   1.000   P
NCCDA       8.030   1.000   P
NCHDL       9.340   0.100   P
NCCSH       9.710   1.000   P
NCHPH      10.710   0.500   P
NCHSF      10.720   1.000   P
NCHLT       9.770   0.200   P
NCHJG      10.140   1.000   P
NCCRA      11.830   0.200   P
NCHSL      10.720   1.000   P
NCCBS      11.400   1.000   P
NCJHP      10.560   1.000   P
NCCMO      11.710   1.000   P
NCJBG      11.010   1.000   P
NCHFP      11.300   1.000   P
NCBSL      11.940   1.000   P
NCBVY      12.030   1.000   P
NCHQR      10.500   0.200   P
NCCBR      14.030   0.200   P
NCBSR      12.370   1.000   P
NCBCG      13.260   1.000   P
NCBHR      10.420   0.500   P
NCCMC      13.170   0.100   P
NCCRP      13.300   0.500   P
NCJSA      12.800   1.000   P
NCJEG      12.780   0.200   P
NCBLR      14.890   1.000   P
NCBPC      14.050   1.000   P
NCHMO      13.800   1.000   P
NCBJO      14.390   1.000   P
NCCBW      15.670   1.000   P
NCBEH      13.300   0.100   P
NCJMG      14.100   0.500   P
NCBJC      14.730   1.000   P
NCBEM      15.640   1.000   P
NCBRM      16.370   0.200   P
NCBAV      15.920   1.000   P
NCJPR      15.710   0.200   P
NCCAI      15.990   1.000   P
NCCSP      16.870   0.500   P
NCNHM      18.550   0.100   P
NCBPI      16.960   0.500   P
NCBBN      17.760   0.100   P
NCNLH      18.640   0.100   P
NCBSG      17.350   0.500   P
NCBHS      17.890   1.000   P
NCBMS      18.530   0.100   P
NCNTA      18.390   1.000   P
NCMYL      18.550   1.000   P
NCBPF      20.030   1.000   P
NCMNH      20.120   1.000   P
NCNSP      20.640   0.200   P
NCPHR      22.300   0.100   P
NCNOL      21.510   0.500   P
NCNLN      21.730   0.200   P
NCNBR      22.890   0.500   P
NCPJL      20.580   0.100   P
NCADW      23.960   1.000   P
NCMRF      24.530   1.000   P
NCNTB      26.600   1.000   P
NCPAP      25.850   0.500   P
NCNBP      27.480   0.200   P
# 1984  5  7 16 34 13.86  37.2855 -121.6607    6.02 1.30  0.19  0.40  0.03      17794
NCCCO       1.650   0.200   P
NCCSC       2.920   0.500   P
NCCMH       2.860   0.500   P
NCCAO       2.720  -1.000   P
NCCAD       3.310   0.200   P
NCJST       3.410  -1.000   P
NCJCB       4.070   0.200   P
NCCML       4.370   0.200   P
NCJAL       4.500   0.200   P
NCCAL       4.370   0.200   P
NCHSP       4.580   0.500   P
NCCMM       4.730   0.500   P
NCJHL       4.980   0.500   P
NCJRR       5.150   0.200   P
NCJSS       5.350   0.100   P
NCHGS       5.310   0.500   P
NCHGW       5.710   0.200   P
NCCDV       6.030   0.100   P
NCCMP       5.800   0.100   P
NCHCR       6.910   0.200   P
NCHPL       7.540   0.100   P
NCHCP       7.830   0.100   P
NCJPP       9.240  -1.000   P
# 1984  5  8  6 55  3.84  37.2953 -121.6707    6.16 1.17  0.14  0.53  0.02      17834
NCCCO       1.840   0.200   P
NCCSC       2.840   1.000   P
NCCMH       2.640   1.000   P
NCCAO       2.760  -1.000   P
NCJST       3.420   1.000   P
NCCAD       3.580   0.200   P
NCCML       4.200   0.100   P
NCJCB       4.250   1.000   P
NCCAL       4.140   0.500   P
NCJAL       4.540   0.200   P
NCCMM       4.660   1.000   P
NCHSP       4.830   1.000   P
NCJHL       5.080   0.500   P
NCJSS       5.360   0.100   P
NCJRR       5.330   1.000   P
NCHGS       5.510   0.100   P
NCJLX       5.770   0.100   P
NCCDV       5.810   0.500   P
NCCMJ       5.920   0.100   P
NCHGW       5.910   0.500   P
NCCMP       5.940   0.100   P
NCCMR       6.320   0.500   P
NCJBZ       6.760   0.100   P
NCJSG       6.920   0.100   P
NCCVA       7.110   0.500   P
NCHPL       7.760   1.000   P
# 1984  5 15  1 42 21.35  37.2855 -121.6617    5.84 1.18  0.17  0.61  0.01      18466
NCCCO       1.700   0.200   P
NCCSC       2.950   0.500   P
NCCMH       2.880   0.500   P
NCCAO       2.730  -1.000   P
NCCAD       3.340   0.100   P
NCJST       3.400   0.100   P
NCJCB       4.080  -1.000   P
NCCML       4.350   0.100   P
NCJAL       4.610   0.100   P
NCCAL       4.380   0.100   P
NCHSP       4.590   0.200   P
NCCMM       4.720   0.100   P
NCJHL       4.990   0.100   P
NCJRR       5.160   0.100   P
NCJLX       5.850   0.500   P
NCCDV       6.000   0.200   P
NCHCR       6.940   0.200   P
NCHPL       7.570   0.500   P
NCJSA      13.850   0.200   P
# 1984  5 16 17  9 28.70  37.2915 -121.6677    6.24 2.32  0.12  0.25  0.06      18608
NCCCO       1.870  -1.000   P
NCCSC       2.920   0.200   P
NCCMH       2.740   1.000   P
NCCAO       2.750   1.000   P
NCCAD       3.510   0.200   P
NCJST       3.400   0.200   P
NCJCB       4.180   1.000   P
NCCML       4.200   0.200   P
NCCAL       4.200   0.200   P
NCJAL       4.480   0.100   P
NCHSP       4.730   0.500   P
NCCMM       4.650   0.100   P
NCJHL       5.040   1.000   P
NCJRR       5.260   1.000   P
NCJSS       5.360   0.500   P
NCHGS       5.440   0.200   P
NCJLX       5.780   0.100   P
NCHGW       5.840   0.200   P
NCCDV       5.830   0.200   P
NCCMJ       5.960   0.100   P
NCCMP       5.880   0.200   P
NCJBZ       6.430   0.500   P
NCHCA       6.520   0.200   P
NCJSG       6.950   0.200   P
NCJBC       6.890   1.000   P
NCCOS      11.660   1.000   P
NCCVA       7.150   0.200   P
NCJPL       7.630   1.000   P
NCHCR       7.050   1.000   P
NCJSJ       7.570   1.000   P
NCJRG       7.500   0.500   P
NCCVL       7.800   1.000   P
NCHCB       7.700   1.000   P
NCCST       8.070   1.000   P
NCHFE       7.570   0.500   P
NCHPL       7.640   0.100   P
NCJBM       8.050   1.000   P
NCHOR       8.270   0.500   P
NCHCP       7.940   0.100   P
NCHCO       8.730   1.000   P
NCJSM       8.590   1.000   P
NCHAZ       8.750   0.200   P
NCCPL       8.610   1.000   P
NCJSF       8.590   1.000   P
NCJUC       8.730   1.000   P
NCCCY       8.320   0.500   P
NCJBL       8.770   0.200   P
NCJLT       8.770   1.000   P
NCHFH       9.050   1.000   P
NCHKR       8.700   0.100   P
NCJPP       9.180   1.000   P
NCHBT       9.930   0.200   P
NCHDL       9.430   1.000   P
NCCSH       9.570   0.200   P
NCHSF      11.050   1.000   P
NCHLT      10.130   0.500   P
NCHJG      10.320   0.500   P
NCCBS      11.230   1.000   P
NCJHP      10.500   1.000   P
NCCMO      11.750   1.000   P
NCHSL      10.800   0.500   P
NCJPS      11.050   1.000   P
NCHFP      11.380   1.000   P
NCHJS      11.250   1.000   P
NCBSL      11.590   0.200   P
NCBVY      12.180   1.000   P
NCHQR      11.460   1.000   P
NCBSR      12.520   1.000   P
NCBHR      13.910   0.500   P
NCJSA      12.660   0.200   P
NCJEG      12.960   0.200   P
NCBLR      14.610   1.000   P
NCBPC      14.130   1.000   P
NCHMO      13.910   1.000   P
NCJMG      13.750   0.500   P
NCBJO      14.570   1.000   P
NCBEH      14.840   0.500   P
NCBJC      14.800   0.100   P
NCBEM      15.320   1.000   P
NCBVL      15.960   0.200   P
NCBAV      15.960   1.000   P
NCCAI      15.890   0.100   P
NCCSP      17.020   1.000   P
NCBBG      17.710   0.200   P
NCBPI      16.840   0.500   P
NCBSG      17.730   0.200   P
NCBHS      18.270   0.500   P
NCNTA      18.250   0.100   P
NCMYL      18.610   0.100   P
NCBPF      20.090   1.000   P
NCNSP      21.140   0.500   P
NCBPP      22.020   0.200   P
NCNLN      22.430   1.000   P
NCADW       1.170   0.100   P
NCNWR       9.390   0.200   P
NCMCR      16.110   1.000   P
# 1984  5 17  8 43  3.37  37.2898 -121.6667    6.01 3.32  0.09  0.17  0.05      18708
NCCCO       1.730   1.000   P
NCCSC       2.870   1.000   P
NCCMH       2.770   1.000   P
NCCAO       2.750   1.000   P
NCCAD       3.460   1.000   P
NCJST       3.400   1.000   P
NCJCB       4.170   1.000   P
NCCML       4.290   1.000   P
NCCAL       4.270   1.000   P
NCJAL       4.490   0.500   P
NCHSP       4.720   1.000   P
NCCMM       4.720   0.500   P
NCJHL       5.050   1.000   P
NCJRR       5.240   1.000   P
NCJSS       5.390   1.000   P
NCHGS       5.430   0.200   P
NCJEC       5.840   0.200   P
NCJLX       5.800   0.200   P
NCHGW       5.820   0.500   P
NCCDV       5.930   0.500   P
NCCMJ       6.070   0.100   P
NCCMP       5.910   1.000   P
NCJBZ       6.710   0.500   P
NCHCA       6.370   0.100   P
NCCMR       6.440   0.100   P
NCJSG       6.980   0.100   P
NCJTG       6.950   0.500   P
NCJBC       6.890   0.200   P
NCCOS       6.700   0.100   P
NCCVA       7.250   0.200   P
NCHPR       7.360   0.200   P
NCCMN       7.260   0.200   P
NCHCR       7.030   0.500   P
NCJPL       7.560   0.100   P
NCJSJ       7.590   0.200   P
NCJRG       7.430   0.100   P
NCHCB       7.670   0.200   P
NCCVL       7.870   0.100   P
NCJSC       7.650   0.100   P
NCHFE       7.480   0.100   P
NCCST       8.190   1.000   P
NCHPL       7.660   0.200   P
NCCSA       8.240   0.100   P
NCJBM       8.070   0.100   P
NCHOR       8.100   0.100   P
NCHCP       7.960   0.200   P
NCHCO       8.600   0.100   P
NCJSM       8.600   0.100   P
NCHAZ       8.710   0.100   P
NCCPL       8.560   0.100   P
NCJUC       8.640   0.100   P
NCJSF       8.630   0.200   P
NCCCY       8.400   1.000   P
NCJBL       8.800   0.100   P
NCHFH       9.110   0.100   P
NCJLT       8.780   0.100   P
NCJPP       9.160   0.100   P
NCCDA       7.900   1.000   P
NCHBT       9.550   0.100   P
NCHDL       9.400   0.100   P
NCCDO      10.200   1.000   P
NCCSH       9.600   1.000   P
NCHLT       9.750   0.100   P
NCHJG      10.190   0.100   P
NCCRA      11.560   1.000   P
NCCBS      11.310   1.000   P
NCJHP      10.470   0.100   P
NCCMO      11.560   1.000   P
NCHSL      10.770   0.100   P
NCJBG      10.900   0.100   P
NCJPS      11.070   1.000   P
NCBSL      11.840   0.100   P
NCCBR      12.930   1.000   P
NCBSR      12.400   0.100   P
NCCMC      12.700   0.100   P
NCCRP      13.090   0.100   P
NCJSA      12.690   1.000   P
NCJEG      12.640   1.000   P
NCCAC      14.820   1.000   P
NCBPC      14.100   0.100   P
NCCBW      14.700   0.200   P
NCJMG      13.740   1.000   P
NCBJO      14.360   0.100   P
NCBEH      14.430   0.100   P
NCBJC      14.830   0.100   P
NCCDU      15.670   1.000   P
NCJPR      15.490   1.000   P
NCBAV      15.630   0.100   P
NCCAI      15.830   1.000   P
NCCSP      16.750   1.000   P
NCNHM      18.200   0.500   P
NCNLH      18.180   1.000   P
NCNTA      17.720   0.200   P
NCMYL      18.580   1.000   P
NCNGV      20.560   1.000   P
NCMNH      19.990   1.000   P
NCNSP      20.270   1.000   P
NCNOL      20.930   0.500   P
NCMST      21.500   1.000   P
NCNVA      22.340   0.200   P
NCNLN      20.920   1.000   P
NCNBR      22.010   0.500   P
NCNVE      23.080   1.000   P
NCNPR      22.670   0.200   P
NCADW      23.690   1.000   P
NCMRF      24.300   1.000   P
NCNTM      24.240   1.000   P
NCNCF      23.700   0.500   P
NCNTB      23.250   0.500   P
NCPDR       8.160   0.500   P
NCMHD      25.450   0.200   P
NCNSH      24.830   1.000   P
NCNBP      25.500   0.200   P
NCNDH      27.610   0.500   P
NCNMW      26.610   1.000   P
NCNWR      25.770   1.000   P
NCMAT      27.690   1.000   P
NCMNP      27.560   1.000   P
NCNMH      27.750   0.500   P
NCNHB      27.470   1.000   P
NCNMT      28.380   0.100   P
NCNFR      28.630   1.000   P
NCGSM      28.830   0.500   P
NCGSS      29.370   0.200   P
NCGSG      30.920   0.500   P
NCGMO      30.150   1.000   P
NCPMC      13.020   1.000   P
NCMDC      37.350   1.000   P
NCMSK      37.560   0.100   P
NCMYM      38.880   0.500   P
NCMEM      38.830   0.500   P
NCMLM      39.290   1.000   P
NCMLC      38.880   1.000   P
NCMDW      39.080   1.000   P
NCMGP      39.080   0.100   P
NCMCS      39.280   1.000   P
NCMCM      39.380   1.000   P
NNMMC      40.170   1.000   P
NNSCH      41.310   0.200   P
NCGNA      38.710   1.000   P
NNCAS      43.120   0.200   P
# 1984  5 19  4 20 31.71  37.2835 -121.6638    5.92 0.74  0.30  0.63  0.01      18857
NCCCO       1.660   0.200   P
NCCSC       2.930  -0.500   P
NCCMH       2.850   0.200   P
NCCAO       2.690   0.100   P
NCCAD       3.300   0.200   P
NCJST       3.330   0.100   P
NCJCB       4.040  -1.000   P
NCCAL       4.380   0.200   P
NCHSP       4.570  -0.500   P
NCJHL       4.970   0.500   P
NCJRR       5.120   0.200   P
NCHGW       5.680   0.100   P
NCJLX       5.820  -0.500   P
NCHCR       6.890   0.100   P
NCHPL       7.510   0.100   P
NCJPP       9.250   0.100   P
# 1984  5 29 23 53  6.84  37.2908 -121.6687    3.93 0.99  0.26  0.51  0.03      19686
NCCCO       1.500  -1.000   P
NCCSC       2.710   0.100   P
NCCMH       2.650   0.500   P
NCCAO       2.730  -1.000   P
NCJST       3.340   1.000   P
NCJCB       4.220   1.000   P
NCCAL       4.240  -1.000   P
NCHSP       4.770   1.000   P
NCCMM       4.730   0.200   P
NCJHL       5.040   1.000   P
NCJRR       5.280   1.000   P
NCJLX       5.870   0.100   P
NCCMR       6.510   0.200   P
# 1984  5 30 12 38 10.84  37.2900 -121.6662    6.73 3.00  0.10  0.18  0.02      19720
NCCCO       1.870  -1.000   P
NCCSC       2.970   1.000   P
NCCMH       2.810   1.000   P
NCCAO       2.780   1.000   P
NCCAD       3.490   0.500   P
NCJST       3.430   0.500   P
NCJCB       4.180   1.000   P
NCCML       4.270   0.200   P
NCCAL       4.270   0.200   P
NCJAL       4.510   0.500   P
NCHSP       4.720   1.000   P
NCCMM       4.700   0.200   P
NCJHL       5.060   0.500   P
NCJRR       5.260   0.200   P
NCJSS       5.400   0.100   P
NCHGS       5.420   0.100   P
NCJEC       5.870   0.200   P
NCJLX       5.840   0.100   P
NCHGW       5.830   0.200   P
NCCDV       5.900   0.200   P
NCCMJ       6.040   0.100   P
NCCMP       5.890   1.000   P
NCJBZ       6.720   0.200   P
NCHCA       6.350   0.100   P
NCCMR       6.420   0.100   P
NCJSG       7.000   0.100   P
NCJTG       6.970   0.200   P
NCJBC       6.900   0.100   P
NCCOS       6.670   0.200   P
NCCVA       7.220   0.200   P
NCHPR       7.360   0.100   P
NCCMN       7.230   0.200   P
NCHCR       7.040   0.500   P
NCJSJ       7.590   0.200   P
NCJRG       7.470   0.100   P
NCHCB       7.700   0.200   P
NCCVL       7.840   0.100   P
NCJSC       7.660   0.100   P
NCHFE       7.490   0.500   P
NCHPL       7.640   1.000   P
NCCSA       8.210   0.500   P
NCHOR       8.090   0.100   P
NCJBM       8.090   0.500   P
NCHCP       7.940   0.500   P
NCHCO       8.620   0.500   P
NCJSM       8.620   0.100   P
NCHAZ       8.720   0.500   P
NCCPL       8.510   0.100   P
NCHFH       9.000   0.200   P
NCJLT       8.780   0.500   P
NCJPP       9.190   0.100   P
NCHDL       9.410   0.100   P
NCCSH       9.560   0.100   P
NCHJG      10.200   0.100   P
NCJHP      10.460   0.500   P
NCJBG      10.930   0.100   P
NCJPS      11.060   0.500   P
NCHQR      11.380   0.200   P
# 1984  5 30 17  5  4.17  37.2927 -121.6662    7.44 0.80  0.28  1.16  0.02      19745
NCCCO       1.960   0.200   P
NCCSC       2.980   0.200   P
NCCMH       2.820  -0.500   P
NCCAO       2.800  -1.000   P
NCCAD       3.700   0.200   P
NCJST       3.500   0.500   P
NCJCB       4.230   1.000   P
NCCML       4.350   0.100   P
NCCAL       4.280   0.100   P
NCCMM       4.720   0.100   P
NCHSP       4.770   0.500   P
NCJHL       5.090   0.500   P
NCJRR       5.300  -1.000   P
NCHGS       5.470   0.100   P
NCCMP       5.920   0.100   P
