# 1984 12 10  7 45 41.77  37.2865 -121.6652    4.31 1.43  0.16  0.40  0.03      33786
NCCCO       1.490  -1.000   P
NCCSC       2.620   0.100   P
NCCMH       2.750   1.000   P
NCCAO       2.720   1.000   P
NCCAD       3.370   1.000   P
NCJST       3.360   1.000   P
NCCML       4.380   0.500   P
NCJAL       4.460   1.000   P
NCCAL       4.330   1.000   P
NCHSP       4.660   1.000   P
NCCMM       4.770   1.000   P
NCJHL       5.030   1.000   P
NCJRR       5.220   1.000   P
NCJSS       5.360   0.100   P
NCHGS       5.400   0.200   P
NCJEC       5.820   0.500   P
NCHGW       5.800   1.000   P
NCJLX       5.860   1.000   P
NCCDV       6.060   0.500   P
NCCMP       5.930   1.000   P
NCJBZ       6.700   0.200   P
NCJSG       7.030   0.200   P
NCCMR       6.560   1.000   P
NCJBC       6.980   0.200   P
NCHCR       7.040   0.500   P
NCCST       8.260   0.200   P
NCHCP       8.030   0.100   P
NCJPP       9.290   1.000   P
# 1984 12 15 10 28 17.68  37.2898 -121.6673    6.07 1.61  0.15  0.36  0.02      34527
NCCCO       1.760   1.000   P
NCCSC       2.880   1.000   P
NCCMH       2.740   1.000   P
NCCAO       2.760   1.000   P
NCCAD       3.470   1.000   P
NCJST       3.400   1.000   P
NCJCB       4.170   1.000   P
NCCML       4.270   0.500   P
NCCAL       4.260   1.000   P
NCJAL       4.480   1.000   P
NCHSP       4.740   1.000   P
NCCMM       4.710   1.000   P
NCJHL       5.040   1.000   P
NCJRR       5.260   1.000   P
NCJSS       5.380   0.500   P
NCHGS       5.440   1.000   P
NCJEC       5.850   1.000   P
NCJLX       5.800   1.000   P
NCHGW       5.820   1.000   P
NCCDV       5.910   1.000   P
NCCMJ       6.050   0.200   P
NCCMP       5.910   1.000   P
NCJBZ       6.710   1.000   P
NCCMR       6.420   1.000   P
NCJSG       6.980   1.000   P
NCJBC       6.880   0.200   P
NCCVA       7.230   1.000   P
NCHPR       7.350   0.200   P
NCHCR       7.040   1.000   P
NCHCB       7.680   0.200   P
NCCVL       7.890   1.000   P
NCCST       8.160   1.000   P
NCHPL       7.670   1.000   P
NCJBM       8.070   0.200   P
NCHCP       7.960   0.200   P
NCJSM       8.590   0.100   P
NCJSF       8.610   1.000   P
NCJPP       9.170   0.500   P
# 1984 12 19  8 29 34.63  37.2842 -121.6613    5.54 1.35  0.18  0.40  0.04      34841
NCCCO       1.650  -1.000   P
NCCSC       2.930   1.000   P
NCCMH       2.860   1.000   P
NCCAO       2.720   1.000   P
NCCAD       3.330   1.000   P
NCJST       3.400   1.000   P
NCJCB       4.070   1.000   P
NCCML       4.380   0.500   P
NCJAL       4.450   1.000   P
NCCAL       4.380   1.000   P
NCHSP       4.560   1.000   P
NCCMM       4.720   0.500   P
NCJHL       4.990   1.000   P
NCJRR       5.160   1.000   P
NCJSS       5.650   1.000   P
NCHGS       5.300   1.000   P
NCJEC       5.780   0.100   P
NCHGW       5.720   1.000   P
NCJLX       5.830   1.000   P
NCCDV       6.010   1.000   P
NCCMP       5.850   0.500   P
NCCMJ       6.220   1.000   P
NCHCA       9.280   0.200   P
NCJSG       7.040   0.500   P
NCCMR       6.530   1.000   P
NCJBC       6.900   0.500   P
NCCOS       6.710   0.100   P
NCHCR       6.920   1.000   P
NCCVA       7.350   1.000   P
NCCVL       8.110   1.000   P
NCHPL       7.660   0.500   P
NCJBM       8.180   0.500   P
NCJSF       8.820   0.200   P
NCJPP       9.210   0.500   P
NCJBG      11.280   0.200   P
# 1984 12 22  4 43 44.71  37.2908 -121.6708    3.71 1.60  0.16  0.47  0.03      35109
NCCCO       1.460  -1.000   P
NCCSC       2.620   0.500   P
NCCMH       2.620   1.000   P
NCCAO       2.770   1.000   P
NCJST       3.360   1.000   P
NCCAD       3.480   0.500   P
NCJCB       4.260   1.000   P
NCCML       4.310   0.500   P
NCCAL       4.250   1.000   P
NCJAL       4.480   1.000   P
NCHSP       4.810   1.000   P
NCCMM       4.780   1.000   P
NCJHL       5.080   1.000   P
NCJRR       5.320   1.000   P
NCJSS       5.410   1.000   P
NCHGS       5.560   1.000   P
NCJEC       5.900   0.500   P
NCJLX       5.810   1.000   P
NCHGW       5.830   0.100   P
NCCDV       5.980   1.000   P
NCCMJ       6.100   0.500   P
NCCMP       6.010   1.000   P
NCJBZ       6.770   0.500   P
NCJSG       7.010   1.000   P
NCCMR       6.520   1.000   P
NCJBC       6.920   1.000   P
NCCVA       7.270   0.200   P
NCHCR       7.160   1.000   P
NCJPP       9.240   1.000   P
NCHDL       9.540   0.500   P
NCHJG      10.410   0.500   P
NCJHP      10.530   0.200   P
NCJBG      14.040   0.100   P
NCHQR      12.010   0.500   P
NCJMG      14.530   0.200   P
NCNHM      10.030   0.200   P
# 1985  1 19 11 56 37.34  37.2860 -121.6685    4.07 2.49  0.10  0.24  0.04      38148
NCCCO       1.410  -1.000   P
NCCSC       2.670   1.000   P
NCCMH       2.720   1.000   P
NCCAO       2.760   1.000   P
NCCAD       3.390   1.000   P
NCJCB       4.190   0.500   P
NCJAL       4.480   1.000   P
NCCAL       4.340   0.500   P
NCHSP       4.720   1.000   P
NCCMM       4.810   1.000   P
NCJHL       5.050   0.500   P
NCJRR       5.270   1.000   P
NCJSS       5.410   1.000   P
NCHGS       5.480   1.000   P
NCJEC       5.880   0.500   P
NCJLX       5.840   1.000   P
NCHGW       5.880   0.500   P
NCCDV       6.050   0.500   P
NCCMJ       6.170   1.000   P
NCCMP       5.980   0.500   P
NCJBZ       6.710   0.500   P
NCHCA       6.430   0.200   P
NCJSG       7.040   1.000   P
NCJTG       6.960   1.000   P
NCCMR       6.580   0.500   P
NCJBC       6.920   1.000   P
NCCOS       6.720   0.200   P
NCHPR       7.400   1.000   P
NCJPL       7.610   0.500   P
NCCVA       7.380   0.500   P
NCJSJ       7.690   1.000   P
NCCMN       7.410   0.500   P
NCJRG       7.480   0.100   P
NCHCB       7.720   1.000   P
NCCVL       8.000   1.000   P
NCJSC       7.700   0.500   P
NCHFE       7.590   0.200   P
NCHPL       7.750   1.000   P
NCHOR       8.170   0.500   P
NCCSA       8.390   0.500   P
NCJBM       8.150   0.500   P
NCHCP       8.070   0.500   P
NCHCO       8.530   0.200   P
NCHAZ       8.780   0.500   P
NCJSM       8.640   0.500   P
NCJUC       9.060   0.100   P
NCJSF       8.740   1.000   P
NCCPL       8.700   0.200   P
NCHFH       9.200   0.500   P
NCCCY       8.560   1.000   P
NCHKR       9.460   0.100   P
NCJPP       9.250   0.500   P
NCHBT       9.650   0.200   P
NCHDL       9.460   1.000   P
NCCDO      10.560   0.500   P
NCCSH       9.720   0.200   P
NCHPH      10.590   0.100   P
NCHSF      10.860   1.000   P
NCHJG      10.240   1.000   P
NCHLT       9.450   0.500   P
NCJHP      10.570   0.500   P
NCHSL      10.860   0.200   P
NCJBG      10.940   0.100   P
NCJPS      11.100   0.500   P
NCHFP      11.200   0.100   P
NCCLC      11.370   0.100   P
NCHJS      11.340   0.500   P
NCBSL      11.790   0.100   P
NCBVY      12.190   0.500   P
NCHQR      11.500   0.500   P
NCCBR      13.290   0.500   P
NCBSR      12.530   0.500   P
NCBCG      13.150   1.000   P
NCCMC      13.320   0.200   P
NCBHR      13.790   0.500   P
NCJSA      12.860   1.000   P
NCJEG      13.000   0.100   P
NCBLR      14.560   0.500   P
NCBPC      14.120   0.200   P
NCHMO      13.830   0.500   P
NCBSC      14.590   0.100   P
NCBJO      14.460   0.100   P
NCJMG      14.570   0.100   P
NCBEH      14.630   0.100   P
NCBJC      14.940   0.500   P
NCBEM      15.140   0.100   P
NCBVL      16.340   1.000   P
NCJPR      15.850   0.100   P
NCBAV      15.680   0.100   P
NCCAI      16.070   0.100   P
NCCSP      16.970   0.200   P
NCBBG      17.570   1.000   P
NCBPR      16.920   0.500   P
NCBPI      17.130   0.500   P
NCBBN      18.880   0.100   P
NCBSG      17.900   0.500   P
NCMYL      18.680   0.200   P
NCBPF      19.950   0.500   P
NCPBW      22.000   0.500   P
NCBPP      21.590   1.000   P
NCNOL      22.220   0.100   P
NCNLN      22.780   1.000   P
NCAAS      22.000   0.200   P
NCPAP      25.290   1.000   P
NCNMW      19.020   0.200   P
# 1985  2  5 11 42 49.82  37.2915 -121.6698    5.59 2.05  0.11  0.25  0.04      39944
NCCCO       1.730  -1.000   P
NCCSC       2.840   0.500   P
NCCMH       2.720   1.000   P
NCCAO       2.740   1.000   P
NCCAD       3.480   0.500   P
NCJST       3.380   1.000   P
NCJCB       4.180   1.000   P
NCCAL       4.230   1.000   P
NCJAL       4.460   0.200   P
NCHSP       4.730   1.000   P
NCCMM       4.680   1.000   P
NCJHL       5.030   1.000   P
NCJRR       5.250   1.000   P
NCJSS       5.350   1.000   P
NCHGS       5.410   0.500   P
NCJEC       5.850   0.500   P
NCJLX       5.760   1.000   P
NCHGW       5.830   0.500   P
NCCDV       5.880   0.500   P
NCCMJ       5.990   0.200   P
NCCMP       5.880   0.500   P
NCJBZ       6.690   0.500   P
NCCMR       6.410   0.200   P
NCJSG       6.950   0.500   P
NCHCA       6.850   0.200   P
NCJBC       6.840   0.200   P
NCCVA       7.200   1.000   P
NCCMN       7.220   0.500   P
NCJSJ       7.550   0.500   P
NCJPL       7.700   0.100   P
NCHCR       7.040   0.500   P
NCHCB       7.770   1.000   P
NCJSC       7.530   0.200   P
NCCST       8.170   1.000   P
NCCSA       8.210   0.500   P
NCHPL       7.740   1.000   P
NCHOR       8.330   0.200   P
NCHCP       8.020   1.000   P
NCHCO       8.700   1.000   P
NCJSM       8.580   1.000   P
NCCPL       8.580   1.000   P
NCJSF       8.590   1.000   P
NCJBL       8.830   0.200   P
NCJLT       8.700   0.500   P
NCHFH       9.310   0.500   P
NCJPP       9.160   0.500   P
NCHKR       9.990   0.100   P
NCHDL       9.510   1.000   P
NCHSF      11.180   1.000   P
NCHJG      10.250   0.200   P
NCJHP      10.440   0.500   P
NCCLC      11.320   0.100   P
NCHFP      11.550   1.000   P
NCBVY      12.330   0.500   P
NCHQR      11.620   1.000   P
NCBSR      12.590   1.000   P
NCJSA      12.730   0.500   P
NCJEG      13.400   1.000   P
NCBLR      14.750   0.500   P
NCBPC      14.270   0.100   P
NCHMO      13.960   0.500   P
NCJMG      14.000   0.100   P
NCBJO      14.660   1.000   P
NCBJC      14.940   0.100   P
NCBVL      16.600   0.500   P
NCJPR      15.580   1.000   P
NCCAI      16.120   0.200   P
NCBHS      17.980   1.000   P
# 1985  2 13 23 52 25.07  37.2887 -121.6650    6.49 1.70  0.13  0.30  0.03      40913
NCCCO       1.860   1.000   P
NCCSC       2.960   1.000   P
NCCMH       2.830   1.000   P
NCCAO       2.770   1.000   P
NCCAD       3.450   1.000   P
NCJST       3.400   1.000   P
NCJCB       4.150   1.000   P
NCCML       4.350   1.000   P
NCCAL       4.280   1.000   P
NCJAL       4.480   0.200   P
NCHSP       4.680   1.000   P
NCCMM       4.690   1.000   P
NCJHL       5.030   1.000   P
NCJRR       5.230   1.000   P
NCJSS       5.390   0.200   P
NCHGS       5.380   1.000   P
NCJEC       5.830   1.000   P
NCHGW       5.780   1.000   P
NCCDV       5.900   1.000   P
NCCMJ       5.990   0.200   P
NCCMP       5.860   1.000   P
NCJBZ       6.690   1.000   P
NCHCA       6.670   0.200   P
NCCMR       6.430   1.000   P
NCJSG       7.010   1.000   P
NCJTG       7.860   0.500   P
NCJBC       6.890   0.200   P
NCCVA       7.230   1.000   P
NCHCR       6.990   1.000   P
NCJPL       7.610   0.100   P
NCJSJ       7.020   1.000   P
NCJSC       7.630   0.200   P
NCCST       8.140   1.000   P
NCHPL       7.620   1.000   P
NCJBM       8.090   1.000   P
NCHCP       7.910   1.000   P
NCJSM       8.620   1.000   P
NCCPL       8.650   1.000   P
NCHFH       9.490   0.200   P
NCJBL       8.970   0.200   P
NCJLT       8.770   0.100   P
NCJPP       9.210   1.000   P
NCHDL       9.740   0.100   P
NCHJG      10.120   0.200   P
NCJHP      10.470   0.200   P
NCBVY      12.240   0.500   P
NCHQR      11.430   0.100   P
NCBSR      12.560   1.000   P
NCJSA      13.020   0.200   P
NCBPC      14.180   1.000   P
NCBJO      14.580   0.500   P
NCJMG      14.650   0.100   P
NCCAI      16.130   0.200   P
# 1985  2 16 20 53  7.16  37.2907 -121.6692    3.62 1.20  0.17  0.93  0.04      41574
NCCCO       1.500   0.200   P
NCCSC       2.680  -1.000   P
NCCMH       2.660   1.000   P
NCCAO       2.740  -1.000   P
NCCAD       3.470   0.500   P
NCJST       3.360   1.000   P
NCJCB       4.210   1.000   P
NCCAL       4.250   0.500   P
NCJAL       4.460   0.200   P
NCHSP       4.770   1.000   P
NCCMM       4.730   0.200   P
NCJHL       5.050   0.500   P
NCJRR       5.280   1.000   P
NCHGS       5.510   0.200   P
NCJEC       5.850   0.200   P
NCHGW       5.880   0.500   P
NCCDV       5.970   0.500   P
NCCMJ       6.110   0.100   P
NCCMP       6.040   0.500   P
NCHCA       7.000   0.500   P
NCCMR       6.480   0.200   P
NCJPP       9.200   0.100   P
# 1985  2 28  1  9 58.30  37.2885 -121.6705    3.49 0.84  0.23  0.33  0.03      42349
NCCCO       1.420  -1.000   P
NCCSC       2.660  -1.000   P
NCCMH       2.680  -1.000   P
NCCAO       2.700   0.200   P
NCCAD       3.400   0.100   P
NCJST       3.350   0.200   P
NCJCB       4.160  -1.000   P
NCJAL       4.500   0.100   P
NCHSP       4.760   0.200   P
NCCMM       4.740  -0.500   P
NCJHL       5.010   0.200   P
NCJRR       5.280   0.200   P
NCHGS       5.550   0.200   P
NCJEC       5.820   0.100   P
# 1985  3  2  6 53 56.01  37.2887 -121.6688    3.67 1.74  0.15  0.40  0.04      42555
NCCCO       1.440  -1.000   P
NCCSC       2.660   1.000   P
NCCMH       2.670   1.000   P
NCCAO       2.750   1.000   P
NCCAD       3.430   1.000   P
NCJST       3.330   1.000   P
NCJCB       4.220   1.000   P
NCCML       4.360   1.000   P
NCCAL       4.300   1.000   P
NCJAL       4.480   1.000   P
NCHSP       4.760   1.000   P
NCCMM       4.800   1.000   P
NCJHL       5.060   1.000   P
NCJRR       5.290   1.000   P
NCJSS       5.330   0.100   P
NCHGS       5.500   1.000   P
NCJEC       5.870   1.000   P
NCHGW       5.880   1.000   P
NCCDV       6.020   1.000   P
NCCMJ       6.140   1.000   P
NCCMP       6.010   1.000   P
NCJBZ       6.730   0.500   P
NCHCA       6.620   0.100   P
NCJSG       7.040   0.200   P
NCCMR       6.540   1.000   P
NCJBC       6.970   0.500   P
NCCVA       7.250   0.200   P
NCHCR       7.150   0.500   P
NCCVL       8.020   1.000   P
NCCST       8.290   1.000   P
NCHPL       7.780   1.000   P
NCHOR       8.470   0.200   P
NCJSM       8.830   0.100   P
NCJUC       8.850   0.100   P
NCHFH       9.790   0.200   P
NCHKR       9.680   0.500   P
NCHDL       9.500   1.000   P
NCHFP      11.640   0.200   P
NCHQR      11.950   0.200   P
NCJMG      14.840   0.200   P
NCJPR      15.950   0.200   P
# 1985  3  2  8 55  3.47  37.2898 -121.6702    3.58 1.91  0.11  0.35  0.04      42559
NCCCO       1.440  -1.000   P
NCCSC       2.650   1.000   P
NCCMH       2.650   1.000   P
NCCAO       2.760   1.000   P
NCCAD       3.450   1.000   P
NCJST       3.340   1.000   P
NCJCB       4.230   1.000   P
NCCML       4.320   1.000   P
NCCAL       4.280   1.000   P
NCJAL       4.480   1.000   P
NCHSP       4.780   1.000   P
NCCMM       4.790   1.000   P
NCJHL       5.060   1.000   P
NCJRR       5.310   1.000   P
NCJSS       5.400   0.200   P
NCHGS       5.530   1.000   P
NCJEC       5.890   1.000   P
NCHGW       5.900   1.000   P
NCCDV       6.010   1.000   P
NCCMJ       6.120   0.200   P
NCCMP       6.010   1.000   P
NCJBZ       6.760   0.500   P
NCHCA       7.060   1.000   P
NCJSG       7.030   1.000   P
NCCMR       6.530   1.000   P
NCJBC       6.920   1.000   P
NCCVA       7.290   1.000   P
NCJPL       7.890   0.500   P
NCCMN       7.330   0.200   P
NCHCR       7.750   0.200   P
NCHCB       7.730   0.100   P
NCCVL       7.960   1.000   P
NCJSC       7.690   0.500   P
NCHFE       8.130   1.000   P
NCCST       8.280   1.000   P
NCHPL       7.810   1.000   P
NCJBM       8.130   1.000   P
NCHOR       8.670   0.100   P
NCHCP       8.110   1.000   P
NCJSM       8.680   1.000   P
NCHAZ       8.920   0.100   P
NCCCY       8.590   0.200   P
NCJBL       9.210   0.100   P
NCJLT       8.920   0.500   P
NCHKR       9.920   0.200   P
NCHDL       9.490   0.500   P
NCHSF      11.000   0.100   P
NCHJG      10.290   0.200   P
NCJHP      10.630   0.100   P
NCJBG      11.130   0.500   P
NCCLC      11.380   1.000   P
NCHFP      11.550   0.100   P
NCBSL      12.010   0.100   P
NCBVY      12.380   0.500   P
NCHQR      11.750   0.200   P
NCBPC      14.370   1.000   P
NCJMG      14.400   0.500   P
NCJPR      16.320   0.200   P
NCCAI      16.370   0.200   P
NCMHD      25.790   0.500   P
# 1985  3  2  8 55 29.59  37.2892 -121.6690    3.51 2.08  0.14  0.41  0.03      42643
NCCCO       1.430  -1.000   P
NCCSC       2.650   1.000   P
NCCMH       2.670   1.000   P
NCCAO       2.760   1.000   P
NCCAD       3.440   1.000   P
NCJST       3.350   1.000   P
NCJCB       4.220   1.000   P
NCCML       4.370   1.000   P
NCCAL       4.290   1.000   P
NCJAL       4.480   1.000   P
NCHSP       4.770   1.000   P
NCCMM       4.780   1.000   P
NCJHL       5.060   1.000   P
NCJRR       5.300   1.000   P
NCJSS       5.390   1.000   P
NCHGS       5.540   1.000   P
NCJEC       5.880   1.000   P
NCHGW       5.890   1.000   P
NCCDV       6.030   0.200   P
NCCMJ       6.140   0.200   P
NCCMP       6.000   1.000   P
NCJBZ       6.740   0.100   P
NCHCA       7.030   0.200   P
NCJSG       7.040   0.200   P
NCCMR       6.550   1.000   P
NCHPR       7.420   0.200   P
NCCVA       7.320   1.000   P
NCCVL       7.970   0.200   P
NCJSC       7.690   0.100   P
NCCST       8.300   1.000   P
NCHPL       7.790   1.000   P
NCHCP       8.080   1.000   P
NCCCY       8.650   0.200   P
NCHDL       9.500   0.200   P
NCHJG      10.380   0.200   P
NCJHP      10.560   0.100   P
NCHFP      11.530   0.200   P
# 1985  3  2  8 58  0.48  37.2903 -121.6703    3.43 1.22  0.21  0.43  0.03      42560
NCCCO       1.440  -1.000   P
NCCSC       2.610   0.500   P
NCCMH       2.620   1.000   P
NCCAO       2.740   1.000   P
NCCAD       3.360   0.200   P
NCJST       3.350   1.000   P
NCJCB       4.210   1.000   P
NCCML       4.340   0.500   P
NCCAL       4.230   1.000   P
NCJAL       4.430   0.500   P
NCHSP       4.780   1.000   P
NCCMM       4.780   0.500   P
NCJHL       5.050   1.000   P
NCJRR       5.290   1.000   P
NCHGS       5.540   0.200   P
NCHGW       5.890   0.500   P
NCCDV       5.970   0.200   P
NCCMP       6.010   0.200   P
NCJSG       6.990   0.200   P
NCCMR       6.520   1.000   P
NCCST       8.330   1.000   P
NCHCP       8.140   0.100   P
