# 1984  5 31  1 43 34.41  37.2882 -121.6665    4.10 1.22  0.21  0.67  0.03      19776
NCCCO       1.490   0.200   P
NCCSC       2.770   0.100   P
NCCMH       2.750  -0.500   P
NCCAO       2.720   0.500   P
NCCAD       3.430   0.100   P
NCJST       3.360   0.200   P
NCJCB       4.140  -1.000   P
NCCML       4.380   0.100   P
NCCAL       4.330   0.100   P
NCJAL       4.470   0.100   P
NCHSP       4.670   0.500   P
NCCMM       4.770   0.500   P
NCJHL       5.020   0.500   P
NCJRR       5.210   0.200   P
NCJSS       5.500   0.100   P
NCHGS       5.400   0.100   P
NCJLX       5.860   0.100   P
NCHGW       5.790   0.100   P
NCCDV       5.980   1.000   P
NCCMJ       6.140   0.100   P
NCHCA       6.920   0.100   P
NCJSG       7.060   0.200   P
NCCMR       6.540   0.200   P
NCHCR       7.040   0.200   P
NCCST       8.310  -1.000   P
NCHPL       7.660   0.100   P
NCJMG      14.770   0.200   P
# 1984  6  1  3 27 26.88  37.2903 -121.6667    5.74 1.58  0.13  0.40  0.02      19860
NCCCO       1.870   0.100   P
NCCSC       2.860   1.000   P
NCCMH       2.740   1.000   P
NCCAO       5.050   0.100   S
NCCAO       2.750  -1.000   P
NCCAD       3.450   0.100   P
NCJST       3.380   1.000   P
NCJCB       4.170   1.000   P
NCCML       4.240   0.200   P
NCCAL       4.250   0.500   P
NCJAL       4.480   0.100   P
NCHSP       4.720   1.000   P
NCCMM       4.690   0.500   P
NCJHL       5.030   0.500   P
NCJRR       5.240   1.000   P
NCJSS       5.370   0.500   P
NCHGS       5.440   0.500   P
NCJEC       5.830   0.100   P
NCJLX       5.780   0.100   P
NCHGW       5.820   0.200   P
NCCDV       5.920   0.500   P
NCHCA       6.590   0.100   P
NCCMR       6.430   0.200   P
NCJSG       7.000   1.000   P
NCJBC       6.950   0.100   P
NCCVA       7.220   0.200   P
NCHCR       7.020   0.100   P
NCJRG       7.520   0.100   P
NCHPL       7.660   0.500   P
NCHFH      10.320   0.500   P
NCJPP       9.210   1.000   P
NCJBG      11.020   0.200   P
# 1984  6  1  9  7  7.31  37.2955 -121.6712    6.23 1.08  0.23  0.96  0.02      19888
NCCCO       1.850   0.100   P
NCCSC       2.850   0.200   P
NCCMH       2.660  -1.000   P
NCCAO       2.780  -1.000   P
NCJST       3.420   0.200   P
NCCAD       3.600   0.100   P
NCCML       4.530   0.100   P
NCJCB       4.270  -1.000   P
NCCAL       4.150   0.200   P
NCJAL       4.510   0.100   P
NCCMM       4.670   0.200   P
NCHSP       4.840   0.500   P
NCJHL       5.100   0.200   P
NCJRR       5.340   1.000   P
NCHGS       5.550   0.100   P
NCJLX       5.820   0.100   P
NCCMJ       5.900   0.100   P
NCJSG       6.510   0.100   P
NCHPL       7.790   0.500   P
# 1984  6  2 17 32  6.49  37.2848 -121.6635    5.90 2.92  0.10  0.22  0.06      19992
NCCCO       1.700   1.000   P
NCCSC       2.890   1.000   P
NCCMH       2.810   1.000   P
NCCAO       2.730   1.000   P
NCCAD       3.400   0.500   P
NCJST       3.390   1.000   P
NCJCB       4.120   1.000   P
NCCML       4.330   0.500   P
NCJAL       4.460   1.000   P
NCCAL       4.320   1.000   P
NCHSP       4.660   1.000   P
NCCMM       4.720   0.500   P
NCJHL       5.020   1.000   P
NCJRR       5.200   1.000   P
NCJSS       5.390   1.000   P
NCHGS       5.370   0.500   P
NCJEC       5.810   1.000   P
NCHGW       5.760   1.000   P
NCJLX       5.810   0.500   P
NCCDV       5.980   1.000   P
NCCMP       5.880   1.000   P
NCCMJ       6.120   0.100   P
NCJBZ       6.660   1.000   P
NCHCA       6.310   0.200   P
NCJTG       6.930   0.200   P
NCJSG       7.000   1.000   P
NCCMR       6.490   0.200   P
NCJBC       6.880   0.200   P
NCCOS       6.690   0.200   P
NCHPR       7.300   0.500   P
NCHCR       6.970   1.000   P
NCJPL       7.520   0.200   P
NCCVA       7.290   0.500   P
NCCMN       7.300   1.000   P
NCJRG       7.410   0.200   P
NCJSJ       7.630   0.100   P
NCHCB       7.610   0.500   P
NCCVL       7.950   0.100   P
NCHFE       7.450   0.100   P
NCCST       8.180   0.100   P
NCHPL       7.610   1.000   P
NCCSA       8.300   0.100   P
NCJBM       8.100   0.200   P
NCHCP       7.900   1.000   P
NCHCO       8.550   0.200   P
NCHAZ       8.680   1.000   P
NCJUC       8.610   0.100   P
NCJSF       8.640   0.100   P
NCCPL       8.630   0.100   P
NCHFH       9.050   0.100   P
NCHKR       9.400   0.200   P
NCJBL       8.810   0.500   P
NCCCY       8.440   1.000   P
NCJLT       8.810   0.100   P
NCJPP       9.180   0.100   P
NCHBT       9.530   1.000   P
NCCDA       7.980   1.000   P
NCHDL       9.340   0.500   P
NCCDO      10.460   0.500   P
NCCSH       9.760   1.000   P
NCHPH      10.380   1.000   P
NCHSF       8.070   0.200   P
NCHLT       9.710   0.500   P
NCHJG      10.130   0.100   P
NCCRA      11.820   1.000   P
NCHSL      10.730   1.000   P
NCCBS      10.640   0.100   P
NCJHP      10.550   1.000   P
NCCMO      11.880   1.000   P
NCJBG      10.950   1.000   P
NCHFP      11.260   1.000   P
NCHJS      10.930   1.000   P
NCJPS      11.130   1.000   P
NCCLC      11.310   0.500   P
NCBVY      12.040   1.000   P
NCHQR      11.360   1.000   P
NCCBR      13.020   1.000   P
NCBSR      12.390   1.000   P
NCBCG      13.270   1.000   P
NCBHR      12.980   0.500   P
NCCRP      13.390   1.000   P
NCJSA      12.760   1.000   P
NCJEG      13.460   1.000   P
NCBLR      14.570   1.000   P
NCCAC      15.270   0.200   P
NCBPC      14.060   1.000   P
NCHMO      13.780   1.000   P
NCBJO      14.360   1.000   P
NCCBW      15.910   0.200   P
NCBEH      14.730   0.500   P
NCJMG      14.050   0.500   P
NCBJC      14.800   1.000   P
NCBEM      15.270   1.000   P
NCBRM      16.300   1.000   P
NCBVL      15.910   1.000   P
NCJPR      15.650   0.100   P
NCCAI      16.060   1.000   P
NCCSP      17.200   1.000   P
NCBBG      17.700   0.500   P
NCBPI      16.160   0.100   P
NCBBN      18.100   0.200   P
NCBSG      17.730   0.200   P
NCBHS      17.800   1.000   P
NCBMS      18.230   1.000   P
NCNTA      18.190   0.200   P
NCMYL      18.550   1.000   P
NCBRV      17.610   0.100   P
NCBPF      19.710   1.000   P
NCMNH      20.210   1.000   P
NCNSP      20.620   0.200   P
NCPBW      21.680   1.000   P
NCBPP      21.100   0.500   P
NCPLO      21.260   1.000   P
NCNOL      21.550   0.500   P
NCNVA      22.810   0.200   P
NCNLN      21.780   1.000   P
NCNBR      22.850   1.000   P
NCPJL      22.860   0.500   P
NCPAP      22.610   0.100   P
# 1984  6  4 16 23 29.80  37.2845 -121.6623    5.86 1.15  0.17  0.75  0.02      20113
NCCCO       1.670   0.200   P
NCCSC       2.930   0.500   P
NCCMH       2.880   1.000   P
NCCAO       2.730   1.000   P
NCCAD       3.280   0.200   P
NCJST       3.410   0.500   P
NCJCB       4.080   1.000   P
NCCML       4.380   0.200   P
NCJAL       4.490   0.100   P
NCCAL       4.390   1.000   P
NCHSP       4.600   1.000   P
NCCMM       4.740   1.000   P
NCJHL       4.990   1.000   P
NCJRR       5.160   1.000   P
NCJSS       5.220   0.100   P
NCHGS       5.330   1.000   P
NCJEC       5.780   0.100   P
NCHGW       5.710   0.200   P
NCJLX       5.850   1.000   P
NCCDV       6.060   1.000   P
NCHCP       7.850   0.100   P
# 1984  6  5 23 51 14.91  37.2930 -121.6683    6.81 0.93  0.23  1.05  0.01      20328
NCCCO       1.930   0.100   P
NCCSC       2.950   0.100   P
NCCMH       2.750  -0.500   P
NCCAO       2.790  -1.000   P
NCJST       3.430   0.100   P
NCJCB       4.230   0.500   P
NCCAL       4.210  -0.500   P
NCCMM       4.670   0.200   P
NCHSP       4.780   0.500   P
NCJHL       5.080   0.200   P
NCJRR       5.300  -1.000   P
NCJEC       5.870   0.100   P
NCCMR       6.360   0.200   P
# 1984  6 11  4 58 46.58  37.2892 -121.6687    7.81 1.48  0.22  0.64  0.11      20622
NCCCO       1.760   0.200   P
NCCSC       2.950   0.500   P
NCCMH       2.870   0.500   P
NCCAO       2.800  -1.000   P
NCCAD       3.470   0.500   P
NCJST       3.440   0.500   P
NCJCB       4.190   0.500   P
NCCML       4.450   0.200   P
NCCAL       4.390   0.500   P
NCJAL       4.510   0.200   P
NCHSP       4.730   0.500   P
NCCMM       4.790   0.500   P
NCJHL       5.080   1.000   P
NCJRR       5.260   0.500   P
NCJSS       5.450   0.500   P
NCHGS       5.440   0.200   P
NCJEC       5.870   0.100   P
NCJLX       5.900   0.200   P
NCHGW       5.830   0.200   P
NCCDV       6.030   0.500   P
NCCMJ       6.240   0.200   P
NCJBZ       6.730   0.200   P
NCHCA       6.580   0.100   P
NCJSG       7.060   0.500   P
NCCMR       6.570   0.500   P
NCJBC       6.950   0.200   P
NCHPR       7.370   0.200   P
NCCVA       7.370   0.200   P
NCHCR       7.030   0.500   P
NCJSJ       7.660   0.200   P
NCJRG       7.900   0.100   P
NCJBM       8.320   0.200   P
NCJPP       8.850  -1.000   P
NCBVY      12.510   0.100   P
# 1984  6 16  3 50 27.15  37.2850 -121.6632    6.43 3.13  0.11  0.25  0.03      20978
NCCCO       1.750   1.000   P
NCCSC       2.960   1.000   P
NCCMH       2.880   1.000   P
NCCAO       2.750   1.000   P
NCCAD       3.380   1.000   P
NCJST       3.400   1.000   P
NCJCB       4.100   1.000   P
NCCML       4.360   1.000   P
NCJAL       4.470   1.000   P
NCCAL       4.380   1.000   P
NCHSP       4.620   1.000   P
NCCMM       4.740   1.000   P
NCJHL       5.010   1.000   P
NCJRR       5.180   1.000   P
NCJSS       5.410   1.000   P
NCHGS       5.320   1.000   P
NCJEC       5.800   1.000   P
NCHGW       5.730   1.000   P
NCJLX       5.850   1.000   P
NCCDV       6.000   1.000   P
NCCMJ       6.140   1.000   P
NCJBZ       6.670   1.000   P
NCHCA       6.260   0.100   P
NCJTG       6.910   1.000   P
NCJSG       7.040   1.000   P
NCCMR       6.510   1.000   P
NCJBC       6.910   1.000   P
NCCOS       6.690   0.100   P
NCHPR       7.290   1.000   P
NCHCR       6.950   1.000   P
NCJPL       7.520   1.000   P
NCCVA       7.330   1.000   P
NCCMN       7.320   1.000   P
NCJRG       7.420   1.000   P
NCJSJ       7.660   1.000   P
NCHCB       7.590   1.000   P
NCCVL       7.960   1.000   P
NCHFE       7.400   0.100   P
NCJSC       7.660   0.200   P
NCCST       8.220   1.000   P
NCHPL       7.580   1.000   P
NCHOR       8.040   0.100   P
NCCSA       8.340   0.500   P
NCHCP       7.900   1.000   P
NCJBM       8.150   1.000   P
NCHCO       8.530   1.000   P
NCHAZ       8.640   0.100   P
NCJUC       8.640   0.100   P
NCCPL       8.700   0.100   P
NCJSF       8.700   1.000   P
NCHFH       9.090   1.000   P
NCHKR       9.350   0.500   P
NCJBL       8.680   0.100   P
NCJLT       8.850   1.000   P
NCJPP       9.230   1.000   P
NCHBT       9.510   1.000   P
NCCDA       8.010   1.000   P
NCHDL       9.330   1.000   P
NCCDO      10.290   0.500   P
NCCSH       9.690   0.100   P
NCHPH      10.690   1.000   P
NCHSF      10.690   1.000   P
NCHLT       9.730   1.000   P
NCHJG      10.080   0.100   P
NCCRA      11.660   1.000   P
NCHSL      10.730   1.000   P
NCCBS      11.370   1.000   P
NCJHP      10.530   1.000   P
NCCMO      11.640   1.000   P
NCJBG      10.980   1.000   P
NCHFP      11.250   1.000   P
NCHJS      11.120   1.000   P
NCCLC      11.340   0.500   P
NCJPS      11.090   1.000   P
NCBSL      11.750   1.000   P
NCBVY      12.020   0.500   P
NCHQR      11.320   1.000   P
NCCBR      12.870   1.000   P
NCBSR      12.380   0.500   P
NCBCG      12.980   0.500   P
NCBHR      13.690   0.500   P
NCCMC      12.890   1.000   P
NCCRP      13.210   1.000   P
NCJSA      12.760   1.000   P
NCJEG      12.670   0.100   P
NCCAC      14.660   0.200   P
NCBPC      14.030   0.500   P
NCHMO      12.160   0.200   P
NCCBW      14.800   1.000   P
NCBEH      14.460   0.500   P
NCBJC      14.750   0.500   P
NCBEM      15.620   0.500   P
NCBRM      16.350   0.200   P
NCBAV      15.800   1.000   P
NCJPR      15.620   1.000   P
NCCAI      15.980   1.000   P
NCCSP      17.230   1.000   P
NCNHM      18.260   0.500   P
NCNLH      18.250   1.000   P
NCBSG      17.230   0.100   P
NCBHS      17.780   1.000   P
NCBMS      18.120   0.100   P
NCNTA      18.260   0.500   P
NCBRV      19.480   1.000   P
NCBPF      19.690   1.000   P
NCNGV      21.120   0.500   P
NCMNH      20.030   1.000   P
NCPBW      21.640   1.000   P
NCBPP      20.890   0.500   P
NCNOL      20.750   0.200   P
NCMST      21.500   1.000   P
NCNVA      22.410   1.000   P
NCNLN      20.960   0.500   P
NCNBR      22.070   1.000   P
NCNVE      22.980   1.000   P
NCADW      23.730   1.000   P
NCMRF      24.500   0.500   P
NCNTM      24.500   0.100   P
NCNCF      24.910   0.500   P
# 1984  6 26  7 13 18.28  37.2870 -121.6635    6.72 0.80  0.20  0.59  0.02      21561
NCCCO       1.850   0.200   P
NCCSC       3.020   0.500   P
NCCMH       2.860  -1.000   P
NCCAO       5.120   0.100   S
NCCAO       2.760  -1.000   P
NCCAD       3.420   0.100   P
NCJST       3.390   0.200   P
NCJCB       4.110   1.000   P
NCCML       4.370   0.100   P
NCCAL       4.320   0.100   P
NCHSP       4.640   1.000   P
NCCMM       4.680   0.200   P
NCJHL       5.020   1.000   P
NCJRR       5.180   1.000   P
NCHGS       5.350   0.100   P
NCHGW       5.760   0.100   P
NCCMR       6.460  -1.000   P
NCJPP       9.250   0.200   P
# 1984  6 27 14 50 38.14  37.2913 -121.6708    3.61 1.59  0.17  0.37  0.02      21644
NCCCO       1.470  -1.000   P
NCCSC       2.650   0.200   P
NCCMH       2.620   1.000   P
NCCAO       2.760  -1.000   P
NCJST       3.390   0.100   P
NCCAD       3.550   0.200   P
NCJCB       4.250   1.000   P
NCCML       3.980   0.100   P
NCCAL       4.240   1.000   P
NCJAL       4.470   1.000   P
NCHSP       4.810   1.000   P
NCCMM       4.770   0.500   P
NCJHL       5.060   1.000   P
NCJRR       5.320   1.000   P
NCJSS       5.400   1.000   P
NCHGS       5.550   0.500   P
NCJLX       5.790   0.100   P
NCHGW       5.910   0.200   P
NCCDV       5.960   0.500   P
NCCMJ       5.960   0.100   P
NCJBZ       6.760   0.200   P
NCCMR       6.520   0.200   P
NCJBC       6.910   0.100   P
# 1984  7  5 12 49 57.72  37.2865 -121.6648    4.12 1.28  0.18  0.40  0.03      22144
NCCCO       1.470  -1.000   P
NCCSC       2.760   0.500   P
NCCMH       2.770   1.000   P
NCCAO       2.710   1.000   P
NCCAD       3.320   0.100   P
NCJST       3.360   1.000   P
NCJCB       4.110   1.000   P
NCCML       4.370   0.500   P
NCJAL       4.430   0.100   P
NCCAL       4.350   0.200   P
NCHSP       4.640   1.000   P
NCCMM       4.770   0.500   P
NCJHL       5.000   1.000   P
NCJSS       5.400   0.200   P
NCHGS       5.320   0.100   P
NCHGW       5.760   0.100   P
NCJLX       5.850   0.500   P
NCCDV       6.020   0.500   P
NCHCA       6.880   0.500   P
NCJSG       7.060   1.000   P
NCCMR       6.570   1.000   P
NCHCR       6.980   0.200   P
NCHKR      11.630   0.100   P
# 1984  7  5 17  6 28.74  37.2888 -121.6670    3.77 0.96  0.33  0.62  0.03      22165
NCCCO       1.460  -0.500   P
NCCSC       2.760   0.100   P
NCCMH       2.680  -0.500   P
NCCAO       2.720  -1.000   P
NCCAO       4.910   0.100   S
NCJST       3.340   0.200   P
NCJCB       4.180   1.000   P
NCCAL       4.300   0.200   P
NCJAL       4.540   0.100   P
NCHSP       4.720   0.500   P
NCCMM       4.750  -1.000   P
NCJHL       5.030   0.100   P
NCJRR       5.250   1.000   P
NCJSS       9.570   0.100   P
NCJRG      13.760   0.200   P
NCBPI      11.960   0.200   P
# 1984  7  7  0 17  9.97  37.2907 -121.6722    3.91 2.67  0.11  0.33  0.06      22271
NCCCO       1.470  -1.000   P
NCCSC       2.620   1.000   P
NCCAO       2.770   1.000   P
NCCAO       4.990   0.100   S
NCJST       3.310   1.000   P
NCCAD       3.500   1.000   P
NCJCB       4.250   1.000   P
NCCML       4.310   1.000   P
NCCAL       4.230   1.000   P
NCJAL       4.490   1.000   P
NCHSP       4.820   1.000   P
NCCMM       4.770   1.000   P
NCJHL       5.070   1.000   P
NCJSS       5.410   1.000   P
NCJRR       5.320   1.000   P
NCHGS       5.580   1.000   P
NCJLX       5.820   0.500   P
NCHGW       5.920   1.000   P
NCCDV       5.960   1.000   P
NCCMJ       6.070   1.000   P
NCJBZ       6.760   1.000   P
NCJSG       7.010   1.000   P
NCHCA       6.560   0.200   P
NCCMR       6.490   1.000   P
NCJTG       6.990   0.200   P
NCJBC       6.910   1.000   P
NCCOS       6.820   1.000   P
NCCVA       7.260   1.000   P
NCHPR       7.460   0.500   P
NCJSJ       7.610   0.500   P
NCCMN       7.310   1.000   P
NCJPL       7.630   0.500   P
NCHCR       7.160   0.500   P
NCJRG       7.480   0.200   P
NCCVL       7.910   1.000   P
NCHCB       7.770   0.200   P
NCCST       8.270   1.000   P
NCHFE       7.700   1.000   P
NCCSA       8.300   0.100   P
NCJBM       8.110   1.000   P
NCHPL       7.840   1.000   P
NCHOR       8.580   0.200   P
NCHCP       8.120   1.000   P
NCHCO       8.840   0.500   P
NCHAZ       8.850   0.100   P
NCCPL       8.580   1.000   P
NCJSF       8.670   1.000   P
NCJUC       8.850   1.000   P
NCCCY       8.450   1.000   P
NCJBL       8.840   0.500   P
NCJLT       8.870   1.000   P
NCJPP       9.190   0.500   P
NCHKR       9.680   0.500   P
NCCDA       7.960   1.000   P
NCHBT       9.740   1.000   P
NCHDL       9.530   0.100   P
NCCDO      10.420   1.000   P
NCCSH       9.650   1.000   P
NCHPH      10.720   0.100   P
NCHSF      10.620   0.100   P
NCHJG      10.370   1.000   P
NCHLT      10.180   1.000   P
NCJHP      10.540   1.000   P
NCCBS      11.400   1.000   P
NCCMO      11.370   0.200   P
NCJBG      10.980   1.000   P
NCHSL      10.990   1.000   P
NCCLC      11.300   1.000   P
NCJPS      11.090   1.000   P
NCHFP      11.510   0.500   P
NCHJS      11.430   1.000   P
NCBSL      12.260   1.000   P
NCBVY      12.320   1.000   P
NCHQR      11.630   0.500   P
NCCBR      12.880   0.100   P
NCCMC      13.010   1.000   P
NCBSR      12.660   1.000   P
NCBCG      13.640   0.500   P
NCCRP      13.460   1.000   P
NCBHR      13.150   0.500   P
NCJSA      12.760   1.000   P
NCJEG      12.850   0.100   P
NCBLR      14.850   1.000   P
NCHMO      13.920   1.000   P
NCCBW      15.490   0.200   P
NCJMG      14.130   0.200   P
NCBEH      15.460   0.100   P
NCBEM      13.680   0.100   P
NCCDU      15.980   0.500   P
NCBRM      17.400   1.000   P
NCJPR      15.720   1.000   P
NCBAV      16.170   1.000   P
NCCAI      16.120   1.000   P
NCNHM      18.980   0.200   P
NCNLH      33.190   0.500   P
NCBSG      17.970   1.000   P
NCBHS      18.480   0.200   P
NCBMS      18.560   1.000   P
NCNTA      18.320   1.000   P
NCMYL      18.760   1.000   P
NCBPF      20.120   0.100   P
NCMNH      20.060   0.200   P
NCPBW      21.900   0.500   P
NCBPP      21.230   0.200   P
NCPLO      22.980   0.100   P
NCNOL      21.390   0.200   P
NCMST      37.750   1.000   P
NCNLN      21.990   0.500   P
NCNBR      40.550   1.000   P
NCNCF      25.520   0.200   P
NCNTB      45.370   0.200   P
NCMHD      25.910   1.000   P
NCNWR      49.870   0.200   P
NCPBY      27.140   0.100   P
NCMAT      48.210   1.000   P
NCGHC      33.780   0.200   P
NCGNA      48.530   0.200   P
# 1984  7  7  2 35  4.06  37.2903 -121.6708    3.34 1.53  0.29  0.37  0.02      22280
NCCCO       1.430  -1.000   P
NCCSC       2.660   0.500   P
NCCAO       2.760   1.000   P
NCJST       3.330   0.100   P
NCJCB       4.230   1.000   P
NCCML       4.320   0.100   P
NCJAL       4.490   0.100   P
NCHSP       4.770   1.000   P
NCCMM       4.800   1.000   P
NCJHL       5.060   1.000   P
NCJRR       5.300   1.000   P
NCJSS       5.420   0.100   P
NCHGS       5.510   0.100   P
NCHGW       5.890   0.200   P
NCCDV       6.040   0.200   P
NCCMR       6.530   0.500   P
