# 1984  4 24 21 20 23.48  37.2853 -121.6628    6.30 3.57  0.12  0.24  0.04      16484
NCCCO       1.730  -1.000   P
NCCSC       3.070   0.200   P
NCCMH       2.920   1.000   P
NCCAO       2.790   1.000   P
NCCAO       4.860   0.100   S
NCCAD       3.350   0.500   P
NCJST       3.380   1.000   P
NCJCB       4.140   0.500   P
NCCML       4.330   0.500   P
NCJAL       4.460   1.000   P
NCCAL       4.350   1.000   P
NCCAL       7.720   0.100   S
NCHSP       4.600   0.500   P
NCCMM       4.720   0.500   P
NCJHL       5.000   1.000   P
NCJRR       5.230   1.000   P
NCJSS       5.440   1.000   P
NCHGS       5.330   0.500   P
NCJEC       5.870   1.000   P
NCHGW       5.720   0.500   P
NCJLX       5.810   1.000   P
NCCDV       5.970   1.000   P
NCCDV      10.550   0.100   S
NCCMP       5.840   0.500   P
NCCMJ       6.140   1.000   P
NCJBZ       6.710   1.000   P
NCHCA       6.670   1.000   P
NCJTG       6.910   0.500   P
NCJSG       7.030   1.000   P
NCCMR       6.490   1.000   P
NCJBC       6.880   1.000   P
NCCOS       6.680   0.500   P
NCHPR       7.270   0.500   P
NCJPL       7.510   0.500   P
NCCVA       7.310   1.000   P
NCCMN       7.420   0.500   P
NCJSJ       7.630   0.500   P
NCHCB       7.590   0.500   P
NCCVL       7.980   0.200   P
NCHFE       7.410   0.100   P
NCJSC       7.670   0.500   P
NCCST       8.270   0.500   P
NCHPL       7.560   0.500   P
NCHOR       7.990   0.100   P
NCCSA       8.310   0.500   P
NCHCP       7.850   0.500   P
NCJBM       7.980   0.200   P
NCJSM       8.620   0.100   P
NCJUC       8.660   0.500   P
NCCPL       8.730   1.000   P
NCJSF       8.680   0.500   P
NCHKR       9.360   0.500   P
NCJBL       8.680   0.200   P
NCCCY       8.600   0.100   P
NCJLT       8.840   1.000   P
NCJPP       9.200   0.500   P
NCHDL       9.300   0.100   P
NCCSH       9.650   1.000   P
NCHJG      10.100   0.500   P
NCJHP      10.520   0.500   P
NCJBG      11.070   0.200   P
NCHFP      11.020   0.100   P
NCCLC      11.300   1.000   P
NCJPS      11.070   0.200   P
NCBVY      12.020   1.000   P
NCHQR      11.470   0.200   P
NCBSR      12.490   0.200   P
NCCMC      12.830   0.100   P
NCJSA      13.090   0.200   P
NCJEG      12.650   0.100   P
NCHMO      13.710   0.500   P
NCJMG      13.800   1.000   P
NCJPR      15.650   1.000   P
NCCAI      15.960   1.000   P
NCBPR      16.810   0.500   P
NCNTA      18.240   0.500   P
NCNOL      21.510   0.100   P
# 1984  4 24 21 23 39.95  37.2857 -121.6645    6.01 3.54  0.09  0.18  0.04      16527
NCCCO       1.700   1.000   P
NCCSC       2.920   1.000   P
NCCMH       2.840   1.000   P
NCCAO       2.710   0.500   P
NCCAD       3.360   1.000   P
NCJST       3.380   1.000   P
NCJCB       4.090   0.200   P
NCCML       4.350   0.500   P
NCJAL       4.460   1.000   P
NCCAL       4.350   0.500   P
NCHSP       4.620   0.100   P
NCCMM       4.720   0.500   P
NCJHL       5.000   0.500   P
NCJRR       5.160   0.200   P
NCJSS       5.390   1.000   P
NCHGS       5.360   0.500   P
NCJEC       5.780   0.500   P
NCHGW       5.740   0.500   P
NCJLX       5.820   0.500   P
NCCDV       5.980   1.000   P
NCCMP       5.860   1.000   P
NCCMJ       6.140   0.500   P
NCJBZ       6.650   0.500   P
NCJTG       6.930   1.000   P
NCJSG       7.020   0.200   P
NCCMR       6.500   0.200   P
NCJBC       6.890   0.500   P
NCCOS       6.690   0.500   P
NCHPR       7.280   0.500   P
NCHCR       6.930   0.100   P
NCJPL       7.500   0.500   P
NCCVA       7.320   1.000   P
NCCMN       7.310   0.500   P
NCJSJ       7.630   0.500   P
NCJRG       7.380   0.500   P
NCHCB       7.580   0.200   P
NCCVL       7.940   0.200   P
NCJSC       7.640   0.100   P
NCHFE       7.510   0.200   P
NCHPL       7.720   1.000   P
NCCSA       8.320   0.200   P
NCJBM       8.120   1.000   P
NCHCP       7.880   0.500   P
NCHCO       8.530   0.200   P
NCHAZ       8.640   0.100   P
NCJSM       8.640   0.500   P
NCJUC       8.640   0.200   P
NCCPL       8.740   0.500   P
NCJSF       8.680   1.000   P
NCJBL       8.750   0.100   P
NCCCY       8.480   0.100   P
NCJLT       8.810   0.500   P
NCJPP       9.210   0.500   P
NCHDL       9.310   0.500   P
NCCDO      10.300   1.000   P
NCCSH       9.700   1.000   P
NCHPH      10.360   0.200   P
NCHJG      10.120   0.500   P
NCCBS      11.360   1.000   P
NCHSL      10.650   0.500   P
NCJHP      10.520   0.500   P
NCJBG      10.960   0.500   P
NCHFP      11.270   0.200   P
NCHJS      11.200   0.200   P
NCCLC      11.310   0.500   P
NCJPS      11.070   0.200   P
NCBSL      11.780   1.000   P
NCBVY      12.050   0.200   P
NCHQR      11.530   0.200   P
NCBSR      12.380   0.200   P
NCBCG      12.930   0.100   P
NCCMC      12.850   0.200   P
NCBHR      12.700   0.100   P
NCCRP      13.180   0.100   P
NCJSA      12.750   0.100   P
NCJEG      12.680   0.100   P
NCBPC      14.050   1.000   P
NCHMO      13.730   0.500   P
NCBJO      14.380   0.500   P
NCBEH      14.540   0.100   P
NCJMG      13.880   0.100   P
NCBJC      14.750   0.500   P
NCBAV      15.930   0.500   P
NCJPR      15.560   0.200   P
NCCAI      15.950   0.500   P
NCCSP      16.780   0.100   P
NCBBG      16.870   0.100   P
NCBPR      16.780   0.100   P
NCBPI      16.520   0.100   P
NCBSG      17.590   0.500   P
NCNTA      18.250   0.500   P
NCMYL      18.570   1.000   P
NCBPF      20.140   0.200   P
NCNSP      21.050   0.500   P
NCBPP      21.190   0.500   P
NCPLO      21.280   1.000   P
NCNOL      21.300   0.100   P
NCNLN      21.500   0.100   P
NCNBR      22.910   0.500   P
NCMRF      24.510   1.000   P
NCNCF      24.620   0.500   P
NCNTB      26.600   0.500   P
NCMHD      25.310   0.500   P
NCGSS      35.440   0.500   P
# 1984  4 25  0  4 49.44  37.2922 -121.6662    6.61 1.23  0.28  0.80  0.02      17496
NCCCO       1.860   0.100   P
NCCSC       2.920   0.100   P
NCCMH       2.770   0.200   P
NCCAO       2.760  -1.000   P
NCCAD       3.510   0.100   P
NCJST       3.490   0.100   P
NCJCB       4.190   0.500   P
NCCAL       4.230   0.200   P
NCJAL       4.580   0.200   P
NCHSP       4.720   0.100   P
NCCMM       4.660   0.200   P
NCJHL       5.050   0.200   P
NCJRR       5.310   0.500   P
NCJLX       5.760   0.100   P
NCCDV       5.860   0.200   P
NCCMP       5.870   0.100   P
NCHCR       7.030   0.100   P
NCHPL       7.650   0.200   P
# 1984  4 25  4 16 53.44  37.2853 -121.6682    3.82 3.00  0.10  0.31  0.05      16521
NCCCO       1.400  -1.000   P
NCCSC       2.670   1.000   P
NCCMH       2.710   1.000   P
NCCAO       2.750   1.000   P
NCCAD       3.380   1.000   P
NCJST       3.320   0.200   P
NCJCB       4.170   1.000   P
NCJAL       4.480   0.500   P
NCCML       4.370   1.000   P
NCCAL       4.330   1.000   P
NCHSP       4.720   1.000   P
NCCMM       4.810   1.000   P
NCJHL       5.050   1.000   P
NCJSS       5.410   1.000   P
NCHGS       5.480   1.000   P
NCJEC       5.860   0.200   P
NCJLX       5.850   1.000   P
NCHGW       5.860   1.000   P
NCCDV       6.050   1.000   P
NCCMJ       6.190   1.000   P
NCCMP       5.990   1.000   P
NCJBZ       6.720   0.500   P
NCHCA       6.420   0.500   P
NCJSG       7.050   1.000   P
NCJTG       6.970   1.000   P
NCCMR       6.580   1.000   P
NCJBC       6.930   1.000   P
NCCOS       6.840   1.000   P
NCHPR       7.380   1.000   P
NCJPL       7.580   1.000   P
NCHCR       7.080   1.000   P
NCCVA       7.370   1.000   P
NCJSJ       7.690   1.000   P
NCJRG       7.490   1.000   P
NCCMN       7.390   0.500   P
NCHCB       7.710   0.200   P
NCCVL       8.020   0.500   P
NCJSC       7.730   1.000   P
NCHFE       7.560   0.200   P
NCCST       8.320   1.000   P
NCHPL       7.730   1.000   P
NCHOR       8.350   0.500   P
NCCSA       8.430   1.000   P
NCJBM       8.170   1.000   P
NCHCP       8.050   1.000   P
NCHCO       8.820   0.200   P
NCHAZ       8.790   1.000   P
NCJSM       8.720   1.000   P
NCJUC       8.730   1.000   P
NCJSF       8.770   1.000   P
NCCPL       8.780   1.000   P
NCHFH       9.200   1.000   P
NCJBL       8.850   0.100   P
NCCCY       8.690   1.000   P
NCHKR       9.530   1.000   P
NCJLT       8.900   0.200   P
NCJPP       9.270   1.000   P
NCHBT       9.780   0.500   P
NCCDA       8.060   1.000   P
NCHDL       9.430   1.000   P
NCCDO      10.570   1.000   P
NCCSH       9.770   1.000   P
NCHPH      10.520   1.000   P
NCHSF      10.860   1.000   P
NCHJG      10.230   0.500   P
NCHLT      10.100   1.000   P
NCCRA      11.770   1.000   P
NCJHP      10.590   0.500   P
NCCBS      11.480   1.000   P
NCHSL      10.940   1.000   P
NCCMO      12.040   1.000   P
NCJBG      11.060   1.000   P
NCHFP      11.440   0.500   P
NCJPS      11.150   1.000   P
NCHJS      11.340   1.000   P
NCBSL      11.980   0.200   P
NCBVY      12.170   0.200   P
NCHQR      11.650   0.500   P
NCBSR      12.500   0.500   P
NCBCG      13.130   1.000   P
NCCMC      12.940   1.000   P
NCBHR      13.770   0.500   P
NCCRP      13.540   1.000   P
NCJSA      13.020   0.200   P
NCJEG      13.650   0.100   P
NCBLR      14.780   0.500   P
NCBPC      14.150   1.000   P
NCHMO      14.070   0.200   P
NCBSC      14.710   0.200   P
NCBJO      14.580   1.000   P
NCJMG      14.150   0.500   P
NCBEH      14.650   0.200   P
NCBJC      14.960   1.000   P
NCBEM      15.490   1.000   P
NCCDU      17.520   1.000   P
NCBRM      16.980   0.100   P
NCBAV      15.840   0.500   P
NCJPR      15.880   1.000   P
NCCAI      16.240   1.000   P
NCCSP      14.500   0.100   P
NCBBG      17.560   1.000   P
NCNHM      18.990   1.000   P
NCBPI      17.030   1.000   P
NCBBN      18.370   0.500   P
NCNLH      18.870   1.000   P
NCBSG      17.880   1.000   P
NCBMS      18.450   1.000   P
NCNTA      18.450   0.200   P
NCMYL      18.730   1.000   P
NCBPF      20.000   1.000   P
NCMNH      20.200   1.000   P
NCPHR      22.590   0.500   P
NCBPP      21.280   0.200   P
NCPLO      21.860   0.500   P
NCNOL      20.940   0.100   P
NCNLN      22.570   1.000   P
NCADW      24.100   1.000   P
# 1984  4 25  4 35 19.17  37.2883 -121.6688    3.73 1.90  0.10  0.29  0.04      17842
NCCCO       1.430  -1.000   P
NCCSC       2.660   0.500   P
NCCMH       2.660   0.500   P
NCCAO       2.730   1.000   P
NCCAD       3.420   0.500   P
NCJST       3.350   0.500   P
NCJCB       4.210   0.500   P
NCCML       4.330   0.500   P
NCCAL       4.280   0.500   P
NCJAL       4.470   0.500   P
NCHSP       4.750   1.000   P
NCCMM       4.780   1.000   P
NCJHL       5.050   1.000   P
NCJSS       5.390   0.100   P
NCHGS       5.500   1.000   P
NCJEC       5.870   0.100   P
NCJLX       5.820   0.500   P
NCHGW       5.880   1.000   P
NCCDV       6.010   0.500   P
NCCMJ       6.200   1.000   P
NCCMP       6.030   1.000   P
NCJBZ       7.100   0.200   P
NCHCA       7.030   1.000   P
NCJSG       7.180   0.200   P
NCCMR       6.550   0.500   P
NCJTG       7.010   0.500   P
NCJBC       6.940   1.000   P
NCCVA       7.290   0.100   P
NCHCR       7.120   1.000   P
NCJSJ       7.650   1.000   P
NCJRG       7.530   0.100   P
NCCVL       7.980   1.000   P
NCHFE       7.620   0.200   P
NCCST       8.290   1.000   P
NCHPL       7.750   1.000   P
NCJBM       8.170   0.500   P
NCHOR       8.450   0.200   P
NCHCO       8.780   0.500   P
NCJSM       8.860   0.100   P
NCJUC       8.930   0.200   P
NCJSF       8.710   0.500   P
NCJBL       9.220   0.100   P
NCHFH       9.260   0.200   P
NCJLT       8.940   0.100   P
NCHKR       9.730   0.500   P
NCJPP       9.370   0.500   P
NCHDL       9.510   1.000   P
NCHSF      10.960   0.100   P
NCHJG      10.370   0.200   P
NCJHP      10.620   1.000   P
NCHFP      11.540   0.100   P
NCBSL      14.300   0.500   P
NCBVY      12.330   0.500   P
NCHQR      12.290   0.200   P
NCBSR      12.680   1.000   P
NCBHR      14.160   0.200   P
NCJSA      12.990   0.500   P
NCJMG      14.460   0.200   P
NCBJO      14.890   0.200   P
NCCAI      16.230   0.200   P
# 1984  4 25  7 22 22.29  37.2957 -121.6702    5.90 1.40  0.18  0.53  0.02      16635
NCCCO       1.840   0.200   P
NCCSC       2.830   1.000   P
NCCMH       2.650   1.000   P
NCCAO       2.760  -1.000   P
NCJST       3.410   1.000   P
NCCAD       3.580   0.500   P
NCCML       4.180   0.200   P
NCJCB       4.250   1.000   P
NCCAL       4.130   0.500   P
NCJAL       4.500   0.100   P
NCCMM       4.640   0.500   P
NCHSP       4.830   1.000   P
NCJHL       5.080   1.000   P
NCHGS       5.550   0.200   P
NCJLX       5.980   0.200   P
NCCDV       5.790   0.500   P
NCCMR       6.320   0.200   P
NCJTG       6.410   0.100   P
NCCVA       7.110   1.000   P
NCJSJ       7.560   1.000   P
NCHCR       7.940   0.200   P
NCJRG      13.340   0.200   P
NCCST       8.160   0.100   P
NCJSM       6.910   0.100   P
# 1984  4 25 14  6 57.56  37.2870 -121.6628    5.79 1.62  0.15  0.38  0.04      16576
NCCCO       1.780   0.500   P
NCCSC       2.950   1.000   P
NCCMH       2.830   1.000   P
NCCAO       2.730   1.000   P
NCCAD       3.390   1.000   P
NCJST       3.380   0.500   P
NCJCB       4.100   1.000   P
NCCML       4.290   1.000   P
NCJAL       4.450   0.200   P
NCCAL       4.320   1.000   P
NCHSP       4.630   1.000   P
NCCMM       4.680   1.000   P
NCJHL       5.000   1.000   P
NCJRR       5.180   1.000   P
NCHGS       5.320   0.500   P
NCJEC       5.790   0.500   P
NCHGW       5.740   0.500   P
NCJLX       5.870   1.000   P
NCCDV       5.930   0.500   P
NCHCA       6.810   0.100   P
NCCMR       6.470   0.500   P
NCJSG       7.030   1.000   P
NCJBC       6.950   0.100   P
NCHCR       6.970   1.000   P
NCJPL       7.570   0.200   P
NCJSJ       7.650   1.000   P
NCJRG       7.900   0.200   P
NCCST       6.270   0.200   P
NCHPL       7.570   1.000   P
NCJBM       8.130   0.100   P
NCJSM       8.860   0.200   P
NCHFH       9.570   0.100   P
NCJBL       9.110   0.200   P
NCJPP       9.220   1.000   P
NCHDL       9.550   0.200   P
NCHJG      10.220   1.000   P
NCJHP      10.710   1.000   P
NCHFP      11.330   0.100   P
NCBVY      12.080   0.100   P
NCHQR      11.490   1.000   P
NCBSR      12.540   0.100   P
NCJMG      14.450   0.100   P
# 1984  4 25 22 14 23.14  37.2892 -121.6658    5.24 1.80  0.13  0.49  0.04      17929
NCCCO       1.730   0.200   P
NCCSC       2.850   0.500   P
NCCMH       2.740   0.500   P
NCCAO       2.730   1.000   P
NCCAD       3.460   0.200   P
NCJST       3.380   0.200   P
NCJCB       4.160   1.000   P
NCCML       4.310   1.000   P
NCCAL       4.250   0.100   P
NCJAL       4.460   0.200   P
NCHSP       4.710   1.000   P
NCCMM       4.690   0.500   P
NCJHL       5.030   0.500   P
NCJSS       5.370   0.200   P
NCHGS       5.420   0.200   P
NCJEC       5.860   1.000   P
NCJLX       5.820   1.000   P
NCHGW       5.800   0.500   P
NCCDV       5.900   1.000   P
NCCMJ       6.120   1.000   P
NCCMP       5.890   0.200   P
NCJBZ       6.760   0.200   P
NCHCA       6.930   1.000   P
NCJSG       7.130   0.200   P
NCJBC       6.890   1.000   P
NCHCR       7.050   1.000   P
NCJRG       7.510   0.200   P
NCCST       8.170   1.000   P
NCHPL       7.650   0.200   P
NCJBM       8.070   0.100   P
NCJSM       8.880   0.200   P
NCHFH       9.650   0.100   P
NCJBL       8.990   0.100   P
NCJPP       9.220   1.000   P
NCHDL       9.490   0.200   P
NCHJG      10.290   0.500   P
NCJHP      10.670   1.000   P
NCHFP      11.440   0.200   P
NCHJS       9.990   0.100   P
NCBVY      12.440   0.200   P
NCHQR      11.580   0.500   P
NCJSA      13.510   0.200   P
NCBPC      14.330   0.100   P
NCBRV      24.150   0.200   P
NCPHA      24.040   0.500   P
# 1984  4 26  8 54 51.42  37.2893 -121.6652    6.30 1.52  0.17  0.38  0.04      16659
NCCCO       1.850   0.500   P
NCCSC       2.930   1.000   P
NCCMH       2.780   1.000   P
NCCAO       2.750  -1.000   P
NCCAD       3.460   0.100   P
NCJST       3.410   1.000   P
NCJCB       4.130   0.500   P
NCCAL       4.260   1.000   P
NCJAL       4.530   0.100   P
NCHSP       4.680   1.000   P
NCCMM       4.660   0.200   P
NCJHL       5.020   0.500   P
NCJRR       5.210   0.500   P
NCJSS       5.440   0.200   P
NCHGS       5.390   0.200   P
NCJLX       5.810   0.200   P
NCHGW       5.800   1.000   P
NCCDV       5.850   0.200   P
NCCMJ       6.170   1.000   P
NCHCA       6.890   1.000   P
NCCMR       6.400   0.500   P
NCJSG       6.960   0.200   P
NCCVA       7.200   0.500   P
NCHCR       7.690   0.100   P
NCJSJ       7.580   1.000   P
NCCST       8.070   0.200   P
NCHPL       7.600   0.500   P
NCHKR       9.600   0.100   P
NCJPP       9.160   0.100   P
NCHDL       9.450   0.100   P
NCHQR      11.600   0.500   P
NCJSA      13.110   0.200   P
NCBPC      14.110   1.000   P
# 1984  4 26 17 22 44.29  37.2917 -121.6663    6.06 1.57  0.14  0.41  0.03      16701
NCCCO       1.870   0.500   P
NCCSC       2.930   0.500   P
NCCMH       2.740   0.500   P
NCCAO       2.750   1.000   P
NCCAO       5.150   0.100   S
NCCAD       3.510   0.200   P
NCJST       3.380   0.100   P
NCJCB       4.200   1.000   P
NCCAL       4.210   0.200   P
NCJAL       4.500   1.000   P
NCHSP       4.720   1.000   P
NCJHL       5.020   1.000   P
NCJRR       5.300   1.000   P
NCJSS       5.540   0.200   P
NCHGS       5.500   1.000   P
NCJEC       5.870   0.500   P
NCJLX       5.840   1.000   P
NCHGW       5.750   0.100   P
NCCDV       5.820   0.500   P
NCCMJ       6.070   1.000   P
NCJBZ       6.800   0.200   P
NCCMR       6.360   0.500   P
NCJSG       6.980   0.100   P
NCCVA       7.140   0.200   P
NCHCR       8.800   0.200   P
NCJSJ       7.620   0.500   P
NCJRG       7.980   0.200   P
NCCST       8.110   1.000   P
NCHPL       7.660   0.200   P
NCJBM       8.160   0.200   P
NCJSM       8.800   0.200   P
NCHFH       9.250   0.200   P
NCJPP       9.210   1.000   P
NCHDL       9.520   0.200   P
NCHJS       5.610   0.200   P
NCBVY      12.390   0.200   P
NCHQR      11.570   0.500   P
NCPHB      19.140   0.100   P
NCPGH      34.160   1.000   P
NCMSK      21.590   0.200   P
# 1984  4 26 20 11 12.52  37.2882 -121.6647    3.45 1.17  0.27  0.45  0.03      18075
NCCCO       1.460  -0.500   P
NCCSC       2.720   0.100   P
NCCMH       2.680   0.200   P
NCCAO       2.720  -1.000   P
NCCAO       4.850   0.100   S
NCCAD       3.330   1.000   P
NCJST       3.300   0.100   P
NCJCB       4.180  -1.000   P
NCCML       4.200   0.100   P
NCCAL       4.290   0.100   P
NCHSP       4.720  -1.000   P
NCCMM       4.690   0.200   P
NCJHL       5.030   0.200   P
NCHGS       5.430   0.100   P
NCJLX       5.750   0.100   P
NCCDV       5.960   0.100   P
NCCMR       6.530   0.200   P
NCCST       8.350   0.500   P
NCHPL       7.780   0.100   P
NCHOR       6.090   0.500   P
# 1984  4 27  7 48 23.50  37.2942 -121.6720    3.16 0.97  0.23  0.44  0.04      16751
NCCCO       1.460  -1.000   P
NCCSC       2.590   0.200   P
NCCMH       2.620   0.500   P
NCCAO       2.750  -1.000   P
NCJST       3.320   0.500   P
NCCAD       3.590   1.000   P
NCJCB       4.260   1.000   P
NCCML       4.300   0.100   P
NCCAL       4.200  -1.000   P
NCCMM       4.760   0.200   P
NCHSP       4.870   0.500   P
NCJHL       5.070   0.500   P
NCJRR       5.310   0.200   P
NCHGS       5.560   0.100   P
NCHPL       7.830   0.200   P
NCHPH      11.700   0.500   P
NCPBW      15.110   0.200   P
# 1984  4 27 11  8  9.22  37.2878 -121.6657    5.82 1.31  0.18  0.43  0.03      16766
NCCCO       1.690   0.500   P
NCCSC       2.870   0.200   P
NCCMH       2.780  -1.000   P
NCCAO       2.750  -1.000   P
NCCAD       3.420   1.000   P
NCJST       3.380   1.000   P
NCJCB       4.130   1.000   P
NCCML       4.290   0.200   P
NCCAL       4.300   0.200   P
NCJAL       4.450   0.100   P
NCHSP       4.680   1.000   P
NCCMM       4.710   0.200   P
NCJHL       5.010   0.200   P
NCJRR       5.200   1.000   P
NCJSS       5.370   0.200   P
NCHGS       5.380   0.100   P
NCHGW       5.770   0.500   P
NCJLX       5.820   0.100   P
NCCDV       5.930   0.100   P
NCCMP       5.900   0.100   P
NCJBZ       6.700   1.000   P
NCJSG       6.340   0.200   P
NCCMR       6.440   0.100   P
NCHCR       6.990   0.100   P
NCCST       8.220  -1.000   P
NCHPL       7.610   0.100   P
NCJPS      10.320   0.100   P
