# 1985  3 12  4  3 59.98  37.2885 -121.6668    6.37 3.24  0.09  0.24  0.03      43546
NCCCO       1.740   1.000   P
NCCSC       2.880   1.000   P
NCCMH       2.760   1.000   P
NCCAO       2.760   1.000   P
NCCAD       3.480   1.000   P
NCJST       3.400   1.000   P
NCJCB       4.190   1.000   P
NCCML       4.290   1.000   P
NCCAL       4.280   1.000   P
NCJAL       4.500   1.000   P
NCHSP       4.750   1.000   P
NCCMM       4.720   1.000   P
NCJHL       5.060   1.000   P
NCJRR       5.260   1.000   P
NCJSS       5.400   1.000   P
NCHGS       5.460   1.000   P
NCJEC       5.850   1.000   P
NCJLX       5.800   1.000   P
NCHGW       5.840   1.000   P
NCCDV       5.920   1.000   P
NCCMJ       6.070   1.000   P
NCCMP       5.920   1.000   P
NCJBZ       6.720   1.000   P
NCHCA       6.390   1.000   P
NCJSG       6.990   1.000   P
NCCMR       6.440   1.000   P
NCJTG       6.960   1.000   P
NCJBC       6.890   1.000   P
NCCOS       6.700   1.000   P
NCHPR       7.360   1.000   P
NCCVA       7.250   1.000   P
NCHCR       7.050   1.000   P
NCJPL       7.580   1.000   P
NCCMN       7.260   1.000   P
NCJSJ       6.990   1.000   P
NCHCB       7.690   1.000   P
NCCVL       7.890   1.000   P
NCJSC       7.580   1.000   P
NCHFE       7.530   1.000   P
NCCST       8.180   1.000   P
NCHPL       7.690   1.000   P
NCCSA       8.270   1.000   P
NCHOR       8.110   1.000   P
NCJBM       8.080   1.000   P
NCHCP       7.960   1.000   P
NCHCO       8.620   1.000   P
NCHAZ       8.740   1.000   P
NCJSM       8.610   1.000   P
NCJUC       8.650   1.000   P
NCCPL       8.690   0.200   P
NCCCY       8.390   1.000   P
NCHFH       9.140   1.000   P
NCJBL       8.670   1.000   P
NCHKR       9.290   0.200   P
NCJLT       8.790   1.000   P
NCJPP       9.160   1.000   P
NCHBT       9.590   1.000   P
NCHDL       9.420   1.000   P
NCCSH       9.590   0.200   P
NCHPH      10.430   0.500   P
NCHSF      10.770   1.000   P
NCHLT       9.770   0.500   P
NCHJG      10.200   1.000   P
NCCRA      11.620   1.000   P
NCCBS      11.300   1.000   P
NCJHP      10.480   1.000   P
NCCMO      11.730   1.000   P
NCHSL      10.770   1.000   P
NCJBG      10.930   1.000   P
NCCLC      11.230   1.000   P
NCJPS      11.060   1.000   P
NCHFP      11.300   1.000   P
NCHJS      11.260   0.200   P
NCBSL      11.450   0.100   P
NCBVY      12.090   1.000   P
NCHQR      11.410   1.000   P
NCCBR      12.740   0.100   P
NCBSR      12.440   1.000   P
NCBCG      12.990   0.500   P
NCCMC      12.980   1.000   P
NCBHR      12.870   1.000   P
NCCRP      13.360   0.500   P
NCJSA      12.680   1.000   P
NCJEG      12.660   1.000   P
NCCAC      14.500   0.500   P
NCBLR      14.490   0.100   P
NCBPC      14.110   1.000   P
NCBSC      14.580   0.500   P
NCCBW      14.740   0.100   P
NCJMG      13.770   0.500   P
NCBJO      14.400   0.500   P
NCBEH      14.530   1.000   P
NCBJC      14.830   1.000   P
NCBEM      15.200   1.000   P
NCCDU      16.070   0.500   P
NCBRM      16.220   0.200   P
NCBVL      16.050   0.100   P
NCJPR      15.540   1.000   P
NCBAV      15.910   1.000   P
NCCAI      15.840   0.500   P
NCCSP      16.810   1.000   P
NCBBG      17.120   0.500   P
NCNHM      18.550   1.000   P
NCBPR      16.900   1.000   P
NCBPI      16.860   1.000   P
NCBBN      17.790   1.000   P
NCNLH      18.500   1.000   P
NCBSG      17.420   0.200   P
NCBHS      17.820   1.000   P
NCBMS      18.310   1.000   P
NCNTA      18.370   0.500   P
NCMYL      18.620   1.000   P
NCBRV      19.530   1.000   P
NCBPF      19.620   0.100   P
NCNGV      21.030   1.000   P
NCMNH      19.970   1.000   P
NCPBW      21.210   1.000   P
NCPHR      20.960   1.000   P
NCBPP      20.800   1.000   P
NCPLO      21.150   1.000   P
NCNOL      20.810   0.100   P
NCMST      21.610   1.000   P
NCNVA      22.070   0.200   P
NCNLN      21.630   0.100   P
# 1985  3 12  4  4 51.80  37.2905 -121.6672    6.17 2.04  0.22  0.83  0.02      43580
NCCCO       1.710   0.200   P
NCCSC       2.870   0.500   P
NCCMH       2.750   1.000   P
NCCAO       2.740   1.000   P
NCCAD       3.470   1.000   P
NCJST       3.390   1.000   P
NCJCB       4.170   1.000   P
NCCML       4.260   0.200   P
NCCAL       4.260   0.500   P
NCJAL       4.490   0.200   P
NCHSP       4.730   1.000   P
NCCMM       4.700   1.000   P
NCJHL       5.040   1.000   P
NCJRR       5.250   1.000   P
NCJSS       5.390   1.000   P
NCJLX       5.790   1.000   P
NCHGW       5.830   1.000   P
NCCMP       5.900   1.000   P
# 1985  3 20  4 57 39.19  37.2847 -121.6633    5.89 2.56  0.11  0.28  0.04      44335
NCCCO       1.690   1.000   P
NCCSC       2.920   1.000   P
NCCMH       2.850   1.000   P
NCCAO       5.040   0.100   S
NCCAO       2.750   1.000   P
NCCAD       3.380   1.000   P
NCJST       3.380   1.000   P
NCJCB       4.120   1.000   P
NCCML       4.360   1.000   P
NCJAL       4.460   1.000   P
NCCAL       4.380   1.000   P
NCHSP       4.640   1.000   P
NCCMM       4.740   1.000   P
NCJHL       5.000   1.000   P
NCJRR       5.180   1.000   P
NCJSS       5.390   1.000   P
NCHGS       5.340   1.000   P
NCJEC       5.800   1.000   P
NCHGW       5.750   1.000   P
NCCDV       6.000   1.000   P
NCCDV      10.610   0.100   S
NCCMP       5.870   1.000   P
NCCMJ       6.180   1.000   P
NCJBZ       6.660   1.000   P
NCHCA       6.370   0.500   P
NCJTG       6.930   1.000   P
NCJSG       7.040   1.000   P
NCCMR       6.520   1.000   P
NCJBC       6.910   1.000   P
NCHPR       7.290   1.000   P
NCHCR       6.950   1.000   P
NCJPL       7.520   1.000   P
NCCVA       7.340   1.000   P
NCCMN       7.340   1.000   P
NCJSJ       7.030   1.000   P
NCHCB       7.620   1.000   P
NCCVL       7.990   1.000   P
NCHFE       7.440   1.000   P
NCJSC       7.620   1.000   P
NCHPL       7.600   1.000   P
NCCST       8.240   1.000   P
NCHOR       8.010   0.500   P
NCCSA       8.340   1.000   P
NCHCP       7.880   1.000   P
NCJBM       8.140   1.000   P
NCHCO       8.560   1.000   P
NCHAZ       8.650   1.000   P
NCJSM       8.640   1.000   P
NCJUC       8.630   0.500   P
NCJSF       8.700   1.000   P
NCCPL       8.640   0.500   P
NCHFH       9.080   1.000   P
NCHKR       9.350   1.000   P
NCJBL       8.830   1.000   P
NCCCY       8.490   1.000   P
NCJLT       8.870   1.000   P
NCJPP       9.220   1.000   P
NCHBT       9.490   0.200   P
NCHDL       9.350   1.000   P
NCCSH       9.780   1.000   P
NCHPH      10.760   0.500   P
NCHSF      10.710   1.000   P
NCHLT      10.150   0.500   P
NCHJG      10.120   1.000   P
NCCRA      12.010   0.200   P
NCHSL      10.870   0.500   P
NCCBS      11.400   1.000   P
NCJHP      10.550   1.000   P
NCJBG      11.100   0.500   P
NCHFP      11.330   1.000   P
NCHJS      11.280   0.100   P
NCJPS      10.760   0.500   P
NCCLC      11.370   1.000   P
NCBSL      11.810   1.000   P
NCBVY      12.060   1.000   P
NCHQR      11.400   1.000   P
NCCBR      13.210   0.500   P
NCBSR      12.420   1.000   P
NCBCG      13.280   1.000   P
NCBHR      12.600   0.200   P
NCCMC      13.050   1.000   P
NCCRP      13.670   0.100   P
NCJSA      12.850   0.500   P
NCJEG      13.280   0.500   P
NCBLR      14.600   1.000   P
NCBPC      14.060   1.000   P
NCHMO      13.870   1.000   P
NCBSC      14.760   1.000   P
NCBJO      14.460   1.000   P
NCCBW      15.080   0.100   P
NCBEH      14.810   0.200   P
NCJMG      13.870   0.200   P
NCBJC      14.780   1.000   P
NCBEM      15.600   1.000   P
NCBVL      17.010   0.200   P
NCBAV      15.960   1.000   P
NCJPR      15.800   1.000   P
NCCAI      16.190   1.000   P
NCCSP      17.080   0.500   P
NCBBG      17.740   1.000   P
NCBPI      16.740   0.100   P
NCBBN      18.330   0.500   P
NCNLH      18.640   0.100   P
NCBSG      18.460   0.500   P
NCBHS      17.420   0.100   P
NCMYL      18.600   1.000   P
NCBPF      20.010   1.000   P
NCMNH      20.140   1.000   P
NCPBW      21.430   1.000   P
NCPHR      21.890   0.500   P
NCBPP      21.180   0.200   P
NCNOL      21.170   0.200   P
NCNLN      21.810   0.200   P
NCPJL      22.970   0.500   P
NCNCF      24.640   0.200   P
NCNTB      23.820   0.200   P
# 1985  3 26 11 50 46.60  37.2877 -121.6648    5.96 1.26  0.20  0.68  0.02      44729
NCCCO       1.700  -0.500   P
NCCSC       2.890   1.000   P
NCCMH       2.810   1.000   P
NCCAO       2.750  -1.000   P
NCCAO       5.260   0.100   S
NCCAD       3.410   0.500   P
NCJST       3.380   1.000   P
NCJCB       4.120   1.000   P
NCCML       4.330   0.200   P
NCCAL       4.200   0.100   P
NCCAL       8.310   0.100   S
NCJAL       4.450   0.100   P
NCHSP       4.660   1.000   P
NCJHL       5.010   0.100   P
NCJRR       5.200   1.000   P
NCHGW       6.240   1.000   P
NCJLX       5.830   0.500   P
NCCMP       5.880   0.500   P
NCJBC       6.880   0.500   P
NCHCR       6.980   0.500   P
# 1985  4 10 18 45 20.62  37.2878 -121.6643    6.13 1.07  0.21  0.43  0.03      45835
NCCCO       1.760  -1.000   P
NCCSC       2.920   1.000   P
NCCMH       2.820   1.000   P
NCCAO       2.750  -1.000   P
NCCAD       3.410   0.500   P
NCJST       3.390   1.000   P
NCJCB       4.140   1.000   P
NCCML       4.350   0.500   P
NCCAL       4.310   0.200   P
NCJAL       4.470   0.100   P
NCHSP       4.690   1.000   P
NCCMM       4.720   0.200   P
NCJHL       5.020   1.000   P
NCJRR       5.220   1.000   P
NCCDV       5.960   0.500   P
NCCMP       5.860   0.200   P
NCCMR       6.480   0.500   P
NCHCR       6.980   0.200   P
NCJPP       9.170   0.200   P
NCBSC      14.310   1.000   P
# 1985  4 13 14  1 53.47  37.2960 -121.6708    6.33 1.16  0.19  0.54  0.02      46041
NCCCO       1.850   0.200   P
NCCSC       2.850   1.000   P
NCCMH       2.660   1.000   P
NCCAO       2.780  -1.000   P
NCJST       3.420   1.000   P
NCCAD       3.610   0.500   P
NCCML       4.210   0.200   P
NCJCB       4.270   1.000   P
NCJAL       4.520   0.500   P
NCCMM       4.660   0.200   P
NCHSP       4.840   1.000   P
NCJHL       5.100   1.000   P
NCJSS       5.400   0.100   P
NCJRR       5.340   1.000   P
NCJLX       5.840   0.200   P
NCCDV       5.800   1.000   P
NCCMP       5.950   0.500   P
NCCMR       6.320   1.000   P
NCJSG       6.920   0.100   P
NCJBM       8.000   0.200   P
NCJPP       9.110   0.500   P
# 1985  5  5 16 50  5.80  37.2865 -121.6652    3.43 0.94  0.40  2.72  0.03      47288
NCCSC       2.680   0.200   P
NCCMH       2.730  -1.000   P
NCCAO       2.730  -1.000   P
NCCAO       4.910   0.100   S
NCCAD       3.500   0.200   P
NCJST       3.270   0.200   P
NCJCB       4.130   1.000   P
NCJAL       4.510   0.100   P
NCCAL       4.550   0.200   P
NCHSP       4.640   0.500   P
NCJHL       5.030   0.200   P
NCJRR       5.250   1.000   P
NCHGS       5.430   0.500   P
NCJLX       5.820   0.200   P
# 1985  6  8  4 58 49.90  37.2860 -121.6670    3.08 0.64  0.33  0.37  0.02      49151
NCCCO       1.330  -1.000   P
NCCSC       2.690   0.500   P
NCCMH       2.740  -1.000   P
NCCAO       2.740  -0.500   P
NCJST       3.330   0.200   P
NCJCB       4.150   1.000   P
NCCAL       4.360   0.100   P
NCHSP       4.650   0.200   P
NCJHL       5.040   1.000   P
NCJRR       5.250   1.000   P
NCHGW       5.560   0.100   P
NCJLX       5.860   0.200   P
# 1985  6 15  1 38 57.38  37.2933 -121.6708    3.42 0.94  0.25  0.74  0.03      49626
NCCCO       1.490  -0.500   P
NCCSC       2.620   0.500   P
NCCMH       2.600   0.500   P
NCCAO       2.750  -1.000   P
NCJST       3.400   0.500   P
NCCAD       3.550   0.100   P
NCJCB       4.250   1.000   P
NCCAL       4.130   0.100   P
NCJAL       4.500   0.200   P
NCHSP       4.830   1.000   P
NCJHL       5.070   0.200   P
NCJRR       5.320   0.500   P
# 1985  6 16  5 24 54.70  37.2860 -121.6653    4.10 1.29  0.16  0.40  0.03      49633
NCCCO       1.470  -1.000   P
NCCSC       2.750   1.000   P
NCCMH       2.760   1.000   P
NCCAO       2.710   1.000   P
NCCAD       3.330   1.000   P
NCJST       3.360   1.000   P
NCJCB       4.120   1.000   P
NCJAL       4.450   1.000   P
NCCAL       4.350   1.000   P
NCHSP       4.640   1.000   P
NCCMM       4.780   1.000   P
NCJHL       5.000   1.000   P
NCJRR       5.200   1.000   P
NCJSS       5.340   0.100   P
NCHGS       5.390   1.000   P
NCHGW       5.770   0.200   P
NCJLX       5.800   0.500   P
NCCDV       6.040   0.200   P
NCCMP       5.890   0.200   P
NCCMJ       6.180   0.500   P
NCHCA       6.920   1.000   P
NCJSG       7.020   0.100   P
NCCMR       6.580   0.200   P
NCJBC       6.890   0.100   P
NCCST       8.330   1.000   P
NCHPL       7.650   0.200   P
NCHCP       7.920   0.100   P
NCJPP       9.300   1.000   P
# 1985  7  4  3  6  5.16  37.2882 -121.6660    3.42 1.06  0.21  0.32  0.02      50591
NCCCO       1.410  -1.000   P
NCCSC       2.690   0.200   P
NCCMH       2.730   0.500   P
NCCAO       2.730  -1.000   P
NCJST       3.350   0.200   P
NCJCB       4.190   1.000   P
NCCAL       4.340  -1.000   P
NCJAL       4.450   0.100   P
NCHSP       4.710   0.200   P
NCJHL       5.040   0.500   P
NCJRR       5.280   1.000   P
NCHGS       5.460   0.100   P
NCJEC       5.870   0.100   P
NCHGW       5.870   0.500   P
NCCDV       6.070   0.100   P
NCCMR       6.610   0.200   P
NCHCP       8.120   0.100   P
# 1985  7 17 13 58 38.25  37.2870 -121.6665    3.17 1.02  0.22  0.42  0.03      51288
NCCCO       1.360  -1.000   P
NCCSC       2.710   0.500   P
NCCMH       2.730  -1.000   P
NCCAO       2.770  -1.000   P
NCJST       3.370   0.500   P
NCJCB       4.170   1.000   P
NCJAL       4.480   0.100   P
NCCAL       4.160   0.200   P
NCHSP       4.690   1.000   P
NCJHL       5.060   1.000   P
NCJRR       5.270   1.000   P
NCHGS       5.480   0.200   P
NCJEC       5.810   0.100   P
NCHGW       5.840   0.200   P
# 1985  7 17 23 39 58.85  37.2852 -121.6612    5.38 1.89  0.12  0.39  0.05      51325
NCCCO       1.670   0.200   P
NCCSC       2.940   1.000   P
NCCMH       2.880   1.000   P
NCCAO       2.730   1.000   P
NCCAO       4.870   0.100   S
NCJST       3.390   0.500   P
NCJCB       4.090   0.500   P
NCJAL       4.450   0.100   P
NCCAL       4.370   0.500   P
NCHSP       4.580   0.500   P
NCCMM       4.720   0.500   P
NCJHL       5.000   1.000   P
NCJRR       5.170   1.000   P
NCHGS       5.310   1.000   P
NCHGW       5.730   0.500   P
NCCDV       5.980   0.500   P
NCCMP       5.850   1.000   P
NCCMJ       6.160   0.100   P
NCHCA       6.850   1.000   P
NCCMR       6.500   1.000   P
NCJSG       7.020   0.200   P
NCJBC       6.870   0.500   P
NCHPR       7.270   0.100   P
NCHCR       7.010   0.100   P
NCCVA       7.310   0.500   P
NCCMN       7.320   0.200   P
NCHCB       7.320   0.100   P
NCCVL       7.880   0.200   P
NCJSC       7.670   0.200   P
NCHPL       7.560   0.200   P
NCCST       8.280   1.000   P
NCHCP       7.850   1.000   P
NCJSM       8.630   0.100   P
NCJSF       8.700   0.200   P
NCJBL       8.970   0.500   P
NCCCY       8.560   0.100   P
NCJLT       8.830   0.100   P
NCJPP       9.200   0.200   P
NCHDL       9.360   1.000   P
NCHJG      10.170   1.000   P
NCJHP      10.540   0.200   P
NCJBG      10.940   0.200   P
NCHFP      11.410   1.000   P
NCBVY      12.190   0.100   P
NCHQR      11.490   0.500   P
NCBSR      12.540   1.000   P
NCJSA      13.040   0.500   P
NCBPC      14.140   1.000   P
NCBJO      14.510   0.500   P
# 1985  7 18 23 42  1.81  37.2852 -121.6617    6.10 0.97  0.22  0.57  0.03      51378
NCCCO       1.730  -0.500   P
NCCSC       2.970   0.500   P
NCCMH       2.910   0.200   P
NCCAO       2.740  -1.000   P
NCCAO       5.090   0.100   S
NCJST       3.400   0.200   P
NCJCB       4.100   1.000   P
NCCML       4.410   0.100   P
NCJAL       4.330   0.100   P
NCCAL       4.390   0.100   P
NCHSP       4.560   0.500   P
NCCMM       4.740   0.100   P
NCJHL       5.010  -1.000   P
NCJRR       5.180   1.000   P
NCHGS       5.330  -1.000   P
NCHGW       5.720   0.200   P
NCCMP       5.840   0.200   P
NCCMJ       6.220   0.100   P
NCHOR       7.880   0.200   P
# 1985  7 19  9 58 16.96  37.2908 -121.6688    3.89 0.97  0.22  0.47  0.03      51398
NCCCO       1.500  -1.000   P
NCCSC       2.690   0.500   P
NCCMH       2.660  -1.000   P
NCCAO       2.740  -1.000   P
NCJST       3.330   1.000   P
NCJCB       4.230   1.000   P
NCCAL       4.250   0.500   P
NCJAL       4.420   0.200   P
NCHSP       4.770   1.000   P
NCJHL       5.050   1.000   P
NCJRR       5.290   1.000   P
NCHGS       5.520   0.200   P
NCJEC       5.850   0.200   P
NCHGW       5.880   0.200   P
NCCDV       5.950   0.200   P
NCHCA       7.000   0.500   P
NCCMR       6.470   0.500   P
# 1985  8  9 11 45  2.02  37.2902 -121.6665    5.67 1.60  0.14  0.32  0.03      52580
NCCCO       1.740  -1.000   P
NCCSC       2.860   1.000   P
NCCMH       2.750   1.000   P
NCCAO       2.740   1.000   P
NCCAO       4.870   0.100   S
NCJST       3.380   1.000   P
NCJCB       4.170   1.000   P
NCCML       4.270   0.500   P
NCCAL       4.250   1.000   P
NCCAL       7.760   0.100   S
NCJAL       4.470   1.000   P
NCHSP       4.720   1.000   P
NCCMM       4.270   0.500   P
NCJHL       5.030   1.000   P
NCJRR       5.250   1.000   P
NCJSS       5.390   0.500   P
NCHGS       5.420   1.000   P
NCJLX       5.750   0.500   P
NCHGW       5.820   1.000   P
NCCDV       5.910   1.000   P
NCCMJ       6.050   0.500   P
NCCMP       5.890   1.000   P
NCHCA       6.970   0.500   P
NCCMR       6.420   0.500   P
NCJSG       6.970   0.500   P
NCJBC       6.870   0.500   P
NCCVA       7.230   0.500   P
NCHPR       7.340   0.500   P
NCHCR       7.020   0.500   P
NCCVL       7.870   0.500   P
NCJSC       7.570   0.200   P
NCCST       6.100   0.100   P
NCJBM       8.230   0.200   P
NCJUC       8.190   0.100   P
NCJBL       8.790   0.500   P
NCHFH       9.420   0.500   P
NCJLT       8.840   1.000   P
NCJPP       9.200   1.000   P
NCHDL       9.450   1.000   P
NCJPS      10.580   0.200   P
NCBVY      10.840   0.100   P
NCHQR      11.620   0.200   P
NCBSR      12.610   1.000   P
NCJSA      13.030   0.200   P
NCBPC      14.360   0.500   P
NCBJO      14.620   0.500   P
# 1985  8 28 20 35 10.10  37.2892 -121.6702    3.53 1.58  0.17  0.45  0.03      54084
NCCCO       1.440  -1.000   P
NCCSC       2.660   1.000   P
NCCMH       2.640   1.000   P
NCCAO       2.760   1.000   P
NCCAD       3.450   0.500   P
NCJST       3.320   1.000   P
NCJCB       4.240   0.500   P
NCCML       4.340   1.000   P
NCCAL       4.230   0.500   P
NCJAL       4.470   1.000   P
NCHSP       4.770   1.000   P
NCJHL       5.060   1.000   P
NCJRR       5.300   1.000   P
NCJSS       5.400   1.000   P
NCHGS       5.550   1.000   P
NCJEC       5.880   1.000   P
NCJLX       5.820   0.500   P
NCHGW       5.900   1.000   P
NCCDV       6.010   1.000   P
NCCMJ       6.120   1.000   P
NCCMP       6.020   0.500   P
NCJBZ       6.760   1.000   P
NCHCA       7.040   1.000   P
NCJSG       7.020   1.000   P
NCCMR       6.540   0.500   P
NCJBC       7.090   0.200   P
NCCVA       7.310   1.000   P
NCHCR       7.130   1.000   P
NCCMN       7.340   0.500   P
NCCVL       8.010   1.000   P
NCCST       8.330   1.000   P
NCHPL       7.810   1.000   P
NCJBM       8.230   0.200   P
NCHQR      12.350   0.100   P
NCBSR      12.750   0.500   P
NCNOL      22.800   0.500   P
NCPCR      29.310   0.200   P
# 1985 10 19 16 33 20.03  37.2943 -121.6735    3.53 1.38  0.20  0.64  0.02      57271
NCCCO       1.530  -0.500   P
NCCSC       2.600   0.500   P
NCCMH       2.550   0.500   P
NCCAO       2.780  -1.000   P
NCCAO       4.930   0.100   S
NCJST       3.320   0.500   P
NCJCB       4.310   1.000   P
NCCML       4.250   0.500   P
NCCAL       4.170   0.500   P
NCJAL       4.490   0.500   P
NCHSP       4.890   1.000   P
NCJHL       5.090   1.000   P
NCJSS       5.460   0.100   P
NCJRR       5.380   1.000   P
NCJEC       5.970   1.000   P
NCHGS       5.640   0.500   P
NCCMJ       6.010   0.200   P
NCHGW       5.990   0.500   P
NCCMP       6.000   0.200   P
NCCMR       6.440   1.000   P
NCHCA       7.150   0.500   P
NCJSJ       7.660   0.500   P
NCHCR       7.260   1.000   P
NCJMG      14.400   0.100   P
