# 1985  1 24  2 19 58.71  37.8832 -122.2415    9.80 1.40  0.15  0.51  0.02      38542
NCCSP       2.850  -1.000   P
NCCBW       3.430  -1.000   P
NCCMC       2.920   0.200   P
NCCAI       3.440  -1.000   P
NCCBR       3.940   1.000   P
NCCLC       4.610   0.500   P
NCJPR       4.470   0.100   P
NCNLH       6.000   0.200   P
NCCSH       6.130   0.100   P
NCNTA       5.630   0.100   P
NCJMG       6.240   0.200   P
NCCPL       6.980   0.500   P
NCJSA       6.740   1.000   P
NCCDO       8.200   0.200   P
NCNGV       8.880   0.200   P
NCJEG       7.950   0.200   P
NCJHP       9.030   1.000   P
NCNLN       8.950  -1.000   P
NCNOL       8.940   0.100   P
NCJBG      11.190   0.100   P
NCJPP      12.240   0.100   P
NCNTB      12.500   0.100   P
# 1991 11 26 14 27 45.55  37.8738 -122.2432    9.95 1.40  0.22  0.53  0.09     238298
NCCVP       1.930  -1.000   P
NCCSP       2.920   0.500   P
NCCMC       2.780   0.500   P
NCCPI       3.470   1.000   P
NCCBW       3.430   0.500   P
NCCAI       3.470   1.000   P
NCCPM       3.410   1.000   P
NCCSL       4.180   0.200   P
NCCSV       5.030   1.000   P
NCCLC       4.560   0.500   P
NCJPR       4.560   1.000   P
NCNMI       4.920   0.500   P
NCJSB       4.870   1.000   P
NCNLH       6.050   0.200   P
NCNHF       5.720   1.000   P
NCNTA       5.650   0.500   P
NCJCP       6.110   1.000   P
NCJMG       6.190   0.500   P
NCJSA       6.670   1.000   P
NCCPL       6.940   0.500   P
NCCCY       6.890   0.500   P
NCCMO       7.990   0.200   P
NCNSP       7.680   0.500   P
NCJCH       7.560   1.000   P
NCJEG       7.870   1.000   P
NCJHP       8.870   0.100   P
NCNLN       9.040   1.000   P
NCNOL       9.040   1.000   P
NCJBG      11.050   0.500   P
NCCDV      11.150   0.500   P
NCJPP      12.340   0.200   P
NCNTB      12.540   1.000   P
NCJSM      13.300   0.500   P
# 1986 10 19 20 50 38.09  37.8802 -122.2405    9.37 1.60  0.16  0.50  0.05      86036
NCCSP       2.860  -1.000   P
NCCMC       2.820   0.500   P
NCCBW       3.420  -1.000   P
NCCAI       3.430   1.000   P
NCCLC       4.590   1.000   P
NCJPR       4.450   0.100   P
NCCDU       6.600   0.200   P
NCNLH       6.000   0.200   P
NCNTA       5.610   0.200   P
NCJMG       6.190   1.000   P
NCCPL       6.990   0.500   P
NCJSA       6.690   1.000   P
NCCCY       6.940   0.200   P
NCCMO       7.970   0.200   P
NCNSP       7.540   0.100   P
NCCAC      10.160   0.100   P
NCJEG       7.910   0.200   P
NCJHP       8.880   0.200   P
NCNLN       8.990  -1.000   P
NCCMJ       9.510   0.500   P
NCNOL       8.950   0.200   P
NCCMN      10.600   0.100   P
NCJLT      10.670   0.500   P
NCJBG      11.090   0.100   P
NCCDV      11.070   0.500   P
NCJBM      11.160   0.500   P
NCJPP      12.610   0.200   P
NCJPS      13.490   0.200   P
# 1985  8 14 18  1 55.44  37.8828 -122.2497    7.94 2.00  0.13  0.45  0.06      52942
NCCSP       2.750   0.500   P
NCCMC       2.830   0.200   P
NCCBW       3.390  -1.000   P
NCCBR       3.900   0.500   P
NCJPR       4.420   0.200   P
NCCLC       4.610   0.200   P
NCCDU       6.560   0.500   P
NCNLH       5.930  -1.000   P
NCNTA       5.520   0.200   P
NCCSH       6.230   0.100   P
NCJMG       6.180   0.200   P
NCJSA       6.690   1.000   P
NCCPL       7.010   0.500   P
NCCCY       6.970   0.100   P
NCNSP       7.500   0.100   P
NCCMO       8.010   0.200   P
NCCDO       8.310   0.200   P
NCNGV       8.580   0.100   P
NCJEG       7.920   0.200   P
NCCVL       9.300   1.000   P
NCJHP       8.940   0.100   P
NCNBR       8.840   0.100   P
NCNLN       8.890  -1.000   P
NCNOL       8.890   0.200   P
NCCMJ       9.420   0.100   P
NCJLT      11.050   0.100   P
NCJBG      11.240   0.200   P
NCCDV      11.170   0.200   P
NCJBM      10.870   0.100   P
NCNTY      11.890   0.100   P
NCJSC      11.830   0.100   P
NCNCF      11.920   0.100   P
NCJPP      12.440   1.000   P
NCNTB      12.420   0.200   P
NCJPS      13.420   0.100   P
NCJST      15.050   0.500   P
NCNHB      16.680   0.500   P
NCNFR      17.570   0.100   P
# 1985  5 27  0 43  9.07  37.8778 -122.2412    9.05 1.10  0.26  0.75  0.03      48565
NCCSP       2.850  -1.000   P
NCCMC       2.740   0.200   P
NCCBW       3.380   0.200   P
NCCAI       3.400   1.000   P
NCCBR       3.840   1.000   P
NCCLC       4.520   1.000   P
NCJPR       4.520   0.200   P
NCNLH       6.060   0.500   P
NCCRA       6.410   0.500   P
NCJMG       6.150   1.000   P
NCCPL       6.930   1.000   P
NCJSA       6.640   1.000   P
NCNLN       9.000  -1.000   P
NCNOL       9.020   0.500   P
NCJBM      11.140   0.200   P
NCJPP      12.360   1.000   P
# 1985  4  2  5 57 16.45  37.8825 -122.2420    9.44 1.90  0.12  0.30  0.04      45165
NCCSP       2.810   1.000   P
NCCMC       2.870   1.000   P
NCCBW       3.430   1.000   P
NCCAI       3.430   1.000   P
NCCBR       3.960   1.000   P
NCCLC       4.640   1.000   P
NCJPR       4.510   1.000   P
NCCDU       5.800   0.100   P
NCNLH       5.960   0.200   P
NCCRP       5.870   0.200   P
NCCRA       6.520   0.100   P
NCCSH       5.960   0.200   P
NCNTA       5.610   1.000   P
NCCPL       7.050   1.000   P
NCJSA       6.750   1.000   P
NCCCY       6.990   0.200   P
NCCMO       8.010   1.000   P
NCCDO       8.180   0.200   P
NCNSP       7.590   0.200   P
NCCAC       8.560   0.200   P
NCNGV       8.670   0.200   P
NCJEG       7.960   1.000   P
NCCVL       9.010   0.100   P
NCNHM       9.850   0.100   P
NCJHP       8.970   0.500   P
NCNBR       9.020   0.100   P
NCNLN       8.960   1.000   P
NCCVA       9.980   0.200   P
NCNOL       8.970   1.000   P
NCCMJ       9.470   1.000   P
NCCBS      10.660   0.100   P
NCJSF       9.680   0.200   P
NCNVE      10.310   0.100   P
NCJLT      11.140   0.200   P
NCJBG      11.170   0.100   P
NCCDV      11.110   0.100   P
NCCAL      11.070   0.100   P
NCCMR      11.500   0.200   P
NCJBM      11.230   0.200   P
NCJSC      11.820   0.100   P
NCNTY      11.970   0.100   P
NCJSG      12.500   0.200   P
NCNCF      11.880   0.200   P
NCJPP      12.370   0.100   P
NCCST      12.940   0.200   P
NCNTB      12.490   0.500   P
NCJSM      13.500   0.200   P
NCJPS      13.210   0.100   P
NCNSH      13.220   0.100   P
NCCSC      14.270   0.100   P
NCJBC      14.320   0.100   P
NCJBL      14.550   0.100   P
NCJST      14.650   0.100   P
NCNWR      14.740   0.100   P
NCCCO      15.840   1.000   P
NCJAL      15.100   0.100   P
NCCAD      17.200   0.500   P
NCNHB      16.790   0.200   P
NCJBZ      18.390   0.100   P
NCNFR      18.700   0.500   P
# 1985  3 19 17 15 39.62  37.8790 -122.2423    8.50 1.60  0.14  0.45  0.05      44289
NCCSP       2.790   0.500   P
NCCMC       2.750   1.000   P
NCCBW       3.380   1.000   P
NCCAI       3.400   1.000   P
NCCBR       3.850   1.000   P
NCCLC       4.530   1.000   P
NCJPR       4.370   0.100   P
NCCDU       6.470   1.000   P
NCNLH       5.970   0.100   P
NCCRP       5.830   0.100   P
NCCSH       6.260   0.500   P
NCNTA       5.590   0.100   P
NCJMG       6.170   1.000   P
NCJSA       6.650   1.000   P
NCCPL       6.930   0.200   P
NCCCY       6.900   0.100   P
NCCMO       7.930   0.100   P
NCNSP       7.620   0.100   P
NCNGV       8.850   0.100   P
NCJEG       7.870   0.200   P
NCCVL       9.300   0.200   P
NCJHP       8.940   0.100   P
NCNBR       9.080   0.100   P
NCNLN       8.940   1.000   P
NCCMJ       9.340   0.100   P
NCNOL       8.940   0.200   P
NCJBM      11.330   1.000   P
NCNCF      12.010   0.500   P
NCNTB      12.530   1.000   P
NCJSM      13.370   0.200   P
NCJPS      13.560   0.200   P
NCBHR      28.220   0.200   P
NCBPI      22.340   0.100   P
# 1985  1 24  7 41 24.78  37.8822 -122.2422    9.72 1.40  0.18  0.57  0.02      38520
NCCSP       2.840  -1.000   P
NCCMC       2.860   0.200   P
NCCBW       3.430   1.000   P
NCCAI       3.420   1.000   P
NCCBR       3.940   1.000   P
NCCLC       4.610   1.000   P
NCJPR       4.490   0.500   P
NCNLH       5.970   0.200   P
NCCSH       6.220   0.200   P
NCNTA       5.590   0.200   P
NCJMG       6.210   0.500   P
NCCPL       7.020   0.500   P
NCJSA       6.720   1.000   P
NCCMO       8.010   0.200   P
NCCDO       8.250   0.200   P
NCJEG       7.940   0.500   P
NCJHP       8.930   0.200   P
NCNLN       8.950  -1.000   P
NCNOL       8.950   0.500   P
NCCMJ       9.480   0.100   P
NCJBM      11.240   0.200   P
NCJSC      11.880   0.100   P
NCJSG      12.590   0.200   P
# 1996 11  9  7  8 36.70  37.8810 -122.2457    9.14 1.10  0.55  0.56  0.03     484120
NCCVP       1.860  -1.000   P
NCCVP       3.340   0.100   S
NCCSP       2.770   0.200   P
NCCMC       2.810   0.100   P
NCCBW       3.360   0.200   P
NCCAI       3.360  -0.500   P
NCCBR       3.920   0.500   P
NCCSL       4.080   0.100   P
NCCLC       4.710   0.500   P
NCNRL       8.350   0.100   S
NCJSB       4.810   0.100   P
NCNHF       5.490   0.200   P
NCCGP       6.340   0.200   P
NCJMG       6.170   0.100   P
NCJSA       6.690  -1.000   P
NCNOL       8.810   0.100   P
# 1996  5 31  8 36 47.55  37.8745 -122.2415    9.51 1.80  0.14  0.42  0.07   30107759
NCCVP       3.450   0.100   S
NCCSP       2.950   0.500   P
NCCMC       2.780   1.000   P
NCCYB       4.880   0.100   S
NCCAI       3.490   1.000   P
NCCBR       3.860   1.000   P
NCCBR       7.060   0.100   S
NCCCH1      3.980   1.000   P
NCCSL       7.300   0.100   S
NCCSV       5.040   1.000   P
NCCLC       4.570   1.000   P
NCJPR       4.520   0.500   P
NCJSB       8.350   0.100   S
NCJSB       4.890   1.000   P
NCNRL       5.030   1.000   P
NCNRL       8.550   0.100   S
NCCDU       6.520   0.200   P
NCNLH       6.070   0.500   P
NCNHF       5.770   1.000   P
NCNTA       5.700   1.000   P
NCCGP       6.350   0.500   P
NCJCP       6.130   1.000   P
NCJMG       6.210   1.000   P
NCJSA       6.700   1.000   P
NCCCY       6.900   0.500   P
NCCDO       8.150   0.100   P
NCCMO       8.000   1.000   P
NCJSP       7.200   1.000   P
NCNSP       7.670   0.100   P
NCJCH       7.570   0.500   P
NCNBO       7.740   0.200   P
NCNGV       8.450   0.100   P
NCJHP       8.880   1.000   P
NCCMW1      8.950   0.200   P
NCCMW1     15.310   0.100   S
NCCMJ       9.410   0.500   P
NCNLN       9.090   1.000   P
NCNOL       9.070   0.500   P
NCJSF       9.590   0.500   P
NCNVE      10.240   0.100   P
NCJJR      10.630   0.100   P
NCJBG      11.050   0.200   P
NCCDV      11.070   0.200   P
NCCAL      11.260   0.100   P
NCJSJ      11.290   0.100   P
NCJBM      11.150   0.200   P
NCNAP      11.290   0.200   P
NCJSC      11.680   0.200   P
NCJSG      12.430   0.200   P
NCJPP      12.280   0.500   P
NCNTY      12.100   0.100   P
NCNAD      13.110   0.100   P
NCNCF      11.970   0.100   P
NCNPR      12.090   0.100   P
NCNFI      11.980   0.100   P
NCCST      12.770   0.100   P
NCNTB      11.960   0.100   P
NCJSM      13.070   0.100   P
NCJPS      13.260   0.100   P
NCNIM      13.660   0.200   P
NCJLX      13.570   0.100   P
NCJSS      14.500   0.100   P
NCJBN      15.930   0.200   P
NCCCO      15.230   0.100   P
NCJUM      14.710   0.100   P
NCCAO      14.760   0.100   P
NCNFR      18.610   0.200   P
# 1994 12 26 11 36 28.18  37.8752 -122.2452    9.58 1.60  0.14  0.33  0.09   30065107
NCCVP       1.930   1.000   P
NCCVP       3.420   0.200   S
NCCSP       2.860   0.200   P
NCCMC       2.810   1.000   P
NCCYB       2.860   1.000   P
NCCYB       4.890   0.200   S
NCCPI       3.410   1.000   P
NCCBW       3.430   0.500   P
NCCAI       3.440   1.000   P
NCCPM       3.360   1.000   P
NCCBR       3.890   1.000   P
NCCSL       4.140   0.200   P
NCCSL       7.320   0.200   S
NCCSV       5.030   1.000   P
NCCLC       4.600   1.000   P
NCJPR       4.490   0.200   P
NCNMI       4.880   1.000   P
NCJSB       4.890   1.000   P
NCNLH       5.960   0.200   P
NCCRP       5.890   0.500   P
NCNHF       5.660   1.000   P
NCNTA       5.610   1.000   P
NCJCP       6.130   1.000   P
NCCGP       6.360   0.200   P
NCJMG       6.200   1.000   P
NCJSA       6.700   1.000   P
NCCCY       6.920   0.500   P
NCCNI       7.340   0.200   P
NCNSP       7.540   0.200   P
NCNBO       7.670   0.200   P
NCJEG       7.860   0.200   P
NCNGV       8.800   0.100   P
NCJHP       8.910   0.500   P
NCNLN       8.980   1.000   P
NCNOL       8.990   1.000   P
NCJSF       9.680   0.200   P
NCCMN      10.700   0.100   P
NCJJR      10.620   0.100   P
NCJBG      11.210   0.100   P
NCCDV      11.070   0.500   P
NCJSJ      11.340   0.200   P
NCJBM      11.180   0.200   P
NCJSC      11.830   0.500   P
NCJSG      12.450   0.100   P
NCJPP      12.300   0.100   P
NCNCF      11.900   0.100   P
NCNTB      12.520   0.500   P
NCJSM      13.350   0.200   P
NCJPS      13.400   0.100   P
NCJST      14.720   0.200   P
NCJNA      14.910   0.200   P
NCJAL      15.080   0.500   P
NCCAD      16.800   0.100   P
# 1994  9 18 13  9  1.01  37.8685 -122.2420    8.94 1.00  0.25  0.68  0.06   30058032
NCCVP       1.840   0.500   P
NCCVP       3.330   0.200   S
NCCMC       2.740   0.500   P
NCCSP       2.780   0.200   P
NCCBW       3.350   0.500   P
NCCPI       3.330  -1.000   P
NCCAI       3.350  -1.000   P
NCCSV       4.990  -1.000   P
NCJSB       4.810   1.000   P
NCNHF       5.560   0.500   P
NCJCP       6.060   1.000   P
NCNTA       5.530   0.100   P
NCJMG       6.120   0.500   P
NCJSA       6.610   1.000   P
NCCNI       7.270   0.100   P
NCJCH       7.510   1.000   P
NCNBO       7.550   0.200   P
NCJEG       7.810   0.100   P
NCJHP       8.890   0.200   P
NCNOL       8.890   0.200   P
NCJPP      12.230   0.200   P
# 1994  5 12  8 58 13.72  37.8775 -122.2468    9.22 1.60  0.18  0.44  0.08     402094
NCCVP       1.910  -1.000   P
NCCVP       3.370   0.100   S
NCCSP       2.760   0.500   P
NCCMC       2.840   1.000   P
NCCPI       3.330   1.000   P
NCCYB       4.880   0.100   S
NCCYB       2.840   1.000   P
NCCBW       3.420   1.000   P
NCCAI       3.380   1.000   P
NCCPM       3.250   1.000   P
NCCBR       3.950   0.200   P
NCCSL       4.250   0.500   P
NCCSV       5.070   1.000   P
NCJPR       4.500   1.000   P
NCNMI       4.760   1.000   P
NCCLC       4.630   0.500   P
NCJSB       4.900   1.000   P
NCNLH       5.830   0.200   P
NCCRP       5.920   0.200   P
NCNHF       5.570   0.500   P
NCNTA       5.540   0.500   P
NCJCP       6.190   1.000   P
NCCGP       6.540   0.200   P
NCJMG       6.240   0.200   P
NCJSA       6.740   1.000   P
NCCCY       7.020   0.200   P
NCCNI       7.440   0.200   P
NCNSP       7.480   0.200   P
NCJCH       7.640   0.200   P
NCNBO       7.610   0.100   P
NCJEG       7.960   0.100   P
NCNGV       8.730   0.200   P
NCNLN       8.890   0.500   P
NCNOL       8.910   0.200   P
NCNTB      12.480   0.500   P
# 1993 11 13 16 27  4.11  37.8783 -122.2468    9.61 2.00  0.16  0.39  0.09   30034705
NCCVP       1.950   1.000   P
NCCVP       3.470   0.200   S
NCCSP       2.820   1.000   P
NCCMC       2.830   0.500   P
NCCPI       3.390   1.000   P
NCCYB       2.870   1.000   P
NCCYB       4.920   0.100   S
NCCBW       3.450   1.000   P
NCCAI       3.430   1.000   P
NCCPM       3.330   1.000   P
NCCBR       3.950   1.000   P
NCCSL       4.130   0.100   P
NCCSV       5.060   1.000   P
NCNMI       4.840   1.000   P
NCJPR       4.590   0.500   P
NCCLC       4.630   1.000   P
NCJSB       4.920   1.000   P
NCNHF       5.640   1.000   P
NCNTA       5.600   1.000   P
NCJCP       6.180   1.000   P
NCCGP       6.410   0.500   P
NCJMG       6.220   1.000   P
NCJSA       6.730   1.000   P
NCCCY       7.340   0.200   P
NCCNI       7.400   0.500   P
NCCMO       7.980   0.200   P
NCNSP       7.520   0.500   P
NCJCH       7.630   1.000   P
NCJEG       7.940   1.000   P
NCJHP       8.930   0.200   P
NCNBR       9.000   0.200   P
NCNLN       8.950   1.000   P
NCNOL       8.970   0.200   P
NCCMJ       9.480   0.500   P
NCCVA      10.260   0.200   P
NCCBS      10.870   0.500   P
NCNVE      10.360   0.500   P
NCJJR      10.660   0.500   P
NCCDV      11.100   0.500   P
NCJSJ      10.980   0.200   P
NCNAP      11.210   0.200   P
NCCMR      11.810   0.200   P
NCJBM      11.210   0.500   P
NCJSC      11.910   1.000   P
NCNTY      12.130   0.200   P
NCJPP      12.330   1.000   P
NCCST      12.980   0.100   P
NCNTB      12.490   1.000   P
NCJSM      13.430   1.000   P
NCNIM      13.510   0.500   P
NCNSH      13.270   0.500   P
NCJST      14.880   0.100   P
NCJHL      15.660   0.500   P
NCNMC      16.620   0.200   P
# 1992  1 10 14 39 51.84  37.8785 -122.2490    9.55 1.80  0.19  0.45  0.08     242668
NCCVP       1.910  -1.000   P
NCCSP       2.810   1.000   P
NCCMC       2.850   0.500   P
NCCPI       3.360   1.000   P
NCCBW       3.430   0.500   P
NCCAI       3.400   1.000   P
NCCPM       3.290   1.000   P
NCCBR       3.950   1.000   P
NCCSL       4.260   0.500   P
NCCSV       5.070   1.000   P
NCJPR       4.470   0.200   P
NCNMI       4.830   1.000   P
NCCLC       4.650   1.000   P
NCJSB       4.910   1.000   P
NCCDU       6.580   0.200   P
NCNLH       5.970   0.500   P
NCNHF       5.600   1.000   P
NCNTA       5.570   0.500   P
NCJSA       6.720   1.000   P
NCCPL       7.050   0.200   P
NCCCY       6.960   0.200   P
NCCDO       8.290   0.200   P
NCNSP       7.590   0.500   P
NCJCH       7.620   1.000   P
NCJEG       7.950   0.500   P
NCNGV       8.820   0.200   P
NCJHP       9.020   1.000   P
NCNLN       8.930   1.000   P
NCNOL       8.940   1.000   P
NCCMJ       9.480   0.200   P
NCCVA       9.910   0.200   P
NCJPP      12.490   0.100   P
NCNCF      11.940   1.000   P
NCNTB      12.500   1.000   P
NCNWR      14.920   0.500   P
NCNMC      16.590   0.200   P
NCNFR      18.200   0.100   P
# 1991 12 29  1 16  1.32  37.8742 -122.2435    9.61 1.20  0.21  0.46  0.08     242027
NCCVP       1.920  -1.000   P
NCCVP       3.420   0.100   S
NCCSP       2.890   0.500   P
NCCMC       2.820   0.200   P
NCCPI       3.420   0.500   P
NCCBW       3.450   0.500   P
NCCAI       3.450   1.000   P
NCCPM       3.360   0.500   P
NCCBR       3.610   0.200   P
NCCSL       3.930   0.200   P
NCCSL       7.700   0.100   S
NCCSV       5.040  -1.000   P
NCCLC       4.580   0.500   P
NCJPR       4.550   0.200   P
NCJSB       4.890   1.000   P
NCNHF       5.680   0.500   P
NCNTA       5.620   0.200   P
NCJMG       6.200   0.200   P
NCJSA       6.690   1.000   P
NCCCY       6.960   0.200   P
NCCDO       8.250   0.200   P
NCJCH       7.590   1.000   P
NCCVL       9.330   0.200   P
NCJHP       8.960   0.200   P
NCCMJ       9.530   0.100   P
NCNOL       8.990   0.500   P
NCCDV      10.670   0.100   P
