# 2016 10 18  0 25  6.01  42.6893   13.2962    3.92  0.00  0.49  1.03  0.37    113890 E
YRED23        1.760   1.000   P HH
YRED23        2.920   1.000   S HH
IVT1299       1.590   1.000   P EH
IVT1299       2.930   1.000   S EH
YRED24        2.070   1.000   P HH
YRED24        3.800   1.000   S HH
IVT1214       2.360   1.000   P EH
IVT1214       4.300   1.000   S EH
YRED25        2.860   1.000   P HH
YRED25        4.790   1.000   S HH
IVT1243       2.750   1.000   P HH
IVT1243       4.980   1.000   S HH
YRED03        3.090   1.000   P HH
YRED03        4.790   1.000   S HH
YRED20        3.050   1.000   P HH
YRED20        4.980   1.000   S HH
YRED07        3.390   1.000   P HH
YRED07        5.700   1.000   S HH
YRED09        3.330   1.000   P HH
YRED09        5.850   1.000   S HH
IVT1246       5.380   1.000   P HH
IVT1246       7.050   1.000   S HH
IVNRCA        7.960   1.000   S HH
IVTERO        8.790   1.000   S HH
# 2016 10 18  0 25 21.43  42.8498   13.2580    1.60  0.00  1.14  3.58  0.96    113891 E
IVT1245       1.030   1.000   P HH
IVT1245       2.120   1.000   S HH
IVMMO1        1.600   1.000   P EH
IVMMO1        3.110   1.000   S EH
IVMC2         2.960   1.000   P EH
IVMC2         3.060   1.000   S EH
IVNRCA        1.880   1.000   P HH
IVNRCA        6.160   1.000   S HH
YRED19        1.850   1.000   P HH
YRED19        3.600   1.000   S HH
YRED10        4.310   1.000   S HH
YRED17        4.220   1.000   P HH
YRED22        3.590   1.000   P HH
YRED20        4.310   1.000   P HH
YRED20        6.820   1.000   S HH
IVT1212       5.680   1.000   P EH
IVT1212       8.970   1.000   S EH
YRED24        5.770   1.000   S HH
IVT1243       5.040   1.000   P HH
IVT1243       7.110   1.000   S HH
YRED11        5.760   1.000   P HH
YRED11        8.550   1.000   S HH
YRED03        4.440   1.000   P HH
# 2016 10 18  0 25 34.07  42.6655   13.3035    2.00  0.00  2.50 41.66  0.49    113892 E
YRED24        2.350   1.000   P HH
YRED24        3.830   1.000   S HH
YRED03        2.110   1.000   P HH
YRED03        4.470   1.000   S HH
IVT1243       5.150   1.000   S HH
YRED20        2.810   1.000   P HH
YRED20        5.210   1.000   S HH
IVT1218       4.970   1.000   P EH
IVT1218       5.530   1.000   S EH
IVT1212       5.030   1.000   P EH
# 2016 10 18  0 26  1.26  42.8643   13.1097    5.94  0.00  1.47  2.56  0.82    113893 E
IVNRCA        1.620   1.000   P HH
IVNRCA        2.700   1.000   S HH
IVT1245       2.200   1.000   P HH
IVT1245       2.940   1.000   S HH
YRED19        2.210   1.000   P HH
YRED19        3.530   1.000   S HH
IVT1216       1.610   1.000   P EH
IVT1216       2.780   1.000   S EH
IVMC2         3.620   1.000   P EH
IVMC2         4.800   1.000   S EH
YRED12        2.640   1.000   P HH
YRED12        4.530   1.000   S HH
IVT1212       5.610   1.000   S EH
IVT1214       5.660   1.000   S EH
YRED16        4.240   1.000   P HH
YRED16        5.700   1.000   S HH
YRED18        4.600   1.000   P HH
YRED18        6.500   1.000   S HH
IVMMO1        3.830   1.000   P EH
IVMMO1        5.200   1.000   S EH
YRED17        4.240   1.000   P HH
YRED17        5.900   1.000   S HH
IVT1215       9.730   1.000   S EH
IVT1218       5.270   1.000   P EH
YRED21        5.440   1.000   P HH
YRED21        7.690   1.000   S HH
YRED22        5.200   1.000   P HH
YRED22        7.580   1.000   S HH
# 2016 10 18  0 26 34.09  42.8975   13.2418    2.69  0.00  0.61  2.35  0.27    113894 E
IVMC2         1.570   1.000   P EH
IVMC2         2.590   1.000   S EH
IVT1245       1.570   1.000   P HH
IVT1245       2.830   1.000   S HH
IVMMO1        1.720   1.000   P EH
IVMMO1        3.100   1.000   S EH
YRED19        1.960   1.000   P HH
YRED19        3.640   1.000   S HH
YRED17        2.130   1.000   P HH
YRED17        3.800   1.000   S HH
YRED18        2.660   1.000   P HH
YRED18        4.400   1.000   S HH
YRED22        2.580   1.000   P HH
YRED22        5.520   1.000   S HH
YRED21        5.640   1.000   S HH
IVT1214       0.460   1.000   P EH
IVT1214       1.260   1.000   S EH
# 2016 10 18  0 26 48.52  42.7163   13.2123    9.76  0.00  0.60  1.98  0.70    113895 E
IVT1202       2.950   1.000   P EH
IVT1214       0.940   1.000   P EH
YRED23        3.650   1.000   P HH
YRED24        2.850   1.000   P HH
YRED24        4.410   1.000   S HH
YRED10        1.130   1.000   P HH
YRED10        2.090   1.000   S HH
IVT1218       3.200   1.000   P EH
IVT1218       5.010   1.000   S EH
IVT1299       3.250   1.000   P EH
IVT1299       5.080   1.000   S EH
YRED03        3.270   1.000   P HH
YRED03        5.130   1.000   S HH
IVT1212       2.300   1.000   P EH
IVT1212       4.250   1.000   S EH
YRED11        4.050   1.000   P HH
YRED11        6.640   1.000   S HH
IVNRCA        2.070   1.000   P HH
IVNRCA        3.890   1.000   S HH
YRED16        2.710   1.000   P HH
IVT1245       2.280   1.000   P HH
IVT1245       4.380   1.000   S HH
YRED04        6.380   1.000   S HH
YRED25        4.190   1.000   P HH
YRED25        6.820   1.000   S HH
YRED20        4.750   1.000   P HH
YRED20        7.710   1.000   S HH
IVLNSS        4.320   1.000   P HH
IVLNSS        7.200   1.000   S HH
IVT1243       4.760   1.000   P HH
IVT1243       7.730   1.000   S HH
YRED09        3.550   1.000   P HH
YRED09        8.290   1.000   S HH
YRED12        3.350   1.000   P HH
YRED12        6.160   1.000   S HH
IVMC2         9.040   1.000   S EH
IVMMO1        3.610   1.000   P EH
IVMMO1        7.030   1.000   S EH
YRED07        5.040   1.000   P HH
YRED07        8.360   1.000   S HH
IVT1217       5.300   1.000   P EH
IVT1217       8.850   1.000   S EH
YRED01        4.670   1.000   P HH
YRED01        8.040   1.000   S HH
YRED19        9.250   1.000   S HH
YRED02        5.410   1.000   P HH
YRED02        9.150   1.000   S HH
IVT1246       4.890   1.000   P HH
IVT1246       9.250   1.000   S HH
YRED05        9.470   1.000   S HH
YRED17        4.610   1.000   P HH
YRED17        8.820   1.000   S HH
IVT1215      11.010   1.000   S EH
YRED18       10.520   1.000   S HH
YRED08        6.160   1.000   P HH
YRED08       10.560   1.000   S HH
IVTERO        6.490   1.000   P HH
IVTERO       11.040   1.000   S HH
YRED21       11.860   1.000   S HH
YRED14        6.700   1.000   P HH
YRED14       11.330   1.000   S HH
IVT1211       6.920   1.000   P EH
IVT1211      11.670   1.000   S EH
IVCSP1       12.480   1.000   S EH
IVOFFI       10.130   1.000   P HH
IVFIAM        8.820   1.000   P HH
IVFIAM       15.030   1.000   S HH
# 2016 10 18  0 27 14.65  42.8660   13.1190    6.57  0.00  0.51  0.81  0.26    113896 E
IVNRCA        1.770   1.000   P HH
IVNRCA        3.190   1.000   S HH
IVT1245       2.120   1.000   P HH
IVT1245       3.950   1.000   S HH
YRED19        2.030   1.000   P HH
YRED19        3.660   1.000   S HH
IVMC2         4.400   1.000   S EH
YRED10        2.460   1.000   P HH
YRED10        4.410   1.000   S HH
YRED12        2.880   1.000   P HH
YRED12        5.080   1.000   S HH
IVT1212       3.010   1.000   P EH
IVT1212       5.510   1.000   S EH
YRED16        6.450   1.000   S HH
YRED18        3.790   1.000   P HH
YRED18        6.550   1.000   S HH
IVMMO1        4.870   1.000   P EH
IVMMO1        6.500   1.000   S EH
YRED17        3.740   1.000   P HH
YRED17        6.820   1.000   S HH
IVT1218       4.510   1.000   P EH
IVT1218       7.620   1.000   S EH
YRED21        4.180   1.000   P HH
YRED21        7.730   1.000   S HH
YRED24        8.710   1.000   S HH
IVCSP1        4.870   1.000   P EH
IVCSP1        8.940   1.000   S EH
YRED20        9.700   1.000   S HH
# 2016 10 18  0 28  0.17  42.8173   13.0073    3.28  0.00  4.84 15.31  0.97    113897 E
IVT1216       0.680   1.000   P EH
IVT1216       2.360   1.000   S EH
IVT1217       5.140   1.000   S EH
IVT1245       4.110   1.000   P HH
IVT1245       4.960   1.000   S HH
YRED19        4.470   1.000   P HH
YRED19        6.550   1.000   S HH
YRED16        4.770   1.000   P HH
IVMMO1        3.840   1.000   P EH
YRED17        4.020   1.000   P HH
YRED01        6.860   1.000   P HH
YRED25        5.920   1.000   P HH
YRED07        7.180   1.000   P HH
YRED05        6.940   1.000   P HH
# 2016 10 18  0 28  4.69  42.7330   13.1888    3.92  0.00  0.23  0.39  0.26    113898 E
IVT1214       1.260   1.000   P EH
IVT1214       2.300   1.000   S EH
IVT1202       1.560   1.000   P EH
IVT1202       2.820   1.000   S EH
YRED10        1.610   1.000   P HH
YRED10        2.800   1.000   S HH
YRED23        2.210   1.000   P HH
YRED23        4.170   1.000   S HH
YRED24        2.040   1.000   P HH
YRED24        3.760   1.000   S HH
IVT1218       2.270   1.000   P EH
IVT1218       4.020   1.000   S EH
IVT1212       2.540   1.000   P EH
IVT1212       4.640   1.000   S EH
IVNRCA        2.590   1.000   P HH
IVNRCA        4.550   1.000   S HH
IVT1299       3.080   1.000   P EH
IVT1299       5.560   1.000   S EH
YRED11        2.840   1.000   P HH
YRED11        5.340   1.000   S HH
IVT1245       6.010   1.000   S HH
YRED03        3.140   1.000   P HH
YRED03        5.600   1.000   S HH
YRED16        5.710   1.000   S HH
IVLNSS        3.690   1.000   P HH
IVLNSS        6.860   1.000   S HH
YRED12        3.720   1.000   P HH
YRED12        7.070   1.000   S HH
IVMC2         7.580   1.000   S EH
YRED20        3.730   1.000   P HH
YRED20        7.000   1.000   S HH
YRED09        3.850   1.000   P HH
YRED09        7.260   1.000   S HH
IVT1217       7.660   1.000   S EH
IVT1243       4.060   1.000   P HH
IVT1243       7.350   1.000   S HH
IVMMO1        4.240   1.000   P EH
IVMMO1        7.630   1.000   S EH
IVT1216       7.630   1.000   S EH
YRED01        8.460   1.000   S HH
YRED07        4.920   1.000   P HH
YRED07        8.780   1.000   S HH
YRED02        4.770   1.000   P HH
YRED02        8.740   1.000   S HH
IVT1215       9.130   1.000   S EH
YRED17        5.260   1.000   P HH
YRED17        9.380   1.000   S HH
YRED18       10.060   1.000   S HH
IVT1246       5.420   1.000   P HH
IVT1246       9.830   1.000   S HH
YRED05       10.700   1.000   S HH
IVTERO        6.200   1.000   P HH
IVTERO       11.440   1.000   S HH
# 2016 10 18  0 28 20.16  42.7478   13.1853    4.11  0.00  0.22  0.83  0.28    113899 E
IVT1214       1.150   1.000   P EH
IVT1214       2.000   1.000   S EH
YRED10        1.380   1.000   P HH
YRED10        2.400   1.000   S HH
IVT1202       1.650   1.000   P EH
IVT1202       3.050   1.000   S EH
YRED23        2.230   1.000   P HH
YRED23        4.200   1.000   S HH
YRED24        2.240   1.000   P HH
YRED24        4.160   1.000   S HH
IVT1218       2.390   1.000   P EH
IVT1218       4.170   1.000   S EH
IVNRCA        2.410   1.000   P HH
IVNRCA        4.490   1.000   S HH
IVT1212       2.510   1.000   P EH
IVT1212       4.430   1.000   S EH
IVT1245       4.800   1.000   S HH
YRED16        2.920   1.000   P HH
YRED16        5.410   1.000   S HH
YRED11        2.870   1.000   P HH
YRED11        5.410   1.000   S HH
IVT1299       3.290   1.000   P EH
IVT1299       6.230   1.000   S EH
YRED03        3.230   1.000   P HH
YRED03        6.000   1.000   S HH
IVMC2         7.030   1.000   S EH
YRED12        3.630   1.000   P HH
YRED12        6.480   1.000   S HH
YRED19        3.820   1.000   P HH
YRED19        7.090   1.000   S HH
IVLNSS        3.840   1.000   P HH
IVLNSS        7.150   1.000   S HH
YRED09        3.820   1.000   P HH
YRED09        6.990   1.000   S HH
IVMMO1        3.990   1.000   P EH
IVMMO1        7.210   1.000   S EH
YRED20        3.810   1.000   P HH
YRED20        7.030   1.000   S HH
IVT1216       2.760   1.000   P EH
IVT1216       7.250   1.000   S EH
IVT1217       4.170   1.000   P EH
IVT1217       7.610   1.000   S EH
YRED25        4.640   1.000   P HH
YRED25        8.440   1.000   S HH
IVT1243       4.160   1.000   P HH
IVT1243       7.530   1.000   S HH
YRED01        4.840   1.000   P HH
YRED01        9.040   1.000   S HH
YRED17        4.880   1.000   P HH
YRED17        8.890   1.000   S HH
YRED02        4.820   1.000   P HH
YRED02        8.850   1.000   S HH
YRED07        4.950   1.000   P HH
YRED07        9.030   1.000   S HH
IVT1215       4.830   1.000   P EH
IVT1215       8.850   1.000   S EH
YRED18        9.320   1.000   S HH
YRED22        6.080   1.000   P HH
YRED22       10.810   1.000   S HH
IVT1246       5.550   1.000   P HH
IVT1246      10.240   1.000   S HH
YRED21        5.900   1.000   P HH
YRED21       10.630   1.000   S HH
YRED05       11.240   1.000   S HH
IVTERO        6.420   1.000   P HH
IVTERO       11.770   1.000   S HH
IVCSP1        6.860   1.000   P EH
IVCSP1       12.710   1.000   S EH
YRED14       12.840   1.000   S HH
# 2016 10 18  0 28 47.66  42.8080   13.1808    7.49  0.00  0.25  0.66  0.30    113900 E
YRED10        2.010   1.000   P HH
YRED10        3.410   1.000   S HH
IVT1245       2.190   1.000   P HH
IVT1245       3.990   1.000   S HH
IVT1214       2.200   1.000   P EH
IVT1214       3.980   1.000   S EH
IVNRCA        2.100   1.000   P HH
IVNRCA        3.770   1.000   S HH
YRED16        2.850   1.000   P HH
YRED16        5.150   1.000   S HH
YRED23        2.990   1.000   P HH
YRED23        5.500   1.000   S HH
IVMC2         1.520   1.000   P EH
IVMC2         5.280   1.000   S EH
IVT1202       3.070   1.000   P EH
IVT1202       5.580   1.000   S EH
IVT1212       2.890   1.000   P EH
IVT1212       5.210   1.000   S EH
YRED19        3.010   1.000   P HH
YRED19        5.360   1.000   S HH
IVMMO1        3.480   1.000   P EH
IVMMO1        6.190   1.000   S EH
IVT1216       3.310   1.000   P EH
IVT1218       3.440   1.000   P EH
IVT1218       6.190   1.000   S EH
YRED12        3.410   1.000   P HH
YRED12        6.700   1.000   S HH
YRED24        3.570   1.000   P HH
YRED24        6.580   1.000   S HH
YRED11        3.630   1.000   P HH
YRED11        6.540   1.000   S HH
YRED09        3.890   1.000   P HH
YRED09        7.010   1.000   S HH
YRED17        1.750   1.000   P HH
YRED17        7.250   1.000   S HH
YRED18        2.770   1.000   P HH
YRED18        7.620   1.000   S HH
IVT1299       4.270   1.000   P EH
IVT1299       7.770   1.000   S EH
YRED20        4.240   1.000   P HH
YRED20        7.500   1.000   S HH
YRED03        4.490   1.000   P HH
YRED03        8.330   1.000   S HH
IVT1217       4.380   1.000   P EH
IVT1217       8.140   1.000   S EH
YRED22        3.490   1.000   P HH
YRED22        8.730   1.000   S HH
IVT1243       4.680   1.000   P HH
IVT1243       8.470   1.000   S HH
IVLNSS        4.770   1.000   P HH
IVLNSS        8.700   1.000   S HH
IVT1215       4.640   1.000   P EH
IVT1215       8.770   1.000   S EH
YRED21        3.880   1.000   P HH
YRED21        8.850   1.000   S HH
YRED25        5.130   1.000   P HH
YRED25        9.140   1.000   S HH
YRED07        5.590   1.000   P HH
YRED07       10.120   1.000   S HH
YRED02        5.450   1.000   P HH
YRED02        9.940   1.000   S HH
IVCESI        5.050   1.000   P HH
IVCESI       10.420   1.000   S HH
IVCSP1        6.320   1.000   P EH
IVCSP1       10.690   1.000   S EH
YRED01        6.020   1.000   P HH
YRED01       10.500   1.000   S HH
IVT1246       6.260   1.000   P HH
IVT1246      11.440   1.000   S HH
YRED05        7.440   1.000   P HH
YRED05       12.780   1.000   S HH
IVTERO        6.870   1.000   P HH
IVTERO       12.620   1.000   S HH
IVT1211       7.460   1.000   P EH
IVT1211      13.020   1.000   S EH
IVOFFI        8.630   1.000   P HH
YRED15        7.900   1.000   P HH
YRED15       13.360   1.000   S HH
YRED14        8.280   1.000   P HH
# 2016 10 18  0 29  7.50  42.7995   13.2057    4.13  0.00  0.61  2.01  0.25    113901 E
IVT1245       1.730   1.000   P HH
IVT1245       3.410   1.000   S HH
IVNRCA        2.180   1.000   P HH
IVNRCA        3.710   1.000   S HH
YRED16        4.280   1.000   S HH
IVMC2         5.440   1.000   S EH
IVT1212       3.210   1.000   P EH
IVT1212       5.520   1.000   S EH
IVMMO1        3.250   1.000   P EH
IVMMO1        5.650   1.000   S EH
YRED20        3.810   1.000   P HH
YRED20        6.720   1.000   S HH
YRED25       11.860   1.000   S HH
# 2016 10 18  0 29 13.71  42.7988   13.2088    6.14  0.00  0.44  1.21  0.32    113902 E
IVT1214       1.930   1.000   P EH
IVT1214       3.480   1.000   S EH
YRED10        1.960   1.000   P HH
IVT1245       2.080   1.000   P HH
IVT1245       3.600   1.000   S HH
IVNRCA        2.290   1.000   P HH
IVNRCA        3.810   1.000   S HH
YRED16        2.530   1.000   P HH
YRED16        4.400   1.000   S HH
IVT1212       3.280   1.000   P EH
IVT1212       5.650   1.000   S EH
YRED19        5.610   1.000   S HH
IVMMO1        3.340   1.000   P EH
IVMMO1        5.800   1.000   S EH
IVT1218       7.250   1.000   S EH
YRED11        7.280   1.000   S HH
YRED20        3.910   1.000   P HH
YRED20        6.900   1.000   S HH
YRED17        7.430   1.000   S HH
YRED18        4.470   1.000   P HH
IVT1217       8.920   1.000   S EH
YRED25        4.110   1.000   P HH
IVT1246       4.890   1.000   P HH
IVT1246      11.100   1.000   S HH
IVTERO        5.960   1.000   P HH
# 2016 10 18  0 29 25.29  42.7560   13.1223    2.56  0.00  2.34  5.15  0.70    113903 E
IVT1218       2.790   1.000   P EH
IVT1218       3.150   1.000   S EH
IVT1245       3.340   1.000   P HH
IVT1245       4.700   1.000   S HH
YRED12        5.570   1.000   S HH
IVMC2         6.550   1.000   S EH
YRED19        2.670   1.000   P HH
YRED19        4.510   1.000   S HH
IVMMO1        8.540   1.000   S EH
YRED17        5.210   1.000   P HH
YRED17        8.510   1.000   S HH
# 2016 10 18  0 29 41.10  42.7870   13.2270    7.08  0.00  0.65  1.85  0.30    113904 E
YRED10        3.220   1.000   P HH
YRED10        4.070   1.000   S HH
IVT1245       2.570   1.000   P HH
IVT1245       4.630   1.000   S HH
IVNRCA        2.660   1.000   P HH
IVNRCA        4.690   1.000   S HH
IVMMO1        3.380   1.000   P EH
IVMMO1        6.070   1.000   S EH
IVT1212       3.420   1.000   P EH
IVT1212       6.120   1.000   S EH
IVT1218       2.880   1.000   P EH
YRED19        3.520   1.000   P HH
YRED19        5.930   1.000   S HH
YRED20        6.480   1.000   S HH
YRED12        7.280   1.000   S HH
YRED17        7.390   1.000   S HH
YRED18        8.160   1.000   S HH
