# 2016 10 18  0 18 41.05  42.7753   13.1478    2.65  0.00  0.30  0.65  0.35    113877 E
YRED10        0.180   1.000   P HH
YRED10        0.470   1.000   S HH
IVT1214       1.100   1.000   P EH
IVT1214       2.320   1.000   S EH
IVNRCA        1.590   1.000   P HH
IVNRCA        3.250   1.000   S HH
IVT1212       1.850   1.000   P EH
IVT1212       3.560   1.000   S EH
IVT1245       2.000   1.000   P HH
IVT1245       3.900   1.000   S HH
IVT1202       2.130   1.000   P EH
IVT1202       4.270   1.000   S EH
YRED23        2.700   1.000   P HH
YRED23        5.320   1.000   S HH
IVT1218       2.270   1.000   P EH
IVT1218       4.660   1.000   S EH
YRED11        2.870   1.000   P HH
YRED11        5.520   1.000   S HH
YRED24        2.610   1.000   P HH
YRED24        5.320   1.000   S HH
YRED12        3.700   1.000   P HH
YRED12        5.590   1.000   S HH
YRED16        3.000   1.000   P HH
YRED16        5.780   1.000   S HH
IVMC2         3.790   1.000   P EH
IVMC2         6.570   1.000   S EH
YRED19        3.320   1.000   P HH
YRED19        5.130   1.000   S HH
IVT1216       2.820   1.000   P EH
IVT1217       3.880   1.000   P EH
IVT1299       3.820   1.000   P EH
IVT1299       7.490   1.000   S EH
YRED03        3.740   1.000   P HH
IVMMO1        3.810   1.000   P EH
IVLNSS        4.710   1.000   P HH
YRED09        4.220   1.000   P HH
YRED09        7.950   1.000   S HH
IVT1215       4.970   1.000   P EH
IVT1215       7.910   1.000   S EH
YRED20        4.360   1.000   P HH
YRED20        8.160   1.000   S HH
YRED17        5.510   1.000   P HH
YRED18        5.240   1.000   P HH
YRED18        8.410   1.000   S HH
IVT1243       9.010   1.000   S HH
YRED22        5.420   1.000   P HH
YRED22       10.270   1.000   S HH
YRED21        5.900   1.000   P HH
YRED21        9.720   1.000   S HH
YRED07        5.610   1.000   P HH
YRED07       10.550   1.000   S HH
IVCESI        5.800   1.000   P HH
IVT1246       4.930   1.000   P HH
IVT1246      11.770   1.000   S HH
IVCSP1        6.380   1.000   P EH
IVCSP1       10.620   1.000   S EH
IVTERO        7.030   1.000   P HH
IVTERO       13.380   1.000   S HH
YRED14       14.590   1.000   S HH
# 2016 10 18  0 18 42.34  42.8793   13.0787    2.49  0.00  0.43  1.21  0.30    113878 E
IVT1216       2.630   1.000   S EH
IVT1212       3.020   1.000   P EH
IVT1212       5.410   1.000   S EH
IVCESI        7.400   1.000   S HH
IVMMO1        4.130   1.000   P EH
IVMMO1        7.430   1.000   S EH
YRED17        7.700   1.000   S HH
IVT1217       7.690   1.000   S EH
YRED09        6.630   1.000   P HH
YRED09        9.880   1.000   S HH
IVLNSS        5.560   1.000   P HH
IVLNSS       10.250   1.000   S HH
IVT1299      11.920   1.000   S EH
YRED03       11.120   1.000   S HH
YRED02        5.980   1.000   P HH
YRED02       11.160   1.000   S HH
YRED25       12.660   1.000   S HH
YRED07       15.070   1.000   S HH
IVT1211       7.780   1.000   P EH
# 2016 10 18  0 19  9.39  42.7553   13.1810    3.12  0.00  0.55  1.07  0.42    113879 E
IVT1214       1.240   1.000   P EH
IVT1214       2.050   1.000   S EH
YRED10        1.430   1.000   P HH
YRED10        2.260   1.000   S HH
YRED23        2.520   1.000   P HH
YRED23        4.450   1.000   S HH
IVNRCA        2.330   1.000   P HH
IVNRCA        3.930   1.000   S HH
IVT1218       2.720   1.000   P EH
IVT1218       4.660   1.000   S EH
YRED24        2.690   1.000   P HH
YRED24        4.770   1.000   S HH
IVT1212       2.520   1.000   P EH
IVT1212       4.570   1.000   S EH
YRED11        3.510   1.000   P HH
YRED11        5.920   1.000   S HH
IVT1299       5.440   1.000   S EH
YRED03        2.560   1.000   P HH
YRED03        5.990   1.000   S HH
YRED19        3.330   1.000   P HH
YRED20        5.590   1.000   P HH
YRED20        7.320   1.000   S HH
IVT1217       8.940   1.000   S EH
IVT1243       4.820   1.000   P HH
IVT1243       8.360   1.000   S HH
# 2016 10 18  0 19 44.47  42.7543   13.1908    3.42  0.00  0.54  0.82  0.28    113880 E
IVT1214       1.320   1.000   P EH
IVT1214       2.280   1.000   S EH
YRED10        0.960   1.000   P HH
YRED10        2.690   1.000   S HH
IVT1202       5.980   1.000   S EH
IVNRCA        1.170   1.000   P HH
IVNRCA        4.980   1.000   S HH
YRED24        2.650   1.000   P HH
IVT1218       4.660   1.000   S EH
IVT1212       4.930   1.000   S EH
YRED11        3.390   1.000   P HH
YRED20        7.120   1.000   S HH
# 2016 10 18  0 20 20.69  42.7875   13.1273    0.21  0.00  0.71  1.50  0.24    113881 E
YRED10        0.430   1.000   P HH
YRED10        0.790   1.000   S HH
IVNRCA        1.420   1.000   P HH
IVNRCA        2.480   1.000   S HH
IVT1212       1.770   1.000   P EH
IVT1212       3.290   1.000   S EH
IVT1245       2.000   1.000   P HH
IVT1245       3.870   1.000   S HH
YRED11        4.260   1.000   P HH
YRED11        5.630   1.000   S HH
IVMC2         5.830   1.000   S EH
# 2016 10 18  0 20 38.70  42.7322   13.2027    5.99  0.00  0.45  0.82  0.28    113882 E
IVT1202       1.810   1.000   P EH
IVT1202       3.180   1.000   S EH
YRED23        2.210   1.000   P HH
YRED23        4.140   1.000   S HH
YRED10        1.330   1.000   P HH
YRED10        2.970   1.000   S HH
YRED24        2.260   1.000   P HH
YRED24        4.220   1.000   S HH
IVT1218       2.350   1.000   P EH
IVT1218       4.390   1.000   S EH
IVT1299       2.210   1.000   P EH
IVT1212       4.770   1.000   S EH
IVNRCA        2.580   1.000   P HH
IVNRCA        4.570   1.000   S HH
YRED03        3.130   1.000   P HH
YRED03        5.820   1.000   S HH
YRED11        2.970   1.000   P HH
YRED11        5.450   1.000   S HH
YRED20        3.600   1.000   P HH
YRED20        6.570   1.000   S HH
YRED25        4.280   1.000   P HH
YRED25        7.010   1.000   S HH
IVLNSS        3.890   1.000   P HH
IVLNSS        7.010   1.000   S HH
YRED09        3.670   1.000   P HH
YRED09        6.810   1.000   S HH
IVT1243       4.050   1.000   P HH
IVT1243       6.730   1.000   S HH
YRED07        4.920   1.000   P HH
YRED07        8.560   1.000   S HH
YRED01        4.620   1.000   P HH
YRED01        8.820   1.000   S HH
YRED02        8.820   1.000   S HH
YRED17        4.850   1.000   P HH
YRED17        9.040   1.000   S HH
IVT1246       5.310   1.000   P HH
IVT1246       9.730   1.000   S HH
YRED05        6.650   1.000   P HH
YRED05       10.760   1.000   S HH
IVTERO        6.170   1.000   P HH
IVTERO       11.350   1.000   S HH
YRED14       12.240   1.000   S HH
# 2016 10 18  0 20 48.23  42.8545   13.0693    5.15  0.00  0.27  0.80  0.31    113883 E
IVNRCA        1.670   1.000   P HH
IVNRCA        3.000   1.000   S HH
IVT1216       1.700   1.000   P EH
IVT1216       3.210   1.000   S EH
YRED19        2.230   1.000   P HH
YRED19        4.120   1.000   S HH
YRED12        2.320   1.000   P HH
YRED12        4.080   1.000   S HH
IVT1245       2.340   1.000   P HH
IVT1245       4.300   1.000   S HH
YRED10        2.380   1.000   P HH
YRED10        5.040   1.000   S HH
IVT1212       2.630   1.000   P EH
IVT1212       4.760   1.000   S EH
IVMC2         2.750   1.000   P EH
IVMC2         5.640   1.000   S EH
IVT1214       3.560   1.000   P EH
IVT1214       5.860   1.000   S EH
IVT1215       3.320   1.000   P EH
IVT1215       5.990   1.000   S EH
YRED11        3.660   1.000   P HH
YRED11        6.730   1.000   S HH
IVT1217       4.180   1.000   P EH
IVT1217       6.990   1.000   S EH
YRED16        3.800   1.000   P HH
YRED16        7.100   1.000   S HH
YRED18        3.880   1.000   P HH
YRED18        7.590   1.000   S HH
IVT1218       3.980   1.000   P EH
IVT1218       7.220   1.000   S EH
IVT1202       8.020   1.000   S EH
IVCESI        4.480   1.000   P HH
IVCESI        7.200   1.000   S HH
IVMMO1        4.070   1.000   P EH
IVMMO1        7.530   1.000   S EH
YRED23        4.470   1.000   P HH
YRED23        8.280   1.000   S HH
YRED17        4.260   1.000   P HH
YRED17        7.810   1.000   S HH
YRED24        4.600   1.000   P HH
YRED24        8.640   1.000   S HH
YRED21        4.640   1.000   P HH
YRED21        8.620   1.000   S HH
YRED22        4.940   1.000   P HH
YRED22        9.240   1.000   S HH
IVLNSS        5.030   1.000   P HH
IVLNSS        9.340   1.000   S HH
IVCSP1        5.100   1.000   P EH
IVCSP1        9.400   1.000   S EH
YRED09        5.260   1.000   P HH
YRED09        9.650   1.000   S HH
YRED03        5.810   1.000   P HH
YRED03       10.180   1.000   S HH
IVT1299       5.810   1.000   P EH
IVT1299      10.460   1.000   S EH
YRED02        5.400   1.000   P HH
YRED02        9.840   1.000   S HH
IVGUMA        5.860   1.000   P HH
IVGUMA       10.910   1.000   S HH
YRED20        5.830   1.000   P HH
YRED20       10.330   1.000   S HH
IVT1243       6.250   1.000   P HH
IVT1243      11.690   1.000   S HH
YRED01        6.570   1.000   P HH
YRED01       11.820   1.000   S HH
YRED25        7.130   1.000   P HH
YRED25       12.390   1.000   S HH
IVT1211      12.960   1.000   S EH
YRED07        7.630   1.000   P HH
YRED07       13.100   1.000   S HH
IVSNTG        7.830   1.000   P HH
IVT1246       7.560   1.000   P HH
IVT1246      14.430   1.000   S HH
YRED05        9.710   1.000   P HH
YRED05       15.560   1.000   S HH
IVTERO        8.770   1.000   P HH
IVTERO       15.890   1.000   S HH
YRED14       17.450   1.000   S HH
IVCING        9.930   1.000   P HH
IVFIAM       20.450   1.000   S HH
# 2016 10 18  0 23  0.24  42.8050   13.1827    7.88  0.00  0.33  0.84  0.30    113884 E
YRED10        2.060   1.000   P HH
YRED10        3.480   1.000   S HH
IVT1214       2.430   1.000   P EH
IVT1214       4.080   1.000   S EH
IVT1245       2.270   1.000   P HH
IVT1245       4.100   1.000   S HH
IVNRCA        2.200   1.000   P HH
IVNRCA        3.850   1.000   S HH
YRED16        5.220   1.000   S HH
YRED23        3.070   1.000   P HH
YRED23        5.640   1.000   S HH
IVMC2         4.300   1.000   P EH
IVMC2         5.460   1.000   S EH
IVT1212       2.970   1.000   P EH
IVT1212       5.300   1.000   S EH
YRED19        5.430   1.000   S HH
IVMMO1        6.240   1.000   S EH
IVT1218       3.430   1.000   P EH
IVT1218       6.290   1.000   S EH
IVT1216       3.410   1.000   P EH
IVT1216       6.170   1.000   S EH
YRED24        6.670   1.000   S HH
YRED12        3.500   1.000   P HH
YRED12        6.770   1.000   S HH
YRED11        3.710   1.000   P HH
YRED11        6.600   1.000   S HH
YRED09        3.990   1.000   P HH
YRED09        7.120   1.000   S HH
YRED17        7.340   1.000   S HH
IVT1299       5.900   1.000   P EH
IVT1299       8.050   1.000   S EH
YRED18        7.870   1.000   S HH
YRED20        4.300   1.000   P HH
YRED20        7.590   1.000   S HH
IVT1217       5.990   1.000   P EH
IVT1217       8.080   1.000   S EH
IVT1243       4.410   1.000   P HH
IVT1243       8.580   1.000   S HH
YRED22        4.660   1.000   P HH
YRED22        9.440   1.000   S HH
YRED21        5.700   1.000   P HH
YRED21        8.950   1.000   S HH
YRED07       10.190   1.000   S HH
YRED02       10.000   1.000   S HH
IVT1246      11.560   1.000   S HH
IVTERO        6.940   1.000   P HH
IVTERO       12.790   1.000   S HH
# 2016 10 18  0 23 17.94  42.8750   13.2583    1.83  0.00  0.71  1.40  0.24    113885 E
YRED16        2.680   1.000   S HH
IVT1245       2.850   1.000   S HH
IVMMO1        1.570   1.000   P EH
IVMMO1        2.840   1.000   S EH
IVMC2         3.340   1.000   S EH
YRED17        2.370   1.000   P HH
YRED17        4.210   1.000   S HH
YRED19        2.280   1.000   P HH
YRED19        4.340   1.000   S HH
YRED18        2.880   1.000   P HH
YRED18        5.210   1.000   S HH
# 2016 10 18  0 23 34.51  42.7633   13.1347    7.09  0.00  0.27  0.68  0.27    113886 E
YRED10        1.760   1.000   P HH
YRED10        3.240   1.000   S HH
IVT1214       2.150   1.000   P EH
IVT1214       3.990   1.000   S EH
IVT1212       2.260   1.000   P EH
IVT1212       4.100   1.000   S EH
IVNRCA        2.260   1.000   P HH
IVNRCA        4.090   1.000   S HH
IVT1218       2.250   1.000   P EH
IVT1218       4.700   1.000   S EH
IVT1245       2.790   1.000   P HH
IVT1245       5.010   1.000   S HH
YRED11        2.800   1.000   P HH
YRED11        5.070   1.000   S HH
YRED23        3.060   1.000   P HH
YRED23        6.000   1.000   S HH
YRED24        2.880   1.000   P HH
YRED24        5.290   1.000   S HH
YRED12        3.190   1.000   P HH
YRED12        5.780   1.000   S HH
YRED16        3.430   1.000   P HH
YRED16        6.330   1.000   S HH
IVT1216       3.570   1.000   P EH
IVT1216       6.400   1.000   S EH
IVMC2         3.690   1.000   P EH
IVMC2         6.870   1.000   S EH
YRED19        3.340   1.000   P HH
IVT1217       3.530   1.000   P EH
IVT1217       6.480   1.000   S EH
IVT1299       3.890   1.000   P EH
IVT1299       6.720   1.000   S EH
IVLNSS        4.000   1.000   P HH
IVLNSS        7.170   1.000   S HH
IVMMO1        4.190   1.000   P EH
IVMMO1        7.730   1.000   S EH
IVT1215       4.210   1.000   P EH
IVT1215       7.670   1.000   S EH
YRED09        4.250   1.000   P HH
YRED09        8.430   1.000   S HH
YRED02        5.130   1.000   P HH
YRED02        8.250   1.000   S HH
YRED20        4.320   1.000   P HH
YRED20        7.930   1.000   S HH
YRED25        4.830   1.000   P HH
YRED17        4.760   1.000   P HH
YRED17        8.770   1.000   S HH
IVT1243       4.670   1.000   P HH
IVT1243       8.460   1.000   S HH
YRED18        4.960   1.000   P HH
YRED18        9.050   1.000   S HH
YRED07        5.470   1.000   P HH
YRED07       10.180   1.000   S HH
YRED22       10.630   1.000   S HH
YRED21       10.280   1.000   S HH
IVT1246       6.140   1.000   P HH
IVT1246      11.360   1.000   S HH
IVTERO        6.990   1.000   P HH
IVTERO       12.690   1.000   S HH
# 2016 10 18  0 24 20.76  42.7982   13.2278    4.06  0.00  0.18  0.80  0.21    113887 E
IVT1214       1.100   1.000   P EH
IVT1214       2.080   1.000   S EH
IVT1245       1.690   1.000   P HH
IVT1245       3.270   1.000   S HH
YRED10        1.610   1.000   P HH
YRED10        3.080   1.000   S HH
YRED16        1.740   1.000   P HH
YRED16        3.420   1.000   S HH
YRED23        1.820   1.000   P HH
YRED23        3.850   1.000   S HH
IVNRCA        2.060   1.000   P HH
IVNRCA        4.080   1.000   S HH
IVMC2         2.790   1.000   P EH
IVMC2         5.120   1.000   S EH
IVMMO1        2.660   1.000   P EH
IVMMO1        5.200   1.000   S EH
YRED19        3.030   1.000   P HH
YRED19        5.660   1.000   S HH
IVT1212       3.060   1.000   P EH
IVT1212       6.040   1.000   S EH
YRED09        2.960   1.000   P HH
YRED09        5.590   1.000   S HH
YRED24        2.980   1.000   P HH
YRED24        6.320   1.000   S HH
IVT1218       3.220   1.000   P EH
IVT1218       6.290   1.000   S EH
YRED20        3.220   1.000   P HH
YRED20        5.960   1.000   S HH
IVT1299       3.590   1.000   P EH
IVT1299       6.770   1.000   S EH
YRED17        3.700   1.000   P HH
YRED17        7.160   1.000   S HH
IVT1216       3.750   1.000   P EH
IVT1216       7.110   1.000   S EH
YRED11        3.730   1.000   P HH
YRED11        7.320   1.000   S HH
YRED12        3.890   1.000   P HH
YRED12        7.320   1.000   S HH
IVT1243       3.760   1.000   P HH
IVT1243       7.130   1.000   S HH
YRED18        4.020   1.000   P HH
YRED18        7.540   1.000   S HH
YRED03        4.030   1.000   P HH
YRED03        7.880   1.000   S HH
YRED25        4.840   1.000   P HH
YRED25        8.680   1.000   S HH
YRED22        4.650   1.000   P HH
YRED22        8.920   1.000   S HH
YRED21        4.670   1.000   P HH
YRED21        8.810   1.000   S HH
IVT1217       5.100   1.000   P EH
IVT1217       9.160   1.000   S EH
IVLNSS        4.780   1.000   P HH
IVLNSS        9.040   1.000   S HH
YRED07        4.890   1.000   P HH
YRED07        8.630   1.000   S HH
IVT1215       5.190   1.000   P EH
IVT1215       9.930   1.000   S EH
YRED01        5.660   1.000   P HH
YRED01       10.920   1.000   S HH
IVT1246       5.550   1.000   P HH
IVT1246      10.260   1.000   S HH
YRED02        5.750   1.000   P HH
YRED02       10.740   1.000   S HH
IVCSP1        5.900   1.000   P EH
IVCSP1       10.990   1.000   S EH
IVCESI        6.410   1.000   P HH
IVCESI       11.740   1.000   S HH
IVTERO        6.130   1.000   P HH
IVTERO       11.400   1.000   S HH
YRED05        6.800   1.000   P HH
IVOFFI        8.070   1.000   P HH
YRED15        7.680   1.000   P HH
YRED15       13.040   1.000   S HH
IVT1211       6.470   1.000   P EH
IVT1211      13.770   1.000   S EH
YRED14        7.320   1.000   P HH
YRED14       13.750   1.000   S HH
IVSNTG       10.000   1.000   P HH
IVCING       11.000   1.000   P HH
# 2016 10 18  0 24 45.23  42.8958   13.2405    3.87  0.00  0.25  0.47  0.27    113888 E
IVMC2         2.090   1.000   P EH
IVMC2         2.670   1.000   S EH
IVT1245       1.600   1.000   P HH
IVT1245       3.050   1.000   S HH
IVMMO1        1.790   1.000   P EH
IVMMO1        3.160   1.000   S EH
YRED16        2.290   1.000   P HH
YRED16        3.660   1.000   S HH
YRED19        2.030   1.000   P HH
YRED19        3.730   1.000   S HH
YRED17        2.150   1.000   P HH
YRED17        3.860   1.000   S HH
YRED18        2.460   1.000   P HH
YRED18        4.360   1.000   S HH
IVNRCA        2.590   1.000   P HH
IVNRCA        5.060   1.000   S HH
YRED22        3.100   1.000   P HH
YRED22        5.580   1.000   S HH
YRED21        3.250   1.000   P HH
YRED21        5.630   1.000   S HH
IVT1214       3.180   1.000   P EH
IVT1214       5.740   1.000   S EH
YRED10        3.040   1.000   P HH
YRED10        5.420   1.000   S HH
YRED23        3.910   1.000   P HH
YRED23        6.770   1.000   S HH
IVT1216       3.770   1.000   P EH
IVT1216       6.440   1.000   S EH
YRED09        3.550   1.000   P HH
YRED09        6.440   1.000   S HH
IVT1202       7.950   1.000   S EH
IVCSP1        4.280   1.000   P EH
IVCSP1        7.850   1.000   S EH
IVT1212       7.810   1.000   S EH
YRED20        4.350   1.000   P HH
YRED20        7.700   1.000   S HH
YRED12        8.290   1.000   S HH
YRED24        5.730   1.000   P HH
YRED24        9.730   1.000   S HH
IVT1218       9.340   1.000   S EH
IVT1243       5.170   1.000   P HH
YRED11        9.970   1.000   S HH
IVT1299       6.700   1.000   P EH
IVT1299      10.300   1.000   S EH
IVT1215       5.850   1.000   P EH
IVT1215      10.660   1.000   S EH
IVT1217      11.050   1.000   S EH
YRED03       11.100   1.000   S HH
IVLNSS       12.090   1.000   S HH
IVT1246      13.000   1.000   S HH
YRED02       13.370   1.000   S HH
IVTERO        7.400   1.000   P HH
IVTERO       13.730   1.000   S HH
YRED01       14.170   1.000   S HH
YRED05       15.480   1.000   S HH
# 2016 10 18  0 24 54.73  42.8818   13.2405    3.83  0.00  0.39  0.66  0.25    113889 E
IVT1245       1.540   1.000   P HH
IVT1245       2.680   1.000   S HH
IVMMO1        1.940   1.000   P EH
IVMMO1        3.380   1.000   S EH
YRED16        3.410   1.000   P HH
YRED17        2.500   1.000   P HH
YRED17        4.290   1.000   S HH
IVNRCA        3.590   1.000   P HH
IVNRCA        4.920   1.000   S HH
YRED18        2.730   1.000   P HH
YRED18        4.990   1.000   S HH
IVT1214       2.910   1.000   P EH
IVT1214       5.550   1.000   S EH
YRED22        6.040   1.000   S HH
YRED21        3.610   1.000   P HH
YRED21        6.280   1.000   S HH
YRED09        6.550   1.000   S HH
IVT1216       6.630   1.000   S EH
YRED20        7.640   1.000   S HH
IVCSP1        8.090   1.000   S EH
IVT1218       5.240   1.000   P EH
