# 2016 10 18  0 11 21.52  42.7680   13.1220   10.09  0.00  2.67  3.58  0.83    113857 E
YRED10        3.400   1.000   P HH
IVT1212       3.330   1.000   P EH
IVT1212       4.720   1.000   S EH
IVNRCA        2.850   1.000   P HH
IVNRCA        3.900   1.000   S HH
IVT1245       1.980   1.000   P HH
IVT1245       5.930   1.000   S HH
YRED11        2.850   1.000   P HH
YRED12        4.740   1.000   S HH
IVMC2         7.670   1.000   S EH
YRED19        7.890   1.000   S HH
YRED16        5.060   1.000   P HH
YRED16        5.720   1.000   S HH
IVT1215       3.360   1.000   P EH
IVT1215       7.700   1.000   S EH
IVMMO1        6.960   1.000   S EH
YRED21        7.960   1.000   P HH
YRED21       11.700   1.000   S HH
# 2016 10 18  0 12  4.98  42.7670   13.1673    4.43  0.00  0.32  0.80  0.33    113858 E
YRED10        1.320   1.000   P HH
YRED10        2.200   1.000   S HH
IVT1214       1.480   1.000   P EH
IVT1214       2.630   1.000   S EH
IVNRCA        2.090   1.000   P HH
IVNRCA        3.610   1.000   S HH
IVT1245       2.930   1.000   P HH
IVT1245       4.220   1.000   S HH
YRED23        2.650   1.000   P HH
YRED23        4.780   1.000   S HH
IVT1212       2.450   1.000   P EH
IVT1212       4.220   1.000   S EH
IVT1218       3.720   1.000   P EH
IVT1218       4.820   1.000   S EH
YRED24        2.660   1.000   P HH
YRED24        4.210   1.000   S HH
YRED16        3.590   1.000   P HH
YRED16        5.620   1.000   S HH
YRED11        2.760   1.000   P HH
YRED11        5.500   1.000   S HH
IVMC2         3.900   1.000   P EH
IVMC2         6.580   1.000   S EH
YRED12        5.940   1.000   S HH
YRED19        3.480   1.000   P HH
YRED19        6.470   1.000   S HH
IVT1299       3.700   1.000   P EH
YRED03        3.660   1.000   P HH
YRED03        6.830   1.000   S HH
IVMMO1        4.770   1.000   P EH
IVMMO1        7.010   1.000   S EH
IVLNSS        7.560   1.000   S HH
YRED09        3.970   1.000   P HH
YRED09        7.340   1.000   S HH
YRED20        3.320   1.000   P HH
YRED20        7.370   1.000   S HH
IVT1215       6.170   1.000   P EH
IVT1215       8.330   1.000   S EH
YRED17        4.740   1.000   P HH
YRED17        8.660   1.000   S HH
YRED18        4.930   1.000   P HH
YRED18        9.010   1.000   S HH
YRED07        9.680   1.000   S HH
IVT1246       5.930   1.000   P HH
IVT1246      10.840   1.000   S HH
IVTERO        8.940   1.000   P HH
IVTERO       12.280   1.000   S HH
# 2016 10 18  0 12 19.90  42.6910   13.2757    8.40  0.00  0.56  1.28  0.34    113859 E
YRED23        2.570   1.000   P HH
YRED23        4.360   1.000   S HH
IVT1299       2.470   1.000   P EH
IVT1299       4.020   1.000   S EH
YRED24        2.610   1.000   P HH
YRED24        4.820   1.000   S HH
YRED25        3.050   1.000   P HH
YRED25        5.540   1.000   S HH
YRED03        3.010   1.000   P HH
YRED03        5.180   1.000   S HH
IVT1218       3.160   1.000   P EH
IVT1218       5.430   1.000   S EH
IVT1243       5.890   1.000   S HH
YRED20        2.850   1.000   P HH
YRED20        5.730   1.000   S HH
YRED10        5.940   1.000   S HH
YRED07        3.760   1.000   P HH
YRED07        6.590   1.000   S HH
YRED09        3.800   1.000   P HH
YRED09        6.490   1.000   S HH
YRED11        4.000   1.000   P HH
YRED11        7.150   1.000   S HH
IVT1212       7.230   1.000   S EH
IVT1246       4.190   1.000   P HH
IVT1246       7.640   1.000   S HH
IVLNSS        4.380   1.000   P HH
IVLNSS        7.840   1.000   S HH
YRED01        8.300   1.000   S HH
YRED19        8.540   1.000   S HH
IVTERO        5.330   1.000   P HH
IVTERO        9.210   1.000   S HH
# 2016 10 18  0 12 26.17  42.7113   13.2427    7.40  0.00  1.50  2.75  0.69    113860 E
YRED23        1.980   1.000   P HH
YRED23        3.460   1.000   S HH
YRED10        4.370   1.000   P HH
YRED10        5.690   1.000   S HH
YRED25        3.350   1.000   P HH
YRED25        5.830   1.000   S HH
IVT1212       4.370   1.000   P EH
IVT1212       5.780   1.000   S EH
IVNRCA        3.900   1.000   P HH
IVMC2         3.290   1.000   P EH
IVMC2         8.690   1.000   S EH
YRED12        4.500   1.000   P HH
YRED19        7.950   1.000   S HH
IVT1217       3.290   1.000   P EH
YRED17        4.350   1.000   P HH
YRED17       11.600   1.000   S HH
YRED18        5.260   1.000   P HH
IVT1215       8.680   1.000   S EH
# 2016 10 18  0 12 49.67  42.8435   13.2507    4.65  0.00  0.71  1.74  0.45    113862 E
YRED16        1.720   1.000   P HH
YRED16        2.900   1.000   S HH
IVT1245       1.840   1.000   P HH
IVT1245       3.080   1.000   S HH
IVMMO1        2.150   1.000   P EH
IVMMO1        3.580   1.000   S EH
IVMC2         2.950   1.000   P EH
IVMC2         4.250   1.000   S EH
IVT1214       2.680   1.000   P EH
IVT1214       4.060   1.000   S EH
IVNRCA        2.760   1.000   P HH
IVNRCA        4.520   1.000   S HH
YRED23        3.710   1.000   P HH
YRED10        2.510   1.000   P HH
YRED10        3.600   1.000   S HH
YRED19        2.820   1.000   P HH
YRED19        4.780   1.000   S HH
YRED17        3.010   1.000   P HH
YRED17        5.180   1.000   S HH
YRED18        3.450   1.000   P HH
YRED18        6.020   1.000   S HH
IVT1212       3.600   1.000   P EH
IVT1212       5.620   1.000   S EH
YRED24        4.110   1.000   P HH
YRED24        6.820   1.000   S HH
IVT1218       6.390   1.000   P EH
# 2016 10 18  0 13  0.42  42.6408   13.3048    3.85  0.00  0.32  0.61  0.28    113863 E
IVT1299       1.250   1.000   P EH
IVT1299       2.180   1.000   S EH
YRED25        1.840   1.000   P HH
YRED25        3.320   1.000   S HH
YRED24        2.220   1.000   P HH
YRED24        4.070   1.000   S HH
YRED03        2.170   1.000   P HH
YRED03        3.880   1.000   S HH
YRED07        2.870   1.000   P HH
YRED07        5.190   1.000   S HH
IVT1243       2.780   1.000   P HH
IVT1243       5.530   1.000   S HH
IVT1214       4.200   1.000   P EH
IVT1214       5.040   1.000   S EH
YRED20        3.170   1.000   P HH
YRED20        5.650   1.000   S HH
IVT1246       3.300   1.000   P HH
IVT1246       6.000   1.000   S HH
YRED05        3.590   1.000   P HH
YRED05        6.660   1.000   S HH
YRED10        6.230   1.000   S HH
YRED16        2.330   1.000   P HH
YRED16        7.870   1.000   S HH
YRED11        2.240   1.000   P HH
YRED11        8.260   1.000   S HH
YRED14        4.300   1.000   P HH
IVTERO        4.520   1.000   P HH
IVTERO        8.260   1.000   S HH
IVNRCA        7.270   1.000   S HH
YRED17       12.050   1.000   S HH
YRED18        5.800   1.000   P HH
YRED18       13.130   1.000   S HH
# 2016 10 18  0 13 24.00  42.8203   13.2395    7.48  0.00  1.38  3.15  0.54    113864 E
IVT1245       1.840   1.000   P HH
IVT1245       4.290   1.000   S HH
YRED10        4.180   1.000   P HH
YRED10        4.840   1.000   S HH
IVNRCA        2.880   1.000   P HH
IVNRCA        4.320   1.000   S HH
IVMC2         5.000   1.000   S EH
YRED19        3.170   1.000   P HH
YRED19        4.880   1.000   S HH
YRED17        4.260   1.000   P HH
YRED17        6.850   1.000   S HH
IVT1212       6.840   1.000   S EH
YRED18        7.140   1.000   S HH
IVT1299       3.520   1.000   P EH
YRED11        4.920   1.000   P HH
YRED11        8.960   1.000   S HH
YRED21        6.240   1.000   P HH
YRED21        8.210   1.000   S HH
YRED25        3.910   1.000   P HH
# 2016 10 18  0 13 46.44  42.7153   13.2280    8.42  0.00  0.98  1.17  0.30    113865 E
IVT1214       2.190   1.000   P EH
IVT1214       4.010   1.000   S EH
YRED23        2.500   1.000   P HH
YRED23        4.430   1.000   S HH
YRED24        2.450   1.000   P HH
YRED24        4.430   1.000   S HH
YRED10        3.950   1.000   P HH
IVT1218       2.710   1.000   P EH
IVT1218       4.820   1.000   S EH
IVT1212       3.310   1.000   P EH
IVNRCA        4.480   1.000   P HH
YRED11        3.320   1.000   P HH
YRED11        6.040   1.000   S HH
YRED20        3.550   1.000   P HH
YRED20        6.380   1.000   S HH
YRED09        3.730   1.000   P HH
YRED09        6.670   1.000   S HH
IVLNSS        3.980   1.000   P HH
IVLNSS        7.220   1.000   S HH
IVMMO1        4.320   1.000   P EH
IVMMO1        7.920   1.000   S EH
IVMC2        10.400   1.000   S EH
YRED18       13.460   1.000   S HH
YRED21       14.900   1.000   S HH
# 2016 10 18  0 13 54.96  42.8897   13.1770    2.09  0.00  0.48  1.09  0.26    113866 E
IVMC2         1.230   1.000   P EH
IVT1245       1.130   1.000   P HH
IVT1245       2.270   1.000   S HH
YRED19        1.230   1.000   P HH
YRED19        2.100   1.000   S HH
IVNRCA        1.960   1.000   P HH
IVNRCA        3.620   1.000   S HH
YRED16        4.900   1.000   S HH
IVMMO1        2.940   1.000   P EH
IVMMO1        4.920   1.000   S EH
YRED18        2.800   1.000   P HH
YRED10        2.880   1.000   P HH
YRED10        4.880   1.000   S HH
YRED17        1.030   1.000   P HH
YRED17        5.150   1.000   S HH
YRED21        3.340   1.000   P HH
YRED22        6.800   1.000   S HH
IVT1212       3.860   1.000   P EH
IVT1212       6.980   1.000   S EH
# 2016 10 18  0 14 15.02  42.7307   13.3743   10.29  0.00  1.75  4.40  0.92    113867 E
YRED20        1.810   1.000   P HH
YRED20        4.980   1.000   S HH
IVT1299       3.430   1.000   P EH
IVT1299       5.520   1.000   S EH
IVT1214       7.570   1.000   S EH
YRED24        3.090   1.000   P HH
YRED24        4.910   1.000   S HH
IVMMO1        8.490   1.000   S EH
YRED10        8.040   1.000   S HH
IVT1245       7.560   1.000   S HH
YRED03        3.610   1.000   P HH
YRED03        6.220   1.000   S HH
IVT1218       3.190   1.000   P EH
IVNRCA        4.300   1.000   P HH
IVNRCA        7.100   1.000   S HH
IVMC2         7.940   1.000   S EH
YRED17        9.380   1.000   S HH
IVT1212       9.860   1.000   S EH
YRED05       10.240   1.000   S HH
YRED11        6.800   1.000   P HH
YRED11       10.660   1.000   S HH
YRED19        6.460   1.000   P HH
YRED19        8.960   1.000   S HH
YRED12       12.250   1.000   S HH
# 2016 10 18  0 14 52.92  42.9037   13.2662    2.86  0.00  0.36  0.84  0.37    113868 E
IVMMO1        1.380   1.000   P EH
IVMMO1        2.460   1.000   S EH
IVMC2         1.700   1.000   P EH
IVMC2         3.080   1.000   S EH
YRED17        1.780   1.000   P HH
YRED17        3.240   1.000   S HH
YRED16        1.810   1.000   P HH
YRED16        3.310   1.000   S HH
IVT1245       1.840   1.000   P HH
IVT1245       3.250   1.000   S HH
YRED18        2.310   1.000   P HH
YRED18        4.240   1.000   S HH
YRED19        2.190   1.000   P HH
YRED19        3.990   1.000   S HH
YRED22        2.750   1.000   P HH
YRED22        5.020   1.000   S HH
YRED21        2.890   1.000   P HH
YRED21        5.400   1.000   S HH
IVNRCA        2.810   1.000   P HH
IVNRCA        6.080   1.000   S HH
IVT1214       4.210   1.000   P EH
IVT1214       5.240   1.000   S EH
YRED09        3.260   1.000   P HH
YRED09        6.110   1.000   S HH
YRED23        3.630   1.000   P HH
YRED23        7.190   1.000   S HH
IVT1216       3.820   1.000   P EH
IVT1216       7.000   1.000   S EH
YRED20        3.970   1.000   P HH
YRED20        7.490   1.000   S HH
IVT1212       4.750   1.000   P EH
IVT1212       6.400   1.000   S EH
YRED12        5.710   1.000   P HH
YRED12        8.600   1.000   S HH
IVT1243       4.870   1.000   P HH
IVT1243       9.070   1.000   S HH
YRED24        5.640   1.000   P HH
YRED24        8.280   1.000   S HH
IVT1218       5.390   1.000   P EH
IVT1218       7.410   1.000   S EH
IVT1299       6.850   1.000   P EH
IVT1299      10.380   1.000   S EH
YRED11        5.780   1.000   P HH
YRED11        8.390   1.000   S HH
YRED03        6.660   1.000   P HH
IVT1215       6.150   1.000   P EH
IVT1215      11.170   1.000   S EH
IVTERO       13.710   1.000   S HH
# 2016 10 18  0 15  8.83  42.6792   13.2665    6.99  0.00  0.58  1.36  0.20    113869 E
IVT1299       2.080   1.000   P EH
IVT1299       3.770   1.000   S EH
YRED24        3.830   1.000   S HH
YRED23        2.270   1.000   P HH
YRED23        4.230   1.000   S HH
YRED03        2.470   1.000   P HH
YRED03        4.560   1.000   S HH
YRED07        5.610   1.000   P HH
YRED07        6.520   1.000   S HH
YRED16        6.670   1.000   S HH
# 2016 10 18  0 15 16.37  42.6655   13.2133    7.19  0.00  0.46  1.07  0.33    113870 E
YRED24        1.930   1.000   P HH
YRED24        3.410   1.000   S HH
YRED03        2.290   1.000   P HH
YRED03        4.020   1.000   S HH
IVT1218       2.340   1.000   P EH
IVT1218       4.170   1.000   S EH
IVT1214       2.730   1.000   P EH
IVT1214       4.900   1.000   S EH
YRED23        2.890   1.000   P HH
YRED23        5.410   1.000   S HH
YRED25        5.390   1.000   P HH
YRED10        4.110   1.000   P HH
YRED10        5.580   1.000   S HH
YRED11        3.220   1.000   P HH
YRED11        5.720   1.000   S HH
IVLNSS        3.500   1.000   P HH
IVLNSS        6.180   1.000   S HH
IVT1212       3.500   1.000   P EH
IVT1212       6.170   1.000   S EH
IVT1243       7.500   1.000   S HH
IVNRCA        7.220   1.000   S HH
YRED20        3.920   1.000   P HH
YRED20        6.980   1.000   S HH
YRED16        7.850   1.000   S HH
YRED07        4.170   1.000   P HH
YRED07        7.420   1.000   S HH
IVT1245       7.820   1.000   S HH
YRED09        4.290   1.000   P HH
YRED09        7.660   1.000   S HH
IVT1217       8.100   1.000   S EH
YRED02        6.650   1.000   P HH
YRED02        8.230   1.000   S HH
IVMC2         7.630   1.000   S EH
IVMMO1        5.960   1.000   P EH
IVMMO1        7.040   1.000   S EH
YRED19        8.550   1.000   S HH
YRED14       10.150   1.000   S HH
YRED17        6.390   1.000   P HH
# 2016 10 18  0 15 50.94  42.8677   13.0730    2.80  0.00  0.60  0.93  0.32    113871 E
IVNRCA        1.660   1.000   P HH
IVNRCA        2.780   1.000   S HH
IVT1216       1.320   1.000   P EH
IVT1216       2.220   1.000   S EH
YRED19        1.720   1.000   P HH
YRED19        3.130   1.000   S HH
IVT1245       4.300   1.000   S HH
YRED12        2.210   1.000   P HH
YRED12        4.210   1.000   S HH
IVMC2         4.280   1.000   P EH
IVMC2         5.170   1.000   S EH
YRED10        4.710   1.000   S HH
IVT1212       2.900   1.000   P EH
IVT1212       5.190   1.000   S EH
IVT1215       6.440   1.000   S EH
YRED18        5.600   1.000   P HH
YRED11        5.920   1.000   P HH
YRED11        7.620   1.000   S HH
IVT1217       5.510   1.000   P EH
IVT1217       7.460   1.000   S EH
IVMMO1        3.810   1.000   P EH
IVMMO1        7.290   1.000   S EH
YRED21        8.930   1.000   S HH
YRED22        5.120   1.000   P HH
YRED20        6.930   1.000   P HH
YRED20       10.480   1.000   S HH
# 2016 10 18  0 16 18.93  42.9248   13.2682    0.04  0.00  0.92  3.58  0.62    113872 E
IVMMO1        1.210   1.000   P EH
IVMMO1        2.370   1.000   S EH
YRED17        1.160   1.000   P HH
YRED17        2.500   1.000   S HH
IVMC2         1.100   1.000   P EH
IVMC2         2.330   1.000   S EH
YRED19        3.540   1.000   P HH
YRED19        5.890   1.000   S HH
IVNRCA        5.260   1.000   S HH
IVT1214       7.760   1.000   S EH
YRED10        7.650   1.000   S HH
IVT1212       5.970   1.000   P EH
IVT1212       7.810   1.000   S EH
# 2016 10 18  0 16 42.33  42.8790   13.2218    2.39  0.00  0.24  0.66  0.19    113873 E
IVT1245       0.880   1.000   P HH
IVT1245       1.520   1.000   S HH
IVMC2         1.330   1.000   P EH
IVMC2         2.650   1.000   S EH
YRED19        1.820   1.000   P HH
YRED19        3.370   1.000   S HH
YRED16        1.620   1.000   P HH
YRED16        3.550   1.000   S HH
IVMMO1        2.100   1.000   P EH
IVMMO1        3.870   1.000   S EH
IVNRCA        2.080   1.000   P HH
IVNRCA        4.240   1.000   S HH
YRED17        1.540   1.000   P HH
YRED17        4.700   1.000   S HH
YRED18        2.620   1.000   P HH
YRED18        5.230   1.000   S HH
YRED10        2.600   1.000   P HH
YRED10        4.590   1.000   S HH
IVT1214       2.660   1.000   P EH
IVT1214       5.390   1.000   S EH
YRED22        3.510   1.000   P HH
YRED22        6.440   1.000   S HH
YRED21        3.870   1.000   P HH
YRED21        6.340   1.000   S HH
YRED09        3.820   1.000   P HH
YRED09        7.170   1.000   S HH
YRED20        4.340   1.000   P HH
YRED20        7.940   1.000   S HH
IVCSP1        8.620   1.000   S EH
IVT1218       4.460   1.000   P EH
IVT1218       8.720   1.000   S EH
YRED24        9.110   1.000   S HH
# 2016 10 18  0 17  8.71  42.8843   13.2330    6.13  0.00  1.22  3.73  0.53    113874 E
IVMC2         4.170   1.000   S EH
IVMMO1        2.540   1.000   P EH
IVMMO1        3.640   1.000   S EH
YRED19        1.920   1.000   P HH
YRED19        3.620   1.000   S HH
YRED17        2.920   1.000   P HH
YRED17        4.340   1.000   S HH
IVNRCA        2.490   1.000   S HH
IVT1212       5.030   1.000   S EH
YRED24        5.850   1.000   P HH
YRED24        8.800   1.000   S HH
# 2016 10 18  0 17 28.38  42.7765   13.1517    2.78  0.00  0.30  0.66  0.36    113875 E
YRED10        0.440   1.000   P HH
YRED10        0.740   1.000   S HH
IVT1214       1.170   1.000   P EH
IVT1214       2.170   1.000   S EH
IVNRCA        1.490   1.000   P HH
IVNRCA        2.990   1.000   S HH
IVT1212       2.080   1.000   P EH
IVT1212       3.610   1.000   S EH
IVT1245       1.960   1.000   P HH
IVT1245       3.750   1.000   S HH
YRED23        2.780   1.000   P HH
YRED23        5.300   1.000   S HH
IVT1218       2.630   1.000   P EH
IVT1218       4.790   1.000   S EH
YRED11        2.980   1.000   P HH
YRED11        5.360   1.000   S HH
YRED24        2.650   1.000   P HH
YRED24        5.440   1.000   S HH
YRED16        3.630   1.000   P HH
YRED16        6.340   1.000   S HH
YRED12        3.090   1.000   P HH
YRED12        5.660   1.000   S HH
IVMC2         3.260   1.000   P EH
IVMC2         6.420   1.000   S EH
YRED19        3.010   1.000   P HH
YRED19        5.730   1.000   S HH
IVT1299       4.140   1.000   P EH
IVT1299       7.440   1.000   S EH
IVT1217       4.250   1.000   P EH
IVT1217       7.190   1.000   S EH
IVMMO1        3.720   1.000   P EH
IVMMO1        6.960   1.000   S EH
IVLNSS        4.720   1.000   P HH
IVLNSS        7.380   1.000   S HH
YRED09        4.160   1.000   P HH
YRED09        7.890   1.000   S HH
IVT1215       4.450   1.000   P EH
IVT1215       8.250   1.000   S EH
YRED20        4.410   1.000   P HH
YRED20        7.950   1.000   S HH
YRED17        4.430   1.000   P HH
YRED17        8.410   1.000   S HH
YRED18        4.660   1.000   P HH
YRED18        9.140   1.000   S HH
YRED25        5.620   1.000   P HH
YRED25        9.840   1.000   S HH
IVT1243       8.840   1.000   S HH
YRED01        9.620   1.000   S HH
YRED22        5.640   1.000   P HH
YRED22       10.420   1.000   S HH
YRED21        6.380   1.000   P HH
YRED21       10.120   1.000   S HH
YRED07        5.930   1.000   P HH
YRED07       10.470   1.000   S HH
IVT1246       6.350   1.000   P HH
IVT1246      11.640   1.000   S HH
IVTERO        7.260   1.000   P HH
IVTERO       13.000   1.000   S HH
# 2016 10 18  0 17 59.33  42.8505   13.1515    5.93  0.00  1.52  2.48  0.58    113876 E
IVT1245       2.140   1.000   P HH
IVT1245       3.310   1.000   S HH
IVMC2         2.630   1.000   P EH
IVMC2         3.420   1.000   S EH
YRED19        2.460   1.000   P HH
YRED19        3.500   1.000   S HH
IVT1214       4.050   1.000   S EH
IVT1212       0.540   1.000   S EH
IVMMO1        4.190   1.000   P EH
IVMMO1        6.070   1.000   S EH
YRED18        2.630   1.000   P HH
YRED18        6.470   1.000   S HH
YRED17        2.210   1.000   P HH
YRED17        6.510   1.000   S HH
IVT1218       0.720   1.000   P EH
IVT1215       0.630   1.000   P EH
YRED20        5.740   1.000   P HH
YRED20        9.410   1.000   S HH
YRED25        5.490   1.000   P HH
YRED25       10.550   1.000   S HH
