# 2016 10 18  0  4 53.76  42.6305   13.1647    1.24  0.00  1.42  2.05  0.92    113837 E
YRED24       -0.020   1.000   P HH
YRED24        1.630   1.000   S HH
IVLNSS        1.200   1.000   P HH
IVLNSS        3.950   1.000   S HH
YRED01        1.860   1.000   P HH
YRED01        5.240   1.000   S HH
IVT1214       3.870   1.000   P EH
IVT1214       4.840   1.000   S EH
YRED23        5.040   1.000   P HH
YRED10        4.110   1.000   P HH
YRED10        5.100   1.000   S HH
IVT1212       7.230   1.000   S EH
YRED08        4.220   1.000   S HH
YRED12        4.720   1.000   P HH
YRED12        9.300   1.000   S HH
YRED20        5.370   1.000   P HH
YRED20        9.800   1.000   S HH
IVT1215      11.460   1.000   S EH
YRED19        7.130   1.000   P HH
YRED19        9.780   1.000   S HH
IVMMO1        6.660   1.000   P EH
IVMMO1       10.110   1.000   S EH
# 2016 10 18  0  5 17.85  42.5153   13.2545    4.16  0.00  0.33  1.31  0.23    113838 E
YRED06        1.650   1.000   P HH
YRED06        2.990   1.000   S HH
YRED04        1.930   1.000   P HH
YRED04        3.640   1.000   S HH
IVT1247       2.210   1.000   P HH
IVT1247       3.900   1.000   S HH
YRED05        2.160   1.000   P HH
YRED05        4.040   1.000   S HH
YRED03        2.420   1.000   P HH
YRED03        4.500   1.000   S HH
YRED25        2.690   1.000   P HH
YRED25        5.110   1.000   S HH
YRED01        2.850   1.000   P HH
YRED01        5.330   1.000   S HH
IVT1299       2.840   1.000   P EH
IVT1299       5.330   1.000   S EH
YRED24        3.470   1.000   P HH
YRED24        5.990   1.000   S HH
YRED14        3.220   1.000   P HH
YRED14        6.230   1.000   S HH
IVT1218       5.080   1.000   P EH
IVT1246       4.980   1.000   P HH
IVT1246       7.250   1.000   S HH
YRED07        4.170   1.000   P HH
YRED07        7.450   1.000   S HH
IVT1243       5.670   1.000   P HH
IVT1243       8.630   1.000   S HH
IVTERO        5.550   1.000   P HH
IVTERO        9.950   1.000   S HH
IVT1212      11.680   1.000   S EH
YRED12       12.720   1.000   S HH
# 2016 10 18  0  5 31.79  42.8087   13.2697   10.51  0.00  1.15  2.32  0.81    113839 E
YRED16        3.680   1.000   P HH
YRED16        5.180   1.000   S HH
YRED23        3.600   1.000   P HH
YRED23        5.660   1.000   S HH
IVT1245       3.280   1.000   P HH
IVT1245       4.340   1.000   S HH
IVMMO1        3.880   1.000   P EH
IVMMO1        5.410   1.000   S EH
IVNRCA        4.200   1.000   P HH
IVNRCA        6.050   1.000   S HH
IVMC2         3.680   1.000   P EH
IVMC2         5.090   1.000   S EH
YRED20        7.110   1.000   S HH
YRED19        4.060   1.000   P HH
YRED19        5.770   1.000   S HH
YRED17        4.440   1.000   P HH
YRED17        6.610   1.000   S HH
YRED24        3.900   1.000   P HH
YRED24        6.080   1.000   S HH
IVT1243       7.540   1.000   S HH
IVT1299       4.050   1.000   P EH
IVT1299       6.280   1.000   S EH
IVT1212       7.720   1.000   S EH
YRED18        2.990   1.000   P HH
YRED18        7.090   1.000   S HH
YRED22        8.560   1.000   S HH
YRED03        4.440   1.000   P HH
YRED03        7.070   1.000   S HH
YRED12        9.780   1.000   S HH
YRED21        3.890   1.000   P HH
YRED21        8.370   1.000   S HH
YRED07        5.260   1.000   P HH
YRED07        8.540   1.000   S HH
IVT1246       9.740   1.000   S HH
IVCSP1       10.590   1.000   S EH
IVT1215       7.180   1.000   P EH
IVT1215      12.140   1.000   S EH
IVTERO        6.620   1.000   P HH
IVTERO       11.060   1.000   S HH
YRED05        7.170   1.000   P HH
YRED05       10.960   1.000   S HH
# 2016 10 18  0  5 48.39  42.7660   13.1525    1.75  0.00  0.43  0.62  0.37    113840 E
YRED10        0.690   1.000   P HH
YRED10        1.090   1.000   S HH
IVT1214       1.110   1.000   P EH
IVT1214       2.010   1.000   S EH
IVNRCA        1.830   1.000   P HH
IVNRCA        3.450   1.000   S HH
IVT1212       1.960   1.000   P EH
IVT1212       3.610   1.000   S EH
IVT1245       2.480   1.000   P HH
IVT1245       4.260   1.000   S HH
YRED23        3.080   1.000   P HH
YRED24        2.450   1.000   P HH
YRED24        4.960   1.000   S HH
YRED11        3.470   1.000   P HH
YRED11        5.210   1.000   S HH
YRED16        5.970   1.000   S HH
YRED12        3.220   1.000   P HH
YRED12        5.930   1.000   S HH
IVMC2         6.760   1.000   S EH
IVT1299       3.890   1.000   P EH
IVT1299       7.090   1.000   S EH
IVMMO1        3.970   1.000   P EH
IVMMO1        7.500   1.000   S EH
YRED20        7.890   1.000   S HH
IVT1215       4.980   1.000   P EH
IVT1215       8.110   1.000   S EH
IVT1243       8.930   1.000   S HH
YRED17        4.880   1.000   P HH
YRED17        8.610   1.000   S HH
YRED07        7.520   1.000   P HH
YRED07       10.220   1.000   S HH
IVT1246      11.480   1.000   S HH
# 2016 10 18  0  6  7.49  42.6318   13.3050    6.38  0.00  0.86  1.56  0.51    113841 E
IVT1299       1.780   1.000   P EH
IVT1299       2.880   1.000   S EH
YRED25        1.900   1.000   P HH
YRED25        3.190   1.000   S HH
YRED24        2.960   1.000   P HH
YRED24        4.990   1.000   S HH
YRED03        2.790   1.000   P HH
YRED03        4.370   1.000   S HH
YRED23        3.350   1.000   P HH
YRED07        3.050   1.000   P HH
YRED07        5.200   1.000   S HH
IVT1243       3.290   1.000   P HH
IVT1243       5.620   1.000   S HH
IVT1214       3.000   1.000   P EH
IVT1214       3.890   1.000   S EH
YRED20        3.700   1.000   P HH
YRED20        6.390   1.000   S HH
YRED05        3.810   1.000   P HH
YRED05        6.260   1.000   S HH
YRED11        4.830   1.000   S HH
IVTERO        4.950   1.000   P HH
IVTERO        8.540   1.000   S HH
IVT1212       3.150   1.000   P EH
IVT1245       6.230   1.000   S HH
IVNRCA        3.750   1.000   P HH
IVNRCA        5.290   1.000   S HH
IVMC2         8.610   1.000   S EH
YRED12        6.890   1.000   S HH
# 2016 10 18  0  6 21.11  42.7142   13.3015    7.45  0.00  2.42  5.41  1.04    113842 E
IVT1299       3.220   1.000   P EH
IVT1299       4.600   1.000   S EH
IVT1214       3.770   1.000   P EH
IVT1214       4.690   1.000   S EH
YRED25        2.940   1.000   P HH
YRED25        4.210   1.000   S HH
YRED07        4.170   1.000   P HH
YRED07        6.320   1.000   S HH
IVT1245       4.710   1.000   P HH
IVT1245       6.130   1.000   S HH
IVNRCA        4.250   1.000   P HH
IVNRCA        5.540   1.000   S HH
IVT1246       5.170   1.000   P HH
IVT1246       6.700   1.000   S HH
IVT1212       4.330   1.000   P EH
IVT1212       6.580   1.000   S EH
YRED11        9.410   1.000   S HH
IVMC2         8.940   1.000   S EH
YRED05        4.540   1.000   P HH
YRED12        7.080   1.000   P HH
IVT1215      11.180   1.000   S EH
# 2016 10 18  0  6 34.47  42.8405   13.2112    3.67  0.00  1.49  2.88  0.96    113843 E
IVT1245       2.750   1.000   S HH
IVNRCA        2.490   1.000   P HH
IVNRCA        3.050   1.000   S HH
YRED19        2.550   1.000   P HH
YRED19        4.180   1.000   S HH
IVMMO1        2.200   1.000   P EH
IVMMO1        3.760   1.000   S EH
IVT1212       5.510   1.000   S EH
YRED24        6.130   1.000   P HH
YRED24        7.810   1.000   S HH
YRED20        5.520   1.000   P HH
YRED20        7.520   1.000   S HH
IVT1299       6.300   1.000   P EH
IVT1299       7.360   1.000   S EH
YRED03        5.870   1.000   P HH
YRED03        7.030   1.000   S HH
IVT1215       9.880   1.000   S EH
YRED25        6.630   1.000   P HH
YRED25        8.630   1.000   S HH
YRED07       10.730   1.000   S HH
# 2016 10 18  0  6 53.27  42.9195   13.2635    3.04  0.00  0.47  1.28  0.30    113844 E
IVMMO1        1.670   1.000   P EH
IVMMO1        2.870   1.000   S EH
IVMC2         1.910   1.000   P EH
IVMC2         3.060   1.000   S EH
YRED17        1.640   1.000   P HH
YRED17        2.810   1.000   S HH
YRED18        2.000   1.000   P HH
YRED18        3.620   1.000   S HH
IVT1245       2.280   1.000   P HH
IVT1245       3.910   1.000   S HH
YRED19        2.340   1.000   P HH
YRED19        4.050   1.000   S HH
YRED22        2.560   1.000   P HH
YRED22        4.460   1.000   S HH
YRED21        2.790   1.000   P HH
YRED21        4.680   1.000   S HH
IVNRCA        2.610   1.000   P HH
IVNRCA        5.760   1.000   S HH
IVT1214       1.920   1.000   P EH
YRED20        8.150   1.000   S HH
IVT1212       8.970   1.000   S EH
YRED24        5.180   1.000   P HH
YRED24        6.780   1.000   S HH
YRED03        5.250   1.000   P HH
# 2016 10 18  0  7 17.54  42.7827   13.2625    8.72  0.00  2.40  6.74  1.06    113845 E
IVT1214       3.760   1.000   P EH
YRED10        3.170   1.000   P HH
YRED10        6.120   1.000   S HH
IVT1245       1.360   1.000   P HH
IVT1245       4.740   1.000   S HH
IVNRCA        3.900   1.000   P HH
IVNRCA        5.520   1.000   S HH
IVMMO1        4.210   1.000   P EH
YRED24        5.200   1.000   S HH
IVMC2         5.300   1.000   P EH
IVMC2         5.500   1.000   S EH
IVT1218       5.810   1.000   S EH
IVT1212       4.820   1.000   P EH
IVT1212       8.260   1.000   S EH
YRED19        4.100   1.000   P HH
YRED19        5.770   1.000   S HH
YRED17        3.920   1.000   P HH
YRED17        7.050   1.000   S HH
YRED03        4.170   1.000   P HH
YRED03        6.230   1.000   S HH
YRED18        4.920   1.000   P HH
YRED18        7.660   1.000   S HH
YRED05        6.730   1.000   P HH
# 2016 10 18  0  7 26.27  42.6470   13.3065    4.83  0.00  0.30  0.81  0.28    113846 E
IVT1299       1.510   1.000   P EH
IVT1299       2.690   1.000   S EH
YRED25        1.880   1.000   P HH
YRED25        3.410   1.000   S HH
YRED04        2.110   1.000   P HH
YRED04        3.710   1.000   S HH
YRED24        2.450   1.000   P HH
YRED24        4.460   1.000   S HH
YRED03        2.460   1.000   P HH
YRED03        4.480   1.000   S HH
YRED23        2.530   1.000   P HH
YRED23        4.560   1.000   S HH
IVT1243       2.730   1.000   P HH
IVT1243       4.800   1.000   S HH
YRED07        2.700   1.000   P HH
YRED07        4.860   1.000   S HH
IVT1214       3.140   1.000   P EH
IVT1214       5.720   1.000   S EH
YRED20        2.920   1.000   P HH
YRED20        5.160   1.000   S HH
IVT1218       5.740   1.000   S EH
IVT1246       3.400   1.000   P HH
IVT1246       5.740   1.000   S HH
YRED05        3.660   1.000   P HH
YRED05        6.780   1.000   S HH
YRED09        3.520   1.000   P HH
YRED09        6.380   1.000   S HH
YRED10        3.930   1.000   P HH
YRED10        7.050   1.000   S HH
YRED16        4.090   1.000   P HH
YRED16        7.640   1.000   S HH
YRED01        4.320   1.000   P HH
YRED01        7.700   1.000   S HH
YRED11        7.720   1.000   S HH
IVT1212       8.150   1.000   S EH
YRED15        4.790   1.000   P HH
YRED15        8.370   1.000   S HH
IVTERO        8.010   1.000   S HH
YRED14        4.590   1.000   P HH
YRED14        8.280   1.000   S HH
IVNRCA        4.770   1.000   P HH
IVNRCA        8.710   1.000   S HH
YRED19        5.870   1.000   P HH
YRED19       10.920   1.000   S HH
YRED17        6.150   1.000   P HH
YRED17       11.760   1.000   S HH
YRED18        6.760   1.000   P HH
YRED18       13.080   1.000   S HH
YRED21        7.360   1.000   P HH
# 2016 10 18  0  7 52.75  42.8352   13.0567    0.19  0.00  0.84  1.77  0.67    113847 E
IVNRCA        0.640   1.000   P HH
IVNRCA        1.760   1.000   S HH
IVT1216       1.830   1.000   P EH
IVT1216       2.850   1.000   S EH
YRED12        1.460   1.000   P HH
YRED12        2.120   1.000   S HH
IVT1212       2.310   1.000   P EH
IVT1212       2.360   1.000   S EH
YRED10        1.330   1.000   P HH
YRED10        2.730   1.000   S HH
IVT1245       2.610   1.000   P HH
IVT1245       3.920   1.000   S HH
YRED19        2.690   1.000   P HH
YRED19        4.710   1.000   S HH
IVT1214       4.310   1.000   P EH
IVT1214       6.430   1.000   S EH
IVT1215       3.180   1.000   P EH
IVT1215       5.120   1.000   S EH
YRED11        4.930   1.000   S HH
IVT1217       7.020   1.000   S EH
IVT1218       5.360   1.000   P EH
IVT1218       8.140   1.000   S EH
YRED16        8.390   1.000   S HH
IVMMO1        8.680   1.000   S EH
YRED17        5.290   1.000   P HH
YRED21        5.730   1.000   P HH
YRED21        9.830   1.000   S HH
YRED20       11.480   1.000   S HH
# 2016 10 18  0  8  9.95  42.7575   13.2842    7.71  0.00  0.72  1.61  0.39    113848 E
YRED23        2.120   1.000   P HH
YRED23        3.890   1.000   S HH
IVT1214       2.320   1.000   P EH
IVT1214       4.140   1.000   S EH
YRED16        1.250   1.000   P HH
YRED16        2.400   1.000   S HH
YRED09        2.960   1.000   P HH
YRED09        5.240   1.000   S HH
YRED20        2.920   1.000   P HH
YRED20        5.230   1.000   S HH
IVT1245       1.280   1.000   P HH
IVT1245       2.560   1.000   S HH
YRED24        3.120   1.000   P HH
YRED24        5.700   1.000   S HH
IVMMO1        3.080   1.000   S EH
IVNRCA        3.410   1.000   P HH
IVNRCA        6.130   1.000   S HH
IVT1218       3.380   1.000   P EH
IVT1218       6.180   1.000   S EH
IVT1212       7.120   1.000   S EH
YRED07        7.370   1.000   S HH
YRED19        4.420   1.000   P HH
YRED11        7.890   1.000   S HH
YRED17        4.680   1.000   P HH
YRED17        8.500   1.000   S HH
# 2016 10 18  0  8 25.04  42.5977   13.3148    3.85  0.00  0.76  0.86  0.24    113849 E
YRED04        1.070   1.000   P HH
YRED04        2.240   1.000   S HH
YRED25        1.450   1.000   P HH
YRED25        2.830   1.000   S HH
IVT1299       1.450   1.000   P EH
IVT1299       2.770   1.000   S EH
YRED07        2.730   1.000   P HH
YRED07        5.070   1.000   S HH
YRED05        2.790   1.000   P HH
IVT1246       2.880   1.000   P HH
IVT1246       5.460   1.000   S HH
IVTERO        4.390   1.000   P HH
IVTERO        8.040   1.000   S HH
YRED11        2.660   1.000   P HH
YRED16        1.820   1.000   S HH
IVMMO1        1.750   1.000   P EH
IVT1215       8.400   1.000   S EH
# 2016 10 18  0  8 32.65  42.5308   13.3582    0.02  0.00  2.57  2.54  0.82    113850 E
YRED04        0.680   1.000   P HH
YRED04        2.130   1.000   S HH
YRED25        1.370   1.000   P HH
YRED25        3.460   1.000   S HH
IVT1246       2.660   1.000   P HH
YRED07        2.700   1.000   P HH
YRED07        5.970   1.000   S HH
IVT1243       3.110   1.000   P HH
IVT1243       6.620   1.000   S HH
IVTERO        4.460   1.000   P HH
IVT1218       9.820   1.000   S EH
IVT1214       7.250   1.000   P EH
IVT1214      11.690   1.000   S EH
IVT1212      14.030   1.000   S EH
IVT1245      11.760   1.000   S HH
YRED19       15.460   1.000   S HH
# 2016 10 18  0  8 54.56  42.9202   13.2655    3.72  0.00  0.42  0.92  0.27    113851 E
IVMMO1        1.690   1.000   P EH
IVMMO1        2.930   1.000   S EH
YRED17        1.690   1.000   P HH
YRED17        2.900   1.000   S HH
IVMC2         1.820   1.000   P EH
IVMC2         3.040   1.000   S EH
YRED18        1.990   1.000   P HH
YRED18        3.600   1.000   S HH
IVT1245       2.070   1.000   P HH
IVT1245       4.080   1.000   S HH
YRED16        2.350   1.000   P HH
YRED16        4.210   1.000   S HH
YRED19        2.250   1.000   P HH
YRED19        4.100   1.000   S HH
YRED22        2.580   1.000   P HH
YRED22        4.510   1.000   S HH
YRED21        2.720   1.000   P HH
YRED21        4.710   1.000   S HH
IVT1216       6.940   1.000   S EH
YRED20        4.890   1.000   P HH
YRED20        8.030   1.000   S HH
IVT1212       8.950   1.000   S EH
YRED11       11.240   1.000   S HH
# 2016 10 18  0  9 23.07  42.7470   13.1835    4.51  0.00  0.26  0.77  0.24    113852 E
IVT1214       1.370   1.000   P EH
IVT1214       2.580   1.000   S EH
YRED23        2.190   1.000   P HH
YRED23        4.110   1.000   S HH
YRED24        2.300   1.000   P HH
YRED24        4.290   1.000   S HH
IVT1218       2.350   1.000   P EH
IVT1218       4.360   1.000   S EH
IVNRCA        2.470   1.000   P HH
IVNRCA        4.410   1.000   S HH
IVT1212       2.680   1.000   P EH
IVT1212       4.660   1.000   S EH
IVT1245       5.010   1.000   S HH
YRED11        2.900   1.000   P HH
YRED11        5.450   1.000   S HH
YRED16        2.930   1.000   P HH
YRED16        5.440   1.000   S HH
IVT1299       3.170   1.000   P EH
IVT1299       5.630   1.000   S EH
YRED03        3.150   1.000   P HH
YRED03        5.880   1.000   S HH
YRED12        2.260   1.000   P HH
YRED12        6.780   1.000   S HH
IVMC2         2.810   1.000   P EH
IVMC2         7.130   1.000   S EH
YRED19        7.210   1.000   S HH
IVLNSS        3.890   1.000   P HH
IVLNSS        7.030   1.000   S HH
YRED09        3.670   1.000   P HH
YRED09        6.970   1.000   S HH
IVMMO1        3.840   1.000   P EH
IVMMO1        7.120   1.000   S EH
YRED20        3.560   1.000   P HH
YRED20        6.530   1.000   S HH
IVT1217       7.580   1.000   S EH
IVT1243       7.160   1.000   S HH
YRED02        8.910   1.000   S HH
YRED17        4.740   1.000   P HH
YRED17        8.810   1.000   S HH
IVT1215       8.980   1.000   S EH
YRED18        5.290   1.000   P HH
YRED18        9.710   1.000   S HH
YRED22        5.790   1.000   P HH
YRED22       10.880   1.000   S HH
IVT1246       4.580   1.000   P HH
IVT1246       9.760   1.000   S HH
YRED21        5.840   1.000   P HH
YRED21       10.780   1.000   S HH
IVTERO        6.600   1.000   P HH
IVTERO       11.410   1.000   S HH
# 2016 10 18  0  9 48.72  42.5987   13.0403    4.00  0.00  1.87 43.36  0.51    113853 E
IVT1211       6.380   1.000   S EH
YRED12        4.390   1.000   P HH
IVNRCA        9.190   1.000   S HH
IVT1245       7.220   1.000   P HH
IVT1245      10.180   1.000   S HH
YRED20       12.310   1.000   S HH
YRED19        8.350   1.000   P HH
IVFIAM        5.630   1.000   P HH
IVMMO1        7.780   1.000   P EH
IVMMO1       13.000   1.000   S EH
YRED17        8.990   1.000   P HH
YRED17       14.750   1.000   S HH
# 2016 10 18  0 10  7.64  42.7875   13.1018    5.13  0.00  0.49  1.01  0.25    113854 E
YRED10        1.500   1.000   P HH
YRED10        2.940   1.000   S HH
IVNRCA        1.660   1.000   P HH
IVNRCA        3.240   1.000   S HH
IVT1212       1.770   1.000   P EH
IVT1212       3.640   1.000   S EH
IVT1214       3.200   1.000   P EH
IVT1214       4.160   1.000   S EH
YRED12        2.440   1.000   P HH
IVT1245       3.200   1.000   S HH
YRED11        2.460   1.000   P HH
YRED11        4.810   1.000   S HH
IVT1218       2.840   1.000   P EH
IVT1218       5.190   1.000   S EH
YRED19        3.280   1.000   P HH
YRED19        5.520   1.000   S HH
IVMC2         6.160   1.000   S EH
YRED24        3.640   1.000   P HH
YRED24        6.040   1.000   S HH
IVT1215       6.670   1.000   S EH
IVMMO1        8.930   1.000   S EH
# 2016 10 18  0 10 16.83  42.6515   13.3472    5.17  0.00  0.63  1.81  0.27    113855 E
YRED25        1.840   1.000   P HH
YRED25        3.360   1.000   S HH
IVT1243       4.360   1.000   S HH
YRED07        2.470   1.000   P HH
YRED07        4.600   1.000   S HH
YRED24        2.710   1.000   P HH
YRED24        4.800   1.000   S HH
YRED20        2.720   1.000   P HH
YRED20        5.110   1.000   S HH
IVT1246       3.020   1.000   P HH
IVT1246       5.270   1.000   S HH
IVT1218       3.700   1.000   P EH
IVT1218       6.060   1.000   S EH
YRED16        7.410   1.000   S HH
IVTERO        3.960   1.000   P HH
IVTERO        7.280   1.000   S HH
# 2016 10 18  0 10 54.22  42.7615   13.2253    2.83  0.00  2.45  3.95  1.12    113856 E
YRED10        1.800   1.000   P HH
YRED10        1.900   1.000   S HH
IVT1245       3.240   1.000   P HH
IVT1245       3.910   1.000   S HH
IVNRCA        3.920   1.000   P HH
IVNRCA        5.610   1.000   S HH
IVT1218       6.070   1.000   S EH
IVT1212       4.440   1.000   S EH
IVMC2         3.840   1.000   P EH
IVMC2         5.140   1.000   S EH
IVMMO1        2.310   1.000   P EH
IVMMO1        3.400   1.000   S EH
YRED11        5.570   1.000   S HH
YRED19        3.950   1.000   P HH
YRED19        5.100   1.000   S HH
YRED17        8.020   1.000   S HH
IVT1217       6.730   1.000   S EH
IVT1215      11.550   1.000   S EH
YRED21        6.400   1.000   P HH
IVT1247       5.460   1.000   P HH
