# 2016 10 18  0 44 35.22  42.9068   13.2655    3.23  0.00  0.30  0.69  0.31    113938 E
IVMMO1        1.400   1.000   P EH
IVMMO1        2.480   1.000   S EH
IVMC2         1.650   1.000   P EH
IVMC2         2.860   1.000   S EH
YRED17        1.670   1.000   P HH
YRED17        3.050   1.000   S HH
IVT1245       1.800   1.000   P HH
IVT1245       3.370   1.000   S HH
YRED16        1.950   1.000   P HH
YRED16        3.590   1.000   S HH
YRED18        2.080   1.000   P HH
YRED18        4.050   1.000   S HH
YRED22        2.650   1.000   P HH
YRED22        4.750   1.000   S HH
YRED21        2.780   1.000   P HH
YRED21        5.060   1.000   S HH
IVNRCA        2.860   1.000   P HH
IVT1214       3.380   1.000   P EH
IVT1214       6.250   1.000   S EH
YRED09        3.440   1.000   P HH
YRED09        6.310   1.000   S HH
YRED10        3.300   1.000   P HH
YRED10        6.090   1.000   S HH
IVGUMA        3.910   1.000   P HH
IVGUMA        7.250   1.000   S HH
YRED23        3.840   1.000   P HH
YRED23        7.580   1.000   S HH
IVT1216       3.760   1.000   P EH
IVCSP1        3.970   1.000   P EH
IVCSP1        7.380   1.000   S EH
YRED20        4.160   1.000   P HH
YRED20        7.590   1.000   S HH
IVT1212       4.610   1.000   P EH
IVT1212       8.500   1.000   S EH
YRED12        4.810   1.000   P HH
YRED12        8.850   1.000   S HH
IVT1243       5.340   1.000   P HH
IVT1243       9.540   1.000   S HH
YRED24       10.500   1.000   S HH
IVT1218       9.920   1.000   S EH
IVT1299       6.440   1.000   P EH
IVT1299      10.600   1.000   S EH
YRED11        5.700   1.000   P HH
YRED11       10.660   1.000   S HH
YRED03        6.940   1.000   P HH
YRED03       11.900   1.000   S HH
IVT1215       6.160   1.000   P EH
IVT1215      11.200   1.000   S EH
YRED07        6.600   1.000   P HH
YRED07       11.660   1.000   S HH
IVLNSS        6.880   1.000   P HH
IVLNSS       12.780   1.000   S HH
IVT1246       7.440   1.000   P HH
IVT1246      13.030   1.000   S HH
IVTERO        7.480   1.000   P HH
IVTERO       13.670   1.000   S HH
IVCING       16.660   1.000   S HH
YRED14        9.320   1.000   P HH
IVATCC       19.170   1.000   S EH
# 2016 10 18  0 44 49.22  42.9178   13.1885    3.90  0.00  0.27  0.42  0.30    113939 E
IVMC2         1.330   1.000   P EH
IVMC2         2.400   1.000   S EH
YRED19        1.440   1.000   P HH
YRED19        2.550   1.000   S HH
IVT1245       1.830   1.000   P HH
IVT1245       3.380   1.000   S HH
YRED18        2.070   1.000   P HH
YRED18        3.980   1.000   S HH
IVNRCA        2.570   1.000   P HH
IVNRCA        4.320   1.000   S HH
YRED17        2.290   1.000   P HH
YRED17        4.250   1.000   S HH
IVMMO1        2.460   1.000   P EH
IVMMO1        4.530   1.000   S EH
YRED16        2.840   1.000   P HH
YRED16        5.180   1.000   S HH
IVT1216       2.930   1.000   P EH
IVT1216       5.220   1.000   S EH
YRED21        2.770   1.000   P HH
YRED21        5.130   1.000   S HH
YRED22        3.010   1.000   P HH
YRED22        5.600   1.000   S HH
YRED10        3.170   1.000   P HH
YRED10        5.650   1.000   S HH
IVT1214       3.570   1.000   P EH
IVT1214       6.510   1.000   S EH
IVCSP1        3.650   1.000   P EH
IVCSP1        6.780   1.000   S EH
IVGUMA        4.040   1.000   P HH
IVGUMA        7.550   1.000   S HH
YRED23        4.280   1.000   P HH
YRED23        8.420   1.000   S HH
YRED12        4.200   1.000   P HH
YRED12        7.390   1.000   S HH
IVT1212       4.250   1.000   P EH
IVT1212       7.660   1.000   S EH
YRED09        4.420   1.000   P HH
YRED09        7.880   1.000   S HH
IVT1202       8.800   1.000   S EH
IVCESI        8.440   1.000   S HH
YRED20        4.970   1.000   P HH
YRED20        9.030   1.000   S HH
IVT1218       5.250   1.000   P EH
IVT1218       9.590   1.000   S EH
YRED11        5.210   1.000   P HH
YRED11        9.680   1.000   S HH
YRED24        5.330   1.000   P HH
YRED24       10.180   1.000   S HH
IVT1215       5.300   1.000   P EH
IVT1215       9.620   1.000   S EH
IVT1217      10.430   1.000   S EH
IVT1299       5.910   1.000   P EH
IVT1299      11.050   1.000   S EH
IVT1243       5.860   1.000   P HH
IVT1243      10.710   1.000   S HH
YRED03       11.760   1.000   S HH
IVLNSS        6.570   1.000   P HH
IVLNSS       12.060   1.000   S HH
YRED07        6.860   1.000   P HH
YRED07       12.860   1.000   S HH
YRED02       13.010   1.000   S HH
YRED01       14.460   1.000   S HH
IVT1246       7.990   1.000   P HH
IVT1246      14.230   1.000   S HH
IVTERO        8.140   1.000   P HH
IVTERO       14.900   1.000   S HH
YRED05        8.690   1.000   P HH
YRED05       16.250   1.000   S HH
IVT1211      16.800   1.000   S EH
YRED15       16.700   1.000   S HH
YRED14        9.400   1.000   P HH
YRED14       17.380   1.000   S HH
# 2016 10 18  0 45 21.65  42.7282   13.1418   12.95  0.00  1.71  3.20  0.67    113940 E
YRED10        4.250   1.000   P HH
YRED10        5.650   1.000   S HH
IVT1212       2.180   1.000   P EH
IVT1212       6.630   1.000   S EH
IVNRCA        3.870   1.000   P HH
IVNRCA        5.170   1.000   S HH
YRED03        2.980   1.000   P HH
IVT1245       3.290   1.000   P HH
IVT1245       6.230   1.000   S HH
YRED12        4.010   1.000   P HH
YRED12        6.890   1.000   S HH
IVT1217       7.380   1.000   S EH
IVMC2         8.690   1.000   S EH
YRED19        9.060   1.000   S HH
IVT1215       9.180   1.000   S EH
IVMMO1        9.580   1.000   S EH
YRED17        3.250   1.000   P HH
YRED17        9.800   1.000   S HH
# 2016 10 18  0 46  4.44  42.8497   13.2582    3.73  0.00  0.25  0.52  0.31    113942 E
YRED16        1.340   1.000   P HH
YRED16        2.450   1.000   S HH
IVT1245       1.600   1.000   P HH
IVT1245       2.860   1.000   S HH
IVMMO1        1.910   1.000   P EH
IVMMO1        3.410   1.000   S EH
IVMC2         2.270   1.000   P EH
IVMC2         3.820   1.000   S EH
IVT1214       2.510   1.000   P EH
IVT1214       4.480   1.000   S EH
IVNRCA        2.470   1.000   P HH
IVNRCA        4.450   1.000   S HH
YRED23        2.730   1.000   P HH
YRED23        5.080   1.000   S HH
YRED19        2.630   1.000   P HH
YRED19        4.720   1.000   S HH
YRED10        2.570   1.000   P HH
YRED10        4.640   1.000   S HH
YRED17        2.800   1.000   P HH
YRED17        5.090   1.000   S HH
YRED09        2.870   1.000   P HH
YRED09        5.330   1.000   S HH
YRED18        3.290   1.000   P HH
YRED18        6.050   1.000   S HH
YRED22        3.770   1.000   P HH
YRED22        6.820   1.000   S HH
YRED20        3.430   1.000   P HH
YRED20        6.330   1.000   S HH
YRED21        3.860   1.000   P HH
YRED21        6.960   1.000   S HH
IVT1216       7.000   1.000   S EH
IVT1212       3.980   1.000   P EH
IVT1212       7.210   1.000   S EH
YRED24        4.680   1.000   P HH
YRED24        8.210   1.000   S HH
IVT1243       4.240   1.000   P HH
IVT1243       7.770   1.000   S HH
IVT1218       4.590   1.000   P EH
IVT1218       8.300   1.000   S EH
YRED12        4.410   1.000   P HH
YRED12        8.140   1.000   S HH
IVT1299       4.740   1.000   P EH
IVT1299       8.580   1.000   S EH
YRED11        4.720   1.000   P HH
YRED11        9.480   1.000   S HH
IVCSP1        5.120   1.000   P EH
IVCSP1        9.290   1.000   S EH
YRED25        5.240   1.000   P HH
YRED25       10.200   1.000   S HH
YRED07        5.480   1.000   P HH
YRED07        9.850   1.000   S HH
IVT1217       6.040   1.000   P EH
IVT1217      10.170   1.000   S EH
IVT1215       5.750   1.000   P EH
IVT1215      10.650   1.000   S EH
IVLNSS        6.230   1.000   P HH
IVLNSS       10.970   1.000   S HH
IVCESI       11.440   1.000   S HH
IVT1246       6.090   1.000   P HH
IVT1246      11.280   1.000   S HH
IVTERO        6.550   1.000   P HH
YRED01       12.550   1.000   S HH
YRED02        6.260   1.000   P HH
YRED02       12.340   1.000   S HH
YRED15       13.820   1.000   S HH
# 2016 10 18  0 46 36.01  42.6753   13.1683    7.31  0.00  0.39  0.67  0.24    113943 E
YRED24        1.890   1.000   P HH
YRED24        3.630   1.000   S HH
IVT1218       1.980   1.000   P EH
IVT1218       3.620   1.000   S EH
YRED03        3.630   1.000   P HH
YRED03        4.440   1.000   S HH
IVT1214       2.400   1.000   P EH
IVT1214       4.480   1.000   S EH
YRED11        2.580   1.000   P HH
YRED11        4.780   1.000   S HH
YRED23        2.990   1.000   P HH
YRED23        5.550   1.000   S HH
IVLNSS        3.010   1.000   P HH
IVLNSS        5.610   1.000   S HH
YRED25        3.570   1.000   P HH
YRED25        6.790   1.000   S HH
YRED01        3.580   1.000   P HH
YRED01        6.670   1.000   S HH
IVT1217       3.860   1.000   P EH
IVT1217       7.030   1.000   S EH
YRED02        3.890   1.000   P HH
YRED02        7.680   1.000   S HH
IVT1243       4.290   1.000   P HH
IVT1243       7.920   1.000   S HH
YRED20        4.100   1.000   P HH
YRED20        7.460   1.000   S HH
YRED07        4.500   1.000   P HH
YRED07        8.260   1.000   S HH
YRED09        4.330   1.000   P HH
YRED09        8.050   1.000   S HH
IVMC2         5.700   1.000   P EH
IVMMO1        5.510   1.000   P EH
IVT1215       9.780   1.000   S EH
IVT1246       4.990   1.000   P HH
IVT1246       9.000   1.000   S HH
IVTERO        6.300   1.000   P HH
IVTERO       10.880   1.000   S HH
# 2016 10 18  0 46 49.41  42.5917   13.1445   36.17  0.00  3.48  1.90  0.14    113944 E
IVT1218      15.190   1.000   S EH
IVT1299       6.160   1.000   P EH
YRED02        9.890   1.000   P HH
IVNRCA       17.700   1.000   S HH
IVT1245       6.490   1.000   P HH
IVT1245      13.910   1.000   S HH
IVMC2         7.700   1.000   P EH
IVMC2        15.150   1.000   S EH
YRED17        9.010   1.000   P HH
YRED17       16.400   1.000   S HH
# 2016 10 18  0 47  5.97  42.6675   13.2343    4.00  0.00  8.03 94.44  1.13    113945 E
YRED25        2.620   1.000   P HH
YRED25        4.020   1.000   S HH
YRED16        8.650   1.000   S HH
IVT1245       8.290   1.000   S HH
IVMMO1        5.700   1.000   P EH
IVMMO1        8.140   1.000   S EH
IVMC2         8.080   1.000   S EH
YRED19        8.860   1.000   S HH
YRED17        7.140   1.000   P HH
YRED18        7.550   1.000   P HH
# 2016 10 18  0 47 45.16  42.8665   13.1698    2.76  0.00  0.24  0.47  0.30    113946 E
IVT1245       0.900   1.000   P HH
IVT1245       1.600   1.000   S HH
IVMC2         1.510   1.000   P EH
IVMC2         2.840   1.000   S EH
IVNRCA        1.450   1.000   P HH
IVNRCA        2.760   1.000   S HH
YRED19        1.530   1.000   P HH
YRED19        2.740   1.000   S HH
YRED10        2.160   1.000   P HH
YRED10        3.920   1.000   S HH
YRED16        2.490   1.000   P HH
YRED16        4.550   1.000   S HH
IVT1214       2.590   1.000   P EH
IVT1216       2.150   1.000   P EH
IVT1216       4.750   1.000   S EH
IVMMO1        2.750   1.000   P EH
IVMMO1        5.050   1.000   S EH
YRED18        3.040   1.000   P HH
YRED18        5.690   1.000   S HH
YRED17        3.050   1.000   P HH
YRED17        5.640   1.000   S HH
IVT1212       3.300   1.000   P EH
IVT1212       6.040   1.000   S EH
YRED23        3.630   1.000   P HH
YRED23        6.950   1.000   S HH
YRED12        3.460   1.000   P HH
YRED12        6.230   1.000   S HH
YRED21        3.750   1.000   P HH
YRED21        7.080   1.000   S HH
YRED22        4.030   1.000   P HH
YRED22        7.390   1.000   S HH
YRED09        4.130   1.000   P HH
YRED09        7.720   1.000   S HH
YRED11        4.460   1.000   P HH
YRED11        8.380   1.000   S HH
YRED20        4.630   1.000   P HH
YRED20        8.550   1.000   S HH
IVGUMA        5.170   1.000   P HH
IVGUMA        9.530   1.000   S HH
IVT1215       4.720   1.000   P EH
IVT1215       8.690   1.000   S EH
IVT1217       4.910   1.000   P EH
IVT1217       9.280   1.000   S EH
IVCESI        6.300   1.000   P HH
IVCESI        9.190   1.000   S HH
IVT1243       5.430   1.000   P HH
IVT1243      10.280   1.000   S HH
IVLNSS        6.040   1.000   P HH
IVLNSS       10.640   1.000   S HH
YRED25        7.840   1.000   P HH
YRED25       12.310   1.000   S HH
YRED02        6.600   1.000   P HH
YRED02       11.480   1.000   S HH
YRED07        6.440   1.000   P HH
YRED07       11.910   1.000   S HH
YRED01        7.000   1.000   P HH
YRED01       12.870   1.000   S HH
IVT1246       7.230   1.000   P HH
IVT1246      13.250   1.000   S HH
IVTERO        7.740   1.000   P HH
IVTERO       14.390   1.000   S HH
IVSNTG       15.440   1.000   S HH
YRED15       15.700   1.000   S HH
YRED14       16.540   1.000   S HH
IVEL6        16.970   1.000   S EH
IVATCC       17.930   1.000   S EH
IVCING       18.300   1.000   S HH
# 2016 10 18  0 48  4.96  42.7460   13.1827    4.32  0.00  0.22  0.62  0.25    113947 E
IVT1214       1.350   1.000   P EH
IVT1214       2.520   1.000   S EH
YRED10        1.570   1.000   P HH
YRED10        2.820   1.000   S HH
IVT1202       1.720   1.000   P EH
IVT1202       3.250   1.000   S EH
YRED23        2.170   1.000   P HH
YRED23        4.080   1.000   S HH
YRED24        2.140   1.000   P HH
YRED24        4.210   1.000   S HH
IVT1218       2.320   1.000   P EH
IVT1218       4.320   1.000   S EH
IVNRCA        2.430   1.000   P HH
IVNRCA        4.420   1.000   S HH
IVT1212       2.550   1.000   P EH
IVT1212       4.590   1.000   S EH
IVT1245       2.660   1.000   P HH
IVT1245       4.910   1.000   S HH
YRED11        2.890   1.000   P HH
YRED11        5.370   1.000   S HH
YRED16        2.840   1.000   P HH
YRED16        5.360   1.000   S HH
IVT1299       3.120   1.000   P EH
IVT1299       5.150   1.000   S EH
YRED03        3.110   1.000   P HH
YRED03        5.810   1.000   S HH
YRED12        3.740   1.000   P HH
YRED12        6.800   1.000   S HH
IVMC2         3.800   1.000   P EH
IVMC2         6.960   1.000   S EH
YRED19        3.930   1.000   P HH
YRED19        7.110   1.000   S HH
IVLNSS        3.800   1.000   P HH
IVLNSS        7.350   1.000   S HH
YRED09        3.610   1.000   P HH
YRED09        6.760   1.000   S HH
YRED20        3.530   1.000   P HH
YRED20        6.520   1.000   S HH
IVMMO1        3.810   1.000   P EH
IVMMO1        7.080   1.000   S EH
IVT1216       3.940   1.000   P EH
IVT1216       7.590   1.000   S EH
IVT1217       4.070   1.000   P EH
IVT1217       7.360   1.000   S EH
YRED25        4.030   1.000   P HH
YRED25        7.840   1.000   S HH
IVT1243       3.830   1.000   P HH
IVT1243       7.190   1.000   S HH
YRED01        4.480   1.000   P HH
YRED01        8.400   1.000   S HH
YRED02        4.740   1.000   P HH
YRED02        8.820   1.000   S HH
IVT1215       4.760   1.000   P EH
IVT1215       8.890   1.000   S EH
YRED17        4.650   1.000   P HH
YRED17        8.800   1.000   S HH
YRED07        4.630   1.000   P HH
YRED07        8.590   1.000   S HH
YRED18        5.010   1.000   P HH
YRED18        9.440   1.000   S HH
IVT1246       5.340   1.000   P HH
IVT1246       9.760   1.000   S HH
YRED22        5.730   1.000   P HH
YRED22       10.920   1.000   S HH
YRED21        5.630   1.000   P HH
YRED21       10.600   1.000   S HH
IVT1211       6.220   1.000   P EH
IVT1211      11.420   1.000   S EH
IVCESI       11.990   1.000   S HH
IVTERO        6.100   1.000   P HH
IVTERO       11.320   1.000   S HH
IVGUMA       12.980   1.000   S HH
YRED15        6.980   1.000   P HH
YRED15       11.710   1.000   S HH
YRED14        7.080   1.000   P HH
YRED14       12.440   1.000   S HH
IVOFFI        8.610   1.000   P HH
# 2016 10 18  0 48 21.96  42.8570   13.2357    3.81  0.00  0.63  0.89  0.23    113948 E
IVT1245       1.540   1.000   P HH
IVT1245       2.710   1.000   S HH
YRED16        1.740   1.000   P HH
YRED16        3.110   1.000   S HH
IVMC2         2.200   1.000   P EH
IVMC2         3.520   1.000   S EH
YRED19        2.370   1.000   P HH
YRED19        4.160   1.000   S HH
IVT1212       7.380   1.000   S EH
YRED12        8.070   1.000   S HH
YRED03        9.650   1.000   S HH
# 2016 10 18  0 48 41.33  42.8758   13.2633    2.95  0.00  0.41  1.01  0.18    113949 E
YRED16        1.370   1.000   P HH
YRED16        2.380   1.000   S HH
IVMMO1        1.660   1.000   P EH
IVMMO1        2.940   1.000   S EH
IVT1245       1.550   1.000   S HH
IVMC2         3.270   1.000   S EH
YRED17        0.540   1.000   P HH
YRED17        4.530   1.000   S HH
YRED19        2.420   1.000   P HH
YRED19        4.550   1.000   S HH
YRED20        3.570   1.000   P HH
YRED20        7.190   1.000   S HH
# 2016 10 18  0 48 52.82  42.7732   13.1507    1.42  0.00  0.77  1.34  0.65    113950 E
YRED10        0.280   1.000   P HH
YRED10        1.020   1.000   S HH
IVT1214       1.320   1.000   P EH
IVT1214       2.090   1.000   S EH
IVNRCA        1.730   1.000   P HH
IVNRCA        3.190   1.000   S HH
IVT1212       2.010   1.000   P EH
IVT1212       3.480   1.000   S EH
IVT1245       3.910   1.000   P HH
IVT1245       4.870   1.000   S HH
IVT1218       3.330   1.000   P EH
IVT1218       4.650   1.000   S EH
YRED16        3.730   1.000   P HH
YRED16        6.100   1.000   S HH
IVMC2         4.780   1.000   P EH
IVMC2         6.040   1.000   S EH
YRED19        3.060   1.000   P HH
YRED19        5.540   1.000   S HH
YRED20        5.010   1.000   P HH
YRED20        8.030   1.000   S HH
YRED17        5.570   1.000   P HH
YRED17        7.590   1.000   S HH
# 2016 10 18  0 49 15.64  42.8677   13.2558    3.09  0.00  0.42  1.43  0.34    113951 E
YRED16        1.590   1.000   P HH
YRED16        2.750   1.000   S HH
IVT1245       1.650   1.000   P HH
IVT1245       2.870   1.000   S HH
IVMMO1        1.680   1.000   P EH
IVMMO1        2.950   1.000   S EH
IVMC2         2.060   1.000   P EH
IVMC2         3.640   1.000   S EH
YRED19        2.440   1.000   P HH
YRED19        4.370   1.000   S HH
YRED17        2.390   1.000   P HH
YRED17        4.350   1.000   S HH
IVNRCA        1.340   1.000   P HH
IVNRCA        4.330   1.000   S HH
IVT1214       2.820   1.000   P EH
IVT1214       5.100   1.000   S EH
YRED10        2.820   1.000   P HH
YRED10        4.960   1.000   S HH
YRED18        2.890   1.000   P HH
YRED18        5.400   1.000   S HH
YRED09        3.100   1.000   P HH
YRED09        5.630   1.000   S HH
YRED22        3.440   1.000   P HH
YRED22        6.230   1.000   S HH
YRED21        3.620   1.000   P HH
YRED21        6.360   1.000   S HH
YRED20        4.030   1.000   P HH
YRED20        6.710   1.000   S HH
IVT1218       5.550   1.000   P EH
# 2016 10 18  0 49 42.04  42.7883   13.2783    7.54  0.00  0.51  1.28  0.31    113952 E
YRED23        2.640   1.000   P HH
YRED16        3.150   1.000   P HH
YRED16        4.210   1.000   S HH
IVT1214       2.330   1.000   P EH
IVT1214       4.090   1.000   S EH
IVT1245       2.790   1.000   P HH
IVT1245       5.090   1.000   S HH
YRED10        2.700   1.000   P HH
YRED10        4.770   1.000   S HH
YRED09        2.820   1.000   P HH
YRED09        5.000   1.000   S HH
IVMMO1        4.940   1.000   P EH
IVMMO1        5.540   1.000   S EH
YRED20        3.030   1.000   P HH
YRED20        5.380   1.000   S HH
IVNRCA        3.100   1.000   P HH
IVNRCA        5.520   1.000   S HH
IVMC2         6.560   1.000   S EH
YRED19        3.790   1.000   P HH
YRED19        6.750   1.000   S HH
IVT1218       8.870   1.000   S EH
IVT1212       7.060   1.000   S EH
YRED17        3.950   1.000   P HH
YRED17        7.100   1.000   S HH
YRED03        9.640   1.000   S HH
YRED18        5.560   1.000   P HH
YRED18        8.240   1.000   S HH
IVTERO        7.950   1.000   P HH
IVTERO       10.720   1.000   S HH
# 2016 10 18  0 50  3.64  42.8327   13.1232    5.12  0.00  0.86  0.87  0.24    113953 E
IVNRCA        1.510   1.000   P HH
IVNRCA        2.690   1.000   S HH
YRED10        2.000   1.000   P HH
YRED10        3.450   1.000   S HH
YRED19        0.710   1.000   P HH
YRED19        4.320   1.000   S HH
IVT1212       2.470   1.000   P EH
IVT1212       4.450   1.000   S EH
YRED17        4.290   1.000   P HH
YRED17        7.430   1.000   S HH
