# 2016 10 18  0  0 12.53  42.8922   13.2492    3.28  0.00  0.54  1.49  0.31    113825 E
IVMC2         2.030   1.000   P EH
IVMC2         2.810   1.000   S EH
IVT1245       1.700   1.000   P HH
IVT1245       2.870   1.000   S HH
IVMMO1        1.780   1.000   P EH
IVMMO1        3.140   1.000   S EH
YRED19        2.480   1.000   P HH
YRED17        2.190   1.000   P HH
YRED17        3.940   1.000   S HH
YRED18        2.480   1.000   P HH
YRED18        4.670   1.000   S HH
YRED21        2.480   1.000   P HH
YRED21        5.720   1.000   S HH
YRED09        2.480   1.000   P HH
IVT1216       2.480   1.000   P EH
YRED20        2.480   1.000   P HH
YRED20        7.910   1.000   S HH
YRED03        2.480   1.000   P HH
# 2016 10 18  0  0 30.73  42.7942   13.1393    0.52  0.00  0.35  0.70  0.31    113826 E
YRED10        0.520   1.000   P HH
YRED10        1.050   1.000   S HH
IVNRCA        1.300   1.000   P HH
IVNRCA        2.120   1.000   S HH
IVT1214       1.650   1.000   P EH
IVT1214       2.840   1.000   S EH
IVT1245       1.880   1.000   P HH
IVT1245       3.480   1.000   S HH
IVT1212       1.970   1.000   P EH
IVT1212       3.740   1.000   S EH
YRED12        3.330   1.000   P HH
YRED12        5.330   1.000   S HH
IVMC2         5.860   1.000   S EH
YRED19        2.010   1.000   P HH
YRED19        5.970   1.000   S HH
IVT1216       5.770   1.000   S EH
YRED11        3.030   1.000   P HH
YRED11        6.020   1.000   S HH
YRED24        3.020   1.000   P HH
YRED24        5.860   1.000   S HH
IVMMO1        3.730   1.000   P EH
IVMMO1        7.730   1.000   S EH
IVT1299       4.430   1.000   P EH
IVT1299       8.490   1.000   S EH
IVT1215       4.560   1.000   P EH
IVT1215       8.080   1.000   S EH
YRED18        5.300   1.000   P HH
YRED18        8.740   1.000   S HH
YRED17        4.420   1.000   P HH
YRED17        8.420   1.000   S HH
YRED20        8.340   1.000   S HH
YRED21        5.790   1.000   P HH
YRED21        9.950   1.000   S HH
# 2016 10 18  0  0 55.26  42.7492   13.1798    4.29  0.00  0.34  0.92  0.22    113827 E
IVT1214       1.910   1.000   P EH
IVT1214       2.540   1.000   S EH
YRED10        1.760   1.000   P HH
IVT1202       1.760   1.000   P EH
IVT1202       3.280   1.000   S EH
YRED23        2.200   1.000   P HH
YRED23        4.110   1.000   S HH
IVT1218       4.440   1.000   S EH
YRED24        2.230   1.000   P HH
YRED24        4.270   1.000   S HH
IVNRCA        2.470   1.000   P HH
IVNRCA        4.440   1.000   S HH
IVT1212       3.220   1.000   P EH
IVT1212       4.670   1.000   S EH
YRED11        5.470   1.000   S HH
IVMC2         7.240   1.000   S EH
IVMMO1        4.340   1.000   P EH
IVMMO1        7.250   1.000   S EH
YRED20        3.600   1.000   P HH
YRED20        6.530   1.000   S HH
YRED17        4.840   1.000   P HH
YRED17        8.820   1.000   S HH
# 2016 10 18  0  1  1.39  42.7605   13.2170    5.46  0.00  0.63  1.40  0.18    113828 E
IVT1214       1.570   1.000   P EH
IVT1214       2.750   1.000   S EH
IVT1202       2.720   1.000   P EH
IVT1202       3.480   1.000   S EH
IVNRCA        2.560   1.000   P HH
IVNRCA        4.610   1.000   S HH
YRED24        2.440   1.000   P HH
IVT1212       5.010   1.000   P EH
IVMC2         6.330   1.000   S EH
YRED20        6.730   1.000   S HH
# 2016 10 18  0  1 43.54  42.8357   13.1648    4.88  0.00  0.26  0.75  0.29    113829 E
IVT1245       1.590   1.000   P HH
IVT1245       2.870   1.000   S HH
IVNRCA        1.580   1.000   P HH
IVNRCA        2.660   1.000   S HH
YRED10        1.870   1.000   P HH
YRED10        3.220   1.000   S HH
IVMC2         2.240   1.000   P EH
IVMC2         4.270   1.000   S EH
IVT1214       2.450   1.000   P EH
IVT1214       4.110   1.000   S EH
YRED19        2.290   1.000   P HH
YRED19        4.060   1.000   S HH
YRED16        2.640   1.000   P HH
YRED16        4.950   1.000   S HH
IVT1216       2.730   1.000   P EH
IVT1216       4.940   1.000   S EH
IVT1212       2.950   1.000   P EH
IVT1212       5.190   1.000   S EH
YRED23        3.210   1.000   P HH
YRED23        6.060   1.000   S HH
IVMMO1        3.070   1.000   P EH
IVMMO1        5.610   1.000   S EH
IVT1202       3.280   1.000   P EH
IVT1202       6.390   1.000   S EH
YRED12        3.160   1.000   P HH
YRED12        5.840   1.000   S HH
YRED18        3.630   1.000   P HH
YRED18        6.650   1.000   S HH
YRED17        3.590   1.000   P HH
YRED17        6.380   1.000   S HH
IVT1218       3.810   1.000   P EH
IVT1218       6.710   1.000   S EH
YRED11        3.790   1.000   P HH
YRED11        7.260   1.000   S HH
YRED24        3.930   1.000   P HH
YRED24        7.400   1.000   S HH
YRED09        4.030   1.000   P HH
YRED09        7.460   1.000   S HH
YRED22        4.450   1.000   P HH
YRED22        7.860   1.000   S HH
YRED21        4.370   1.000   P HH
YRED21        7.990   1.000   S HH
IVT1217       4.530   1.000   P EH
IVT1217       8.000   1.000   S EH
YRED20        4.390   1.000   P HH
YRED20        8.040   1.000   S HH
IVT1215       4.480   1.000   P EH
IVT1215       8.230   1.000   S EH
IVLNSS        5.180   1.000   P HH
IVLNSS        9.630   1.000   S HH
IVT1243       4.980   1.000   P HH
IVT1243       9.350   1.000   S HH
IVCESI        5.130   1.000   P HH
IVCESI        9.610   1.000   S HH
YRED02        6.500   1.000   P HH
YRED02       10.460   1.000   S HH
YRED07        6.030   1.000   P HH
YRED07       11.090   1.000   S HH
YRED01        6.370   1.000   P HH
YRED01       11.500   1.000   S HH
IVT1246       6.740   1.000   P HH
IVT1246      12.360   1.000   S HH
IVT1211      13.530   1.000   S EH
YRED05       13.850   1.000   S HH
IVTERO       13.550   1.000   S HH
YRED15       14.360   1.000   S HH
YRED14        8.360   1.000   P HH
YRED14       15.480   1.000   S HH
# 2016 10 18  0  2  8.64  42.7182   13.2577   10.20  0.00  1.44  3.16  1.11    113830 E
IVT1202       6.890   1.000   S EH
IVT1214       4.510   1.000   P EH
IVT1214       6.060   1.000   S EH
YRED24        2.710   1.000   P HH
YRED24        6.880   1.000   S HH
IVT1299       3.270   1.000   P EH
IVT1299       4.120   1.000   S EH
YRED16        4.210   1.000   P HH
YRED16        5.540   1.000   S HH
YRED03        2.430   1.000   P HH
YRED20        5.060   1.000   P HH
YRED20        7.540   1.000   S HH
YRED25        3.700   1.000   P HH
YRED25        5.120   1.000   S HH
IVT1243       4.660   1.000   P HH
IVT1243       6.910   1.000   S HH
YRED04        3.920   1.000   P HH
YRED04        5.380   1.000   S HH
YRED09        5.740   1.000   P HH
YRED09        8.280   1.000   S HH
IVT1245       4.130   1.000   P HH
IVT1245       5.470   1.000   S HH
IVNRCA        6.550   1.000   S HH
YRED07        4.610   1.000   P HH
YRED07        7.000   1.000   S HH
IVMMO1        4.990   1.000   P EH
IVMMO1        6.870   1.000   S EH
IVMC2         3.920   1.000   P EH
IVMC2         6.800   1.000   S EH
YRED19        5.350   1.000   P HH
YRED19        7.470   1.000   S HH
IVT1246       4.960   1.000   P HH
IVT1246       7.640   1.000   S HH
YRED12        3.360   1.000   P HH
YRED12        9.910   1.000   S HH
YRED01        3.680   1.000   P HH
IVT1216       9.220   1.000   S EH
YRED05        5.720   1.000   P HH
YRED05        8.800   1.000   S HH
YRED17        5.790   1.000   P HH
YRED17        8.430   1.000   S HH
IVTERO        6.360   1.000   P HH
IVTERO        9.870   1.000   S HH
YRED18        6.200   1.000   P HH
YRED18        9.160   1.000   S HH
YRED22        6.190   1.000   P HH
YRED22       10.730   1.000   S HH
IVT1215       5.710   1.000   P EH
IVT1215      12.530   1.000   S EH
YRED14        6.760   1.000   P HH
YRED14       10.310   1.000   S HH
YRED21        7.390   1.000   P HH
YRED21       10.680   1.000   S HH
# 2016 10 18  0  2 41.22  42.7598   13.1798    4.34  0.00  0.35  0.86  0.31    113831 E
IVT1214       1.160   1.000   P EH
IVT1214       2.070   1.000   S EH
YRED10        1.240   1.000   P HH
YRED10        2.120   1.000   S HH
IVT1202       1.820   1.000   P EH
IVT1202       3.300   1.000   S EH
YRED23        2.290   1.000   P HH
YRED23        4.340   1.000   S HH
IVNRCA        2.170   1.000   P HH
IVNRCA        3.820   1.000   S HH
IVT1212       2.430   1.000   P EH
IVT1212       4.250   1.000   S EH
IVT1218       2.440   1.000   P EH
IVT1218       4.400   1.000   S EH
YRED24        2.410   1.000   P HH
YRED24        4.510   1.000   S HH
YRED11        2.970   1.000   P HH
YRED11        5.780   1.000   S HH
IVT1299       3.450   1.000   P EH
IVT1299       6.390   1.000   S EH
YRED12        3.610   1.000   P HH
YRED12        6.270   1.000   S HH
YRED03        3.460   1.000   P HH
YRED03        6.500   1.000   S HH
YRED09        3.850   1.000   P HH
YRED09        7.100   1.000   S HH
IVLNSS        4.010   1.000   P HH
IVLNSS        7.480   1.000   S HH
YRED20        3.910   1.000   P HH
YRED20        7.120   1.000   S HH
IVT1217       4.080   1.000   P EH
IVT1217       7.550   1.000   S EH
YRED25        4.520   1.000   P HH
YRED25        8.360   1.000   S HH
IVT1243       4.300   1.000   P HH
IVT1243       7.830   1.000   S HH
IVT1215       4.780   1.000   P EH
IVT1215       8.580   1.000   S EH
YRED01        5.170   1.000   P HH
YRED01        9.070   1.000   S HH
YRED02        4.970   1.000   P HH
YRED02        9.100   1.000   S HH
YRED07        5.070   1.000   P HH
YRED07        9.440   1.000   S HH
IVT1246       5.740   1.000   P HH
IVT1246      10.550   1.000   S HH
YRED06        6.220   1.000   P HH
YRED05        6.240   1.000   P HH
YRED05       11.480   1.000   S HH
YRED08        5.680   1.000   P HH
YRED08       11.840   1.000   S HH
IVT1211       5.600   1.000   P EH
IVT1211      11.890   1.000   S EH
IVTERO       12.100   1.000   S HH
YRED15        6.920   1.000   P HH
YRED15       12.860   1.000   S HH
YRED14        7.100   1.000   P HH
YRED14       13.070   1.000   S HH
IVOFFI        9.070   1.000   P HH
IVGIGS        8.080   1.000   P HH
IVGIGS       14.370   1.000   S HH
IVFIAM       17.200   1.000   S HH
IVATCC       11.040   1.000   P EH
IVT0110      12.930   1.000   P HH
# 2016 10 18  0  2 50.53  42.8985   13.2620    3.46  0.00  0.24  0.50  0.30    113832 E
IVMMO1        1.290   1.000   P EH
IVMMO1        2.360   1.000   S EH
IVMC2         1.650   1.000   P EH
IVMC2         2.960   1.000   S EH
IVT1245       1.830   1.000   P HH
IVT1245       3.200   1.000   S HH
YRED16        1.770   1.000   P HH
YRED16        3.300   1.000   S HH
YRED17        1.670   1.000   P HH
YRED17        3.100   1.000   S HH
YRED19        2.100   1.000   P HH
YRED19        3.960   1.000   S HH
YRED18        2.080   1.000   P HH
YRED18        4.160   1.000   S HH
YRED22        4.890   1.000   S HH
IVNRCA        2.750   1.000   P HH
IVNRCA        5.420   1.000   S HH
IVT1241       5.490   1.000   S HH
YRED21        2.700   1.000   P HH
YRED21        5.150   1.000   S HH
IVT1214       3.230   1.000   P EH
IVT1214       6.100   1.000   S EH
YRED10        3.160   1.000   P HH
YRED10        5.920   1.000   S HH
YRED09        3.210   1.000   P HH
YRED09        6.000   1.000   S HH
YRED23        3.580   1.000   P HH
YRED23        7.140   1.000   S HH
IVGUMA        3.900   1.000   P HH
IVGUMA        7.310   1.000   S HH
IVT1216       3.700   1.000   P EH
YRED20        3.940   1.000   P HH
YRED20        7.390   1.000   S HH
IVT1202       4.290   1.000   P EH
IVT1202       8.350   1.000   S EH
IVCSP1        4.180   1.000   P EH
IVCSP1        7.550   1.000   S EH
IVT1212       4.530   1.000   P EH
IVT1212       8.270   1.000   S EH
YRED12        4.700   1.000   P HH
YRED12        8.760   1.000   S HH
IVT1243       5.040   1.000   P HH
IVT1243       9.290   1.000   S HH
YRED24        5.500   1.000   P HH
YRED24        9.860   1.000   S HH
IVT1218       9.800   1.000   S EH
IVT1299       5.520   1.000   P EH
IVT1299      10.610   1.000   S EH
YRED11        5.580   1.000   P HH
YRED11        9.990   1.000   S HH
IVMNTP        6.540   1.000   P HN
IVCESI        5.770   1.000   P HH
IVCESI       10.500   1.000   S HH
YRED03        6.050   1.000   P HH
YRED03       11.450   1.000   S HH
IVT1215       6.100   1.000   P EH
IVT1215      11.070   1.000   S EH
IVT1217       6.190   1.000   P EH
IVT1217      11.250   1.000   S EH
YRED25        6.260   1.000   P HH
YRED25       11.680   1.000   S HH
YRED07        6.290   1.000   P HH
YRED07       11.340   1.000   S HH
IVLNSS        6.610   1.000   P HH
IVLNSS       12.590   1.000   S HH
IVT1246       7.030   1.000   P HH
IVT1246      12.800   1.000   S HH
IVTERO       13.410   1.000   S HH
YRED02        7.350   1.000   P HH
YRED02       13.580   1.000   S HH
YRED01        7.570   1.000   P HH
YRED01       14.320   1.000   S HH
YRED05        8.030   1.000   P HH
YRED05       15.190   1.000   S HH
IVSNTG        8.060   1.000   P HH
IVSNTG       15.350   1.000   S HH
YRED15       15.390   1.000   S HH
IVEL6         8.790   1.000   P EH
IVEL6        16.480   1.000   S EH
IVT1247      16.300   1.000   S HH
YRED08       17.510   1.000   S HH
YRED14        8.920   1.000   P HH
YRED14       16.750   1.000   S HH
IVT1211      16.650   1.000   S EH
IVCING        9.220   1.000   P HH
IVCING       16.850   1.000   S HH
IVGIGS       17.560   1.000   S HH
IVATCC       10.400   1.000   P EH
IVATCC       19.140   1.000   S EH
IVARVD       12.280   1.000   P HH
IVATFO       13.000   1.000   P HH
IVFRON       14.160   1.000   P EH
# 2016 10 18  0  3 32.26  42.7213   13.2122    8.16  0.00  0.31  0.75  0.29    113833 E
IVT1202       1.370   1.000   P EH
IVT1202       3.820   1.000   S EH
IVT1214       2.180   1.000   P EH
IVT1214       3.870   1.000   S EH
YRED23        2.560   1.000   P HH
YRED23        4.630   1.000   S HH
YRED24        2.460   1.000   P HH
YRED24        4.330   1.000   S HH
YRED10        4.360   1.000   S HH
IVT1218       2.610   1.000   P EH
IVT1218       4.600   1.000   S EH
IVT1299       2.970   1.000   P EH
IVT1299       5.240   1.000   S EH
YRED03        3.110   1.000   P HH
YRED03        5.500   1.000   S HH
IVT1212       3.160   1.000   P EH
IVT1212       5.550   1.000   S EH
IVNRCA        3.300   1.000   P HH
IVNRCA        5.830   1.000   S HH
YRED16        6.260   1.000   S HH
YRED11        3.250   1.000   P HH
YRED11        5.910   1.000   S HH
IVT1245       6.290   1.000   S HH
YRED25        3.410   1.000   P HH
YRED25        7.240   1.000   S HH
YRED20        3.810   1.000   P HH
YRED20        6.640   1.000   S HH
IVLNSS        4.070   1.000   P HH
IVLNSS        7.170   1.000   S HH
YRED09        3.890   1.000   P HH
YRED09        6.850   1.000   S HH
IVT1243       3.960   1.000   P HH
IVT1243       7.070   1.000   S HH
YRED12        4.340   1.000   P HH
YRED12        7.680   1.000   S HH
IVMMO1        7.940   1.000   S EH
YRED19        8.290   1.000   S HH
IVT1217       7.910   1.000   S EH
YRED07        8.280   1.000   S HH
IVT1246       6.780   1.000   P HH
IVT1246       9.260   1.000   S HH
YRED17        9.600   1.000   S HH
YRED18       10.450   1.000   S HH
IVTERO        6.130   1.000   P HH
IVTERO       10.800   1.000   S HH
YRED14       11.750   1.000   S HH
# 2016 10 18  0  3 47.84  42.7462   13.1795    4.05  0.00  0.30  0.71  0.21    113834 E
IVT1214       1.290   1.000   P EH
IVT1214       2.470   1.000   S EH
YRED10        1.580   1.000   P HH
YRED10        2.750   1.000   S HH
IVT1202       1.690   1.000   P EH
IVT1202       3.210   1.000   S EH
YRED23        2.140   1.000   P HH
YRED23        4.150   1.000   S HH
IVT1218       2.230   1.000   P EH
IVT1218       4.260   1.000   S EH
YRED24        2.260   1.000   P HH
YRED24        4.210   1.000   S HH
IVT1212       2.430   1.000   P EH
IVT1212       4.530   1.000   S EH
IVNRCA        2.370   1.000   P HH
IVNRCA        4.330   1.000   S HH
YRED11        2.820   1.000   P HH
YRED11        5.500   1.000   S HH
YRED03        3.150   1.000   P HH
YRED03        5.830   1.000   S HH
YRED12        3.690   1.000   P HH
YRED12        6.550   1.000   S HH
YRED19        5.110   1.000   P HH
YRED19        6.340   1.000   S HH
IVLNSS        3.860   1.000   P HH
IVLNSS        7.030   1.000   S HH
IVT1217       4.760   1.000   P EH
IVT1217       7.390   1.000   S EH
YRED20        3.490   1.000   P HH
YRED20        6.490   1.000   S HH
IVT1243       3.920   1.000   P HH
IVT1243       7.200   1.000   S HH
IVTERO        6.110   1.000   P HH
IVTERO       11.400   1.000   S HH
# 2016 10 18  0  4  1.14  42.9022   13.2642    3.00  0.00  0.31  0.83  0.32    113835 E
IVMMO1        1.440   1.000   P EH
IVMMO1        2.510   1.000   S EH
IVMC2         1.810   1.000   P EH
IVMC2         3.100   1.000   S EH
YRED17        1.810   1.000   P HH
YRED17        3.250   1.000   S HH
IVT1245       1.980   1.000   P HH
IVT1245       3.340   1.000   S HH
YRED16        1.930   1.000   P HH
YRED16        3.470   1.000   S HH
YRED18        2.210   1.000   P HH
YRED18        4.300   1.000   S HH
YRED19        2.250   1.000   P HH
YRED19        4.100   1.000   S HH
YRED22        2.770   1.000   P HH
YRED22        5.120   1.000   S HH
YRED21        2.880   1.000   P HH
YRED21        5.320   1.000   S HH
IVNRCA        2.510   1.000   P HH
IVT1214       5.050   1.000   S EH
YRED10        3.330   1.000   P HH
YRED10        6.030   1.000   S HH
YRED09        3.370   1.000   P HH
YRED09        6.220   1.000   S HH
YRED23        3.890   1.000   P HH
YRED23        7.360   1.000   S HH
IVT1216       3.840   1.000   P EH
IVT1216       7.150   1.000   S EH
IVCSP1        4.520   1.000   P EH
IVCSP1        7.700   1.000   S EH
YRED20        4.080   1.000   P HH
YRED20        7.550   1.000   S HH
IVT1212       8.620   1.000   S EH
IVT1243       4.490   1.000   P HH
IVT1243       9.850   1.000   S HH
YRED24        5.260   1.000   P HH
YRED24       10.490   1.000   S HH
YRED11       10.480   1.000   S HH
YRED03        6.660   1.000   P HH
YRED03       11.570   1.000   S HH
IVT1215       6.190   1.000   P EH
IVT1215      11.260   1.000   S EH
IVT1217       4.180   1.000   P EH
IVLNSS        6.860   1.000   P HH
IVLNSS       12.680   1.000   S HH
IVT1246       6.700   1.000   P HH
IVT1246      13.260   1.000   S HH
IVTERO        8.680   1.000   P HH
IVTERO       13.630   1.000   S HH
# 2016 10 18  0  4 22.27  42.7482   13.1835    4.23  0.00  0.29  0.68  0.23    113836 E
IVT1214       1.360   1.000   P EH
IVT1214       2.520   1.000   S EH
YRED10        1.560   1.000   P HH
YRED10        2.840   1.000   S HH
IVT1202       1.420   1.000   P EH
IVT1202       3.240   1.000   S EH
YRED23        2.170   1.000   P HH
YRED23        4.170   1.000   S HH
YRED24        2.260   1.000   P HH
YRED24        4.180   1.000   S HH
IVT1218       2.370   1.000   P EH
IVT1218       4.410   1.000   S EH
IVNRCA        2.440   1.000   P HH
IVNRCA        4.390   1.000   S HH
IVT1212       2.600   1.000   P EH
IVT1212       4.630   1.000   S EH
YRED11        3.090   1.000   P HH
YRED11        5.400   1.000   S HH
YRED03        3.150   1.000   P HH
YRED03        5.880   1.000   S HH
YRED12        3.750   1.000   P HH
YRED12        6.840   1.000   S HH
YRED19        7.170   1.000   S HH
IVMMO1        3.870   1.000   P EH
IVMMO1        7.160   1.000   S EH
YRED09        3.640   1.000   P HH
YRED09        6.770   1.000   S HH
YRED20        3.520   1.000   P HH
YRED20        6.520   1.000   S HH
YRED17        4.760   1.000   P HH
YRED17        8.780   1.000   S HH
IVT1215       4.950   1.000   P EH
IVT1215       8.940   1.000   S EH
YRED05       11.260   1.000   S HH
IVTERO        6.130   1.000   P HH
