# 2016 10 18  0 29 58.04  42.7380   13.1863    3.58  0.00  0.24  0.47  0.29    113905 E
IVT1214       1.180   1.000   P EH
IVT1214       2.080   1.000   S EH
IVT1202       1.480   1.000   P EH
IVT1202       2.760   1.000   S EH
YRED10        1.570   1.000   P HH
YRED10        2.650   1.000   S HH
YRED23        2.120   1.000   P HH
YRED23        4.070   1.000   S HH
YRED24        1.990   1.000   P HH
YRED24        3.670   1.000   S HH
IVT1218       2.170   1.000   P EH
IVT1218       3.970   1.000   S EH
IVT1212       2.480   1.000   P EH
IVT1212       4.530   1.000   S EH
IVNRCA        2.390   1.000   P HH
IVNRCA        4.410   1.000   S HH
IVT1245       3.900   1.000   P HH
IVT1245       5.420   1.000   S HH
YRED11        2.820   1.000   P HH
YRED11        5.320   1.000   S HH
IVT1299       3.040   1.000   P EH
IVT1299       5.740   1.000   S EH
YRED16        2.980   1.000   P HH
YRED16        5.700   1.000   S HH
YRED03        3.050   1.000   P HH
YRED03        5.660   1.000   S HH
YRED12        3.670   1.000   P HH
YRED12        6.780   1.000   S HH
IVLNSS        3.740   1.000   P HH
IVLNSS        6.930   1.000   S HH
IVMC2         7.250   1.000   S EH
YRED20        3.670   1.000   P HH
YRED20        6.800   1.000   S HH
YRED19        4.480   1.000   P HH
YRED19        7.520   1.000   S HH
YRED25        7.940   1.000   S HH
YRED09        3.740   1.000   P HH
YRED09        7.000   1.000   S HH
IVT1217       4.570   1.000   P EH
IVT1217       7.700   1.000   S EH
IVMMO1        3.940   1.000   P EH
IVMMO1        7.440   1.000   S EH
IVT1243       3.990   1.000   P HH
IVT1243       7.350   1.000   S HH
YRED01        4.670   1.000   P HH
YRED01        9.040   1.000   S HH
YRED02        4.770   1.000   P HH
YRED02        8.780   1.000   S HH
YRED07        5.190   1.000   P HH
YRED07        8.870   1.000   S HH
IVT1215       4.890   1.000   P EH
IVT1215       9.020   1.000   S EH
YRED17        4.970   1.000   P HH
YRED17        9.240   1.000   S HH
YRED18        5.600   1.000   P HH
YRED18        9.810   1.000   S HH
IVT1246       5.400   1.000   P HH
IVT1246       9.860   1.000   S HH
YRED22        6.300   1.000   P HH
YRED22       11.160   1.000   S HH
YRED21        6.280   1.000   P HH
YRED21       11.160   1.000   S HH
IVTERO        6.200   1.000   P HH
IVTERO       11.410   1.000   S HH
YRED15       12.760   1.000   S HH
# 2016 10 18  0 30 32.67  42.7468   13.1718    4.13  0.00  0.60  1.47  0.43    113906 E
IVT1214       1.400   1.000   P EH
IVT1214       2.520   1.000   S EH
IVT1202       3.240   1.000   S EH
YRED23        2.120   1.000   P HH
YRED23        4.160   1.000   S HH
IVT1218       2.580   1.000   P EH
IVT1218       4.440   1.000   S EH
YRED24        2.350   1.000   P HH
YRED24        4.320   1.000   S HH
IVT1212       4.520   1.000   P EH
IVNRCA        4.370   1.000   S HH
IVT1245       5.920   1.000   S HH
YRED11        5.410   1.000   S HH
YRED16        2.680   1.000   P HH
YRED16        6.330   1.000   S HH
YRED03        3.240   1.000   P HH
YRED03        5.840   1.000   S HH
YRED12        3.890   1.000   P HH
YRED12        5.880   1.000   S HH
IVMC2         6.610   1.000   S EH
YRED19        3.280   1.000   P HH
YRED19        5.350   1.000   S HH
IVT1216       3.120   1.000   P EH
IVMMO1        3.850   1.000   P EH
YRED20        6.490   1.000   S HH
YRED17        4.830   1.000   P HH
YRED17        8.960   1.000   S HH
YRED21        7.650   1.000   P HH
YRED21        9.700   1.000   S HH
# 2016 10 18  0 31  9.03  42.7902   13.2742    0.84  0.00  2.52  2.06  0.53    113907 E
IVT1214       2.080   1.000   P EH
IVT1214       3.080   1.000   S EH
IVT1245       1.870   1.000   P HH
IVT1245       4.300   1.000   S HH
IVMMO1       -0.920   1.000   P EH
IVMMO1        2.030   1.000   S EH
IVNRCA        2.050   1.000   P HH
IVMC2         6.780   1.000   S EH
YRED19        3.760   1.000   P HH
YRED19        6.280   1.000   S HH
IVT1212       2.820   1.000   P EH
YRED11        5.330   1.000   P HH
IVT1216       9.270   1.000   S EH
YRED01       11.510   1.000   S HH
# 2016 10 18  0 31 57.94  42.8545   13.2492    3.47  0.00  2.84  6.49  1.13    113908 E
IVMMO1        2.370   1.000   P EH
IVMMO1        3.490   1.000   S EH
IVT1214       2.380   1.000   P EH
IVT1214       3.110   1.000   S EH
IVNRCA        4.490   1.000   S HH
YRED10        1.670   1.000   P HH
YRED17        2.780   1.000   P HH
YRED17        4.330   1.000   S HH
YRED24        9.200   1.000   S HH
IVT1299       6.250   1.000   P EH
IVT1299       7.400   1.000   S EH
YRED25        6.730   1.000   P HH
YRED25        7.920   1.000   S HH
YRED07        7.450   1.000   P HH
YRED07        9.550   1.000   S HH
IVTERO       12.650   1.000   S HH
# 2016 10 18  0 32 10.72  42.8798   13.2767    6.90  0.00  1.62  2.61  0.49    113909 E
IVMMO1        2.260   1.000   P EH
IVMMO1        3.620   1.000   S EH
IVT1245       2.560   1.000   P HH
IVT1245       4.100   1.000   S HH
YRED17        2.620   1.000   P HH
YRED17        4.150   1.000   S HH
YRED18        3.100   1.000   P HH
YRED18        4.930   1.000   S HH
IVT1214       1.940   1.000   S EH
YRED22        3.990   1.000   P HH
YRED22        5.940   1.000   S HH
YRED25        4.830   1.000   P HH
YRED25        5.990   1.000   S HH
# 2016 10 18  0 32 23.61  42.8905   13.1557    2.09  0.00  0.45  0.75  0.27    113910 E
YRED19        1.170   1.000   P HH
YRED19        1.940   1.000   S HH
IVMC2         1.340   1.000   P EH
IVMC2         2.320   1.000   S EH
IVT1245       1.420   1.000   P HH
IVT1245       2.610   1.000   S HH
IVNRCA        1.620   1.000   P HH
IVNRCA        3.080   1.000   S HH
IVT1216       2.420   1.000   P EH
IVT1216       4.380   1.000   S EH
YRED10        1.660   1.000   P HH
YRED10        4.680   1.000   S HH
YRED18        2.810   1.000   P HH
YRED18        5.220   1.000   S HH
YRED17        5.570   1.000   S HH
IVT1214       5.870   1.000   S EH
YRED12        3.650   1.000   P HH
IVT1212       3.580   1.000   P EH
IVT1212       6.540   1.000   S EH
YRED21        3.610   1.000   P HH
YRED21        6.480   1.000   S HH
YRED22        6.950   1.000   S HH
IVCSP1        8.170   1.000   S EH
YRED11        6.250   1.000   P HH
YRED11        8.950   1.000   S HH
IVT1218       5.040   1.000   P EH
IVT1218       9.000   1.000   S EH
IVT1215       4.430   1.000   P EH
IVEL6        16.340   1.000   S EH
# 2016 10 18  0 32 31.08  42.9205   13.2612    3.24  0.00  0.46  1.21  0.31    113911 E
IVMMO1        1.620   1.000   P EH
IVMMO1        2.740   1.000   S EH
IVMC2         1.820   1.000   P EH
IVMC2         2.980   1.000   S EH
YRED17        1.700   1.000   P HH
YRED17        2.910   1.000   S HH
YRED18        2.050   1.000   P HH
YRED18        3.680   1.000   S HH
YRED19        2.470   1.000   P HH
YRED16        2.270   1.000   P HH
YRED16        4.070   1.000   S HH
YRED22        4.560   1.000   S HH
YRED21        2.840   1.000   P HH
YRED21        4.790   1.000   S HH
IVT1214       7.350   1.000   S EH
YRED10        3.700   1.000   P HH
YRED10        6.670   1.000   S HH
IVCSP1        7.320   1.000   S EH
IVT1216       3.700   1.000   P EH
IVT1216       6.960   1.000   S EH
IVT1212       9.010   1.000   S EH
IVT1218      11.930   1.000   S EH
IVCING       10.460   1.000   P HH
# 2016 10 18  0 33 45.01  42.6942   13.2602   15.93  0.00  1.11  1.78  0.61    113912 E
IVT1299       3.920   1.000   P EH
IVT1299       5.880   1.000   S EH
YRED24        5.180   1.000   P HH
YRED24        6.490   1.000   S HH
IVT1214       6.440   1.000   S EH
YRED03        3.660   1.000   P HH
YRED03        5.100   1.000   S HH
IVT1218       7.590   1.000   S EH
YRED25        4.050   1.000   P HH
YRED25        6.120   1.000   S HH
YRED16        4.110   1.000   P HH
YRED16        5.620   1.000   S HH
YRED09        5.400   1.000   P HH
YRED09        8.150   1.000   S HH
YRED07        5.370   1.000   P HH
IVT1212       4.620   1.000   P EH
IVT1212       8.540   1.000   S EH
IVT1245       4.290   1.000   P HH
IVT1245       8.260   1.000   S HH
IVNRCA        4.160   1.000   P HH
IVNRCA        6.180   1.000   S HH
IVLNSS        5.100   1.000   P HH
IVLNSS        8.070   1.000   S HH
YRED01        4.300   1.000   P HH
IVMMO1        4.390   1.000   P EH
IVMC2         5.650   1.000   P EH
YRED05        4.200   1.000   P HH
YRED12        9.160   1.000   S HH
YRED19        4.460   1.000   P HH
YRED17        4.660   1.000   P HH
YRED18        5.290   1.000   P HH
# 2016 10 18  0 34 54.63  42.7657   13.1473    1.12  0.00  0.37  0.67  0.43    113913 E
YRED10        0.460   1.000   P HH
YRED10        0.990   1.000   S HH
IVT1214       1.230   1.000   P EH
IVT1214       2.270   1.000   S EH
IVNRCA        1.860   1.000   P HH
IVNRCA        3.130   1.000   S HH
IVT1212       1.790   1.000   P EH
IVT1212       3.300   1.000   S EH
IVT1202       2.340   1.000   P EH
IVT1202       4.260   1.000   S EH
IVT1245       2.180   1.000   P HH
IVT1245       4.570   1.000   S HH
IVT1218       2.540   1.000   P EH
IVT1218       4.520   1.000   S EH
YRED23        3.790   1.000   P HH
YRED23        5.650   1.000   S HH
YRED11        5.970   1.000   S HH
YRED24        2.470   1.000   P HH
YRED24        5.010   1.000   S HH
YRED12        3.020   1.000   P HH
YRED12        5.690   1.000   S HH
IVMC2         3.850   1.000   P EH
IVMC2         6.930   1.000   S EH
YRED19        3.160   1.000   P HH
YRED19        6.280   1.000   S HH
IVT1299       3.700   1.000   P EH
IVT1299       7.060   1.000   S EH
YRED03        3.610   1.000   P HH
IVLNSS        4.460   1.000   P HH
IVLNSS        6.930   1.000   S HH
IVMMO1        4.030   1.000   P EH
IVMMO1        7.230   1.000   S EH
IVT1215       4.320   1.000   P EH
IVT1215       8.300   1.000   S EH
YRED20        7.940   1.000   S HH
YRED02        6.840   1.000   P HH
YRED02        9.610   1.000   S HH
IVT1243       8.820   1.000   S HH
YRED17        5.010   1.000   P HH
YRED17        8.930   1.000   S HH
YRED18        9.830   1.000   S HH
YRED07        5.490   1.000   P HH
YRED07       10.230   1.000   S HH
YRED22        6.000   1.000   P HH
YRED22       10.900   1.000   S HH
IVT1246       7.050   1.000   P HH
IVTERO        6.910   1.000   P HH
IVTERO       13.120   1.000   S HH
# 2016 10 18  0 35 25.81  42.8287   13.2888   18.16  0.00  1.86  2.97  0.55    113914 E
YRED23        3.900   1.000   P HH
YRED23        6.050   1.000   S HH
IVT1214       2.940   1.000   P EH
IVT1214       7.740   1.000   S EH
YRED10        3.350   1.000   P HH
YRED24        8.970   1.000   S HH
IVT1299       7.310   1.000   P EH
IVT1299       9.380   1.000   S EH
IVT1212       6.180   1.000   P EH
IVT1218       5.830   1.000   P EH
IVT1218       9.680   1.000   S EH
YRED11        7.080   1.000   P HH
YRED11       11.130   1.000   S HH
YRED03        7.330   1.000   P HH
YRED03       10.230   1.000   S HH
IVT1246      11.880   1.000   S HH
IVTERO       13.490   1.000   S HH
# 2016 10 18  0 35 37.76  42.8770   13.2333    3.22  0.00  0.36  0.84  0.31    113915 E
IVT1245       1.340   1.000   P HH
IVT1245       2.310   1.000   S HH
IVMC2         1.710   1.000   P EH
IVMC2         3.060   1.000   S EH
YRED16        1.790   1.000   P HH
YRED16        3.260   1.000   S HH
IVMMO1        1.870   1.000   P EH
IVMMO1        3.490   1.000   S EH
YRED19        2.050   1.000   P HH
YRED19        3.650   1.000   S HH
IVNRCA        2.310   1.000   P HH
IVNRCA        4.230   1.000   S HH
YRED17        2.410   1.000   P HH
YRED17        4.410   1.000   S HH
YRED18        2.870   1.000   P HH
YRED18        5.000   1.000   S HH
IVT1214       2.890   1.000   P EH
IVT1214       5.490   1.000   S EH
YRED10        2.690   1.000   P HH
YRED10        4.810   1.000   S HH
YRED23        4.220   1.000   P HH
YRED23        6.400   1.000   S HH
YRED22        3.830   1.000   P HH
YRED22        6.240   1.000   S HH
YRED21        3.710   1.000   P HH
YRED21        6.230   1.000   S HH
IVT1216       3.510   1.000   P EH
IVT1216       6.260   1.000   S EH
IVT1212       7.310   1.000   S EH
YRED20        4.110   1.000   P HH
YRED20        7.360   1.000   S HH
YRED12        7.940   1.000   S HH
IVT1218       8.690   1.000   S EH
YRED11        9.480   1.000   S HH
IVT1215       5.800   1.000   P EH
IVT1215      10.410   1.000   S EH
# 2016 10 18  0 35 57.34  42.9308   13.2580    0.13  0.00  0.75  6.61  0.40    113916 E
YRED17        1.210   1.000   P HH
YRED17        2.340   1.000   S HH
IVMC2         2.610   1.000   S EH
IVMMO1        1.570   1.000   P EH
IVMMO1        2.840   1.000   S EH
YRED18        1.460   1.000   P HH
YRED18        2.740   1.000   S HH
YRED19        1.860   1.000   P HH
YRED19        3.720   1.000   S HH
IVTERO        8.760   1.000   P HH
IVTERO       12.140   1.000   S HH
# 2016 10 18  0 36  1.16  42.5497   13.3065    5.25  0.00  0.30  0.79  0.27    113917 E
YRED04        1.630   1.000   P HH
YRED04        2.790   1.000   S HH
YRED25        2.080   1.000   P HH
YRED25        3.920   1.000   S HH
YRED05        2.170   1.000   P HH
YRED05        3.930   1.000   S HH
IVT1299       2.490   1.000   P EH
IVT1299       4.540   1.000   S EH
YRED03        2.540   1.000   P HH
YRED03        4.650   1.000   S HH
YRED06        2.510   1.000   P HH
YRED06        4.600   1.000   S HH
IVT1247       2.590   1.000   P HH
IVT1247       4.720   1.000   S HH
YRED24        3.180   1.000   P HH
YRED24        5.890   1.000   S HH
YRED14        3.170   1.000   P HH
YRED14        5.850   1.000   S HH
YRED07        3.210   1.000   P HH
YRED07        5.720   1.000   S HH
IVT1246       3.160   1.000   P HH
IVT1246       5.690   1.000   S HH
YRED01        3.410   1.000   P HH
YRED01        6.420   1.000   S HH
IVT1243       3.840   1.000   P HH
IVT1243       7.130   1.000   S HH
IVT1218       7.130   1.000   S EH
YRED15        3.800   1.000   P HH
YRED15        6.960   1.000   S HH
IVLNSS        4.240   1.000   P HH
IVLNSS        7.970   1.000   S HH
YRED20        4.160   1.000   P HH
YRED20        8.280   1.000   S HH
IVT1214       4.550   1.000   P EH
IVT1214       9.000   1.000   S EH
IVTERO        4.540   1.000   P HH
YRED11        5.400   1.000   P HH
YRED11        9.240   1.000   S HH
YRED10        9.520   1.000   S HH
IVT1212       5.510   1.000   P EH
IVT1212      10.050   1.000   S EH
YRED16       10.760   1.000   S HH
IVNRCA        6.680   1.000   P HH
IVNRCA       11.420   1.000   S HH
IVT1245      12.160   1.000   S HH
IVMMO1       12.870   1.000   S EH
YRED12        7.030   1.000   P HH
YRED12       12.670   1.000   S HH
IVMC2         6.940   1.000   P EH
IVMC2        14.290   1.000   S EH
YRED19       14.010   1.000   S HH
IVT1215       7.960   1.000   P EH
IVT1215      14.360   1.000   S EH
YRED17        8.340   1.000   P HH
YRED17       14.860   1.000   S HH
YRED18        8.550   1.000   P HH
YRED18       16.110   1.000   S HH
# 2016 10 18  0 36 25.44  42.8722   13.2362    5.12  0.00  0.60  1.46  0.31    113918 E
IVT1245       1.800   1.000   P HH
IVT1245       2.810   1.000   S HH
IVMC2         2.100   1.000   P EH
IVMC2         3.260   1.000   S EH
YRED16        3.690   1.000   S HH
IVMMO1        2.180   1.000   P EH
IVMMO1        3.650   1.000   S EH
YRED19        2.390   1.000   P HH
YRED19        3.970   1.000   S HH
IVNRCA        3.680   1.000   P HH
IVNRCA        4.710   1.000   S HH
YRED17        2.710   1.000   P HH
YRED17        4.600   1.000   S HH
IVT1214       0.990   1.000   P EH
IVT1214       5.150   1.000   S EH
YRED10        1.080   1.000   P HH
YRED10        5.320   1.000   S HH
YRED18        3.920   1.000   P HH
YRED18        5.380   1.000   S HH
IVT1218       4.040   1.000   P EH
# 2016 10 18  0 37  2.98  42.7907   13.0673    0.20  0.00  1.10  2.98  0.79    113919 E
IVT1212       2.950   1.000   P EH
IVNRCA        1.140   1.000   P HH
IVNRCA        3.290   1.000   S HH
YRED10        0.330   1.000   P HH
YRED10        1.950   1.000   S HH
YRED12        1.270   1.000   P HH
YRED12        3.350   1.000   S HH
YRED11        3.330   1.000   P HH
IVT1216       3.090   1.000   P EH
IVT1216       4.110   1.000   S EH
IVT1217       4.140   1.000   P EH
IVT1217       4.820   1.000   S EH
YRED19        6.800   1.000   S HH
IVMC2         6.220   1.000   S EH
IVMMO1        6.080   1.000   S EH
YRED17        5.180   1.000   P HH
YRED17       10.770   1.000   S HH
IVT1246      14.690   1.000   S HH
# 2016 10 18  0 37 26.27  42.7057   13.1337    8.42  0.00  0.58  1.23  0.49    113920 E
IVT1218       2.360   1.000   P EH
IVT1218       3.970   1.000   S EH
YRED24        2.920   1.000   P HH
YRED24        4.750   1.000   S HH
IVT1202       6.220   1.000   S EH
YRED10        0.440   1.000   P HH
YRED10        4.730   1.000   S HH
YRED11        2.700   1.000   P HH
YRED11        4.420   1.000   S HH
IVT1214       2.780   1.000   P EH
IVT1214       4.040   1.000   S EH
IVT1212       2.790   1.000   P EH
IVT1212       4.770   1.000   S EH
YRED03        2.830   1.000   P HH
YRED03        4.740   1.000   S HH
IVLNSS        3.310   1.000   P HH
IVLNSS        5.640   1.000   S HH
IVNRCA        2.900   1.000   P HH
IVNRCA        6.210   1.000   S HH
IVT1299       3.410   1.000   P EH
IVT1299       5.910   1.000   S EH
IVT1217       4.650   1.000   P EH
IVT1217       6.260   1.000   S EH
YRED12        3.950   1.000   P HH
YRED12        6.930   1.000   S HH
IVT1245       5.050   1.000   S HH
YRED01        3.100   1.000   P HH
YRED01        5.240   1.000   S HH
YRED16        3.320   1.000   P HH
YRED25        3.530   1.000   P HH
YRED25        5.960   1.000   S HH
IVMC2         7.230   1.000   S EH
YRED19        4.210   1.000   P HH
YRED19        7.840   1.000   S HH
IVT1215       3.120   1.000   P EH
IVT1215       8.310   1.000   S EH
YRED20        9.350   1.000   S HH
IVT1243       5.340   1.000   P HH
IVT1243       9.340   1.000   S HH
YRED17        8.710   1.000   S HH
YRED18        9.530   1.000   S HH
IVTERO        6.130   1.000   P HH
# 2016 10 18  0 38 14.35  42.7463   13.2440    5.24  0.00  4.94  4.94  0.99    113921 E
IVT1214       3.500   1.000   S EH
YRED10        0.790   1.000   P HH
IVNRCA        4.200   1.000   P HH
YRED03        3.520   1.000   P HH
YRED25        4.970   1.000   P HH
YRED25        5.890   1.000   S HH
YRED19        4.750   1.000   P HH
YRED19        7.210   1.000   S HH
YRED07        4.670   1.000   P HH
YRED07        7.390   1.000   S HH
# 2016 10 18  0 38 35.92  42.7532   13.2335    7.61  0.00  0.40  1.01  0.33    113922 E
IVT1214       2.340   1.000   P EH
IVT1214       3.490   1.000   S EH
YRED23        2.290   1.000   P HH
YRED23        4.120   1.000   S HH
YRED10        2.720   1.000   P HH
YRED10        4.160   1.000   S HH
YRED24        3.940   1.000   P HH
YRED24        5.190   1.000   S HH
IVT1245       5.390   1.000   S HH
IVNRCA        5.260   1.000   S HH
IVT1218       2.970   1.000   P EH
IVT1218       5.570   1.000   S EH
IVT1299       3.170   1.000   P EH
IVT1299       5.720   1.000   S EH
IVT1212       3.860   1.000   P EH
IVT1212       5.880   1.000   S EH
YRED09        3.420   1.000   P HH
YRED09        6.050   1.000   S HH
YRED20        6.040   1.000   S HH
YRED03        3.510   1.000   P HH
YRED03        6.410   1.000   S HH
YRED11        6.800   1.000   S HH
IVMMO1        3.780   1.000   P EH
IVMMO1        6.940   1.000   S EH
IVMC2         7.410   1.000   S EH
IVT1243       3.610   1.000   P HH
IVT1243       6.690   1.000   S HH
YRED19        6.040   1.000   P HH
YRED19        7.380   1.000   S HH
YRED12        4.110   1.000   P HH
YRED12        7.580   1.000   S HH
YRED17        4.620   1.000   P HH
YRED17        8.510   1.000   S HH
YRED18        5.320   1.000   P HH
YRED18        9.300   1.000   S HH
