# 2016 10 18  0 39 18.34  42.6898   13.2138    8.71  0.00  0.90  2.04  0.58    113923 E
YRED24        2.420   1.000   P HH
YRED24        3.940   1.000   S HH
IVT1299       2.710   1.000   P EH
IVT1299       4.320   1.000   S EH
IVT1218       2.900   1.000   P EH
IVT1218       4.720   1.000   S EH
YRED03        2.500   1.000   P HH
YRED03        3.980   1.000   S HH
YRED11        3.830   1.000   P HH
YRED11        6.590   1.000   S HH
YRED25        3.510   1.000   P HH
YRED25        5.850   1.000   S HH
IVLNSS        3.720   1.000   P HH
IVLNSS        6.370   1.000   S HH
IVT1245       2.760   1.000   P HH
IVT1243       4.540   1.000   P HH
IVT1243       7.580   1.000   S HH
YRED20        7.910   1.000   S HH
YRED01        3.870   1.000   P HH
YRED01        6.610   1.000   S HH
YRED09        5.080   1.000   P HH
YRED07        4.590   1.000   P HH
YRED07        7.790   1.000   S HH
IVMC2         3.790   1.000   P EH
IVMC2         4.870   1.000   S EH
IVMMO1        3.850   1.000   P EH
IVMMO1        5.230   1.000   S EH
YRED02        5.060   1.000   P HH
YRED02        8.560   1.000   S HH
IVT1246       4.960   1.000   P HH
IVT1246       8.480   1.000   S HH
YRED19        4.210   1.000   P HH
YRED17        4.480   1.000   P HH
IVTERO        6.170   1.000   P HH
IVTERO       10.670   1.000   S HH
YRED18        6.490   1.000   P HH
# 2016 10 18  0 39 23.94  42.6270   13.4405    2.67  0.00  5.68  6.64  0.33    113924 E
YRED09        3.140   1.000   P HH
YRED16        9.000   1.000   S HH
IVMMO1        5.240   1.000   P EH
IVT1245       3.800   1.000   P HH
YRED17        6.970   1.000   P HH
YRED19        5.580   1.000   P HH
YRED02        6.780   1.000   P HH
YRED22        9.050   1.000   P HH
YRED18        8.020   1.000   P HH
IVFIAM        8.100   1.000   P HH
# 2016 10 18  0 39 27.70  42.7270   13.1722    2.97  0.00  0.29  0.55  0.35    113925 E
IVT1214       1.130   1.000   P EH
IVT1214       2.070   1.000   S EH
IVT1202       1.270   1.000   P EH
IVT1202       2.380   1.000   S EH
YRED10        1.410   1.000   P HH
YRED10        2.750   1.000   S HH
IVT1218       2.030   1.000   P EH
IVT1218       3.380   1.000   S EH
YRED24        1.700   1.000   P HH
YRED24        3.420   1.000   S HH
YRED23        2.340   1.000   P HH
YRED23        4.580   1.000   S HH
IVT1212       2.400   1.000   P EH
IVT1212       4.110   1.000   S EH
YRED11        2.620   1.000   P HH
YRED11        4.680   1.000   S HH
IVNRCA        2.650   1.000   P HH
IVNRCA        5.190   1.000   S HH
IVT1299       3.020   1.000   P EH
IVT1299       5.720   1.000   S EH
YRED03        2.810   1.000   P HH
YRED03        5.370   1.000   S HH
IVT1245       3.360   1.000   P HH
YRED16        4.450   1.000   P HH
IVLNSS        3.530   1.000   P HH
IVLNSS        6.470   1.000   S HH
YRED12        3.730   1.000   P HH
YRED12        6.580   1.000   S HH
IVT1217       7.390   1.000   S EH
YRED25        4.240   1.000   P HH
YRED25        7.930   1.000   S HH
IVMC2         8.140   1.000   S EH
YRED19        7.840   1.000   S HH
YRED20        4.420   1.000   P HH
YRED20        7.470   1.000   S HH
IVT1216       8.250   1.000   S EH
YRED09        7.670   1.000   S HH
IVT1243       4.430   1.000   P HH
IVT1243       7.790   1.000   S HH
IVMMO1        7.830   1.000   S EH
YRED01        4.930   1.000   P HH
YRED02        8.390   1.000   S HH
IVT1215       8.750   1.000   S EH
YRED07        4.860   1.000   P HH
YRED07        9.250   1.000   S HH
YRED17        9.760   1.000   S HH
YRED18       10.970   1.000   S HH
IVT1246       5.310   1.000   P HH
IVT1246      10.300   1.000   S HH
YRED22       11.750   1.000   S HH
YRED21        5.420   1.000   P HH
YRED21       11.900   1.000   S HH
IVTERO        6.840   1.000   P HH
IVTERO       11.950   1.000   S HH
YRED14       12.750   1.000   S HH
IVCSP1        7.800   1.000   P EH
IVCSP1       13.780   1.000   S EH
# 2016 10 18  0 39 58.99  42.9052   13.2325    3.38  0.00  0.29  0.64  0.30    113926 E
IVMC2         1.460   1.000   P EH
IVMC2         2.390   1.000   S EH
IVT1245       1.620   1.000   P HH
IVT1245       2.860   1.000   S HH
IVMMO1        1.850   1.000   P EH
IVMMO1        3.370   1.000   S EH
YRED19        1.900   1.000   P HH
YRED19        3.330   1.000   S HH
YRED17        2.100   1.000   P HH
YRED17        3.740   1.000   S HH
YRED18        2.240   1.000   P HH
YRED18        3.970   1.000   S HH
YRED16        2.200   1.000   P HH
YRED16        4.000   1.000   S HH
IVNRCA        2.600   1.000   P HH
IVNRCA        4.660   1.000   S HH
YRED22        3.090   1.000   P HH
YRED22        5.330   1.000   S HH
YRED21        3.120   1.000   P HH
YRED21        5.380   1.000   S HH
YRED10        3.120   1.000   P HH
YRED10        5.620   1.000   S HH
IVT1214       3.270   1.000   P EH
IVT1214       6.380   1.000   S EH
IVT1216       3.510   1.000   P EH
IVT1216       6.440   1.000   S EH
YRED23        3.970   1.000   P HH
YRED23        7.270   1.000   S HH
YRED09        3.710   1.000   P HH
YRED09        6.740   1.000   S HH
IVCSP1        4.320   1.000   P EH
IVCSP1        7.460   1.000   S EH
IVT1212       4.480   1.000   P EH
IVT1212       8.100   1.000   S EH
YRED12        4.560   1.000   P HH
YRED12        8.240   1.000   S HH
YRED20        4.850   1.000   P HH
YRED20        7.940   1.000   S HH
IVT1218       9.550   1.000   S EH
YRED24       10.200   1.000   S HH
YRED11        9.970   1.000   S HH
IVT1243       9.940   1.000   S HH
IVT1215      10.680   1.000   S EH
IVT1217      11.040   1.000   S EH
YRED03       12.160   1.000   S HH
IVT1246       8.100   1.000   P HH
IVT1246      13.290   1.000   S HH
YRED02       13.470   1.000   S HH
IVTERO        6.770   1.000   P HH
IVTERO       14.130   1.000   S HH
# 2016 10 18  0 40 19.39  42.9298   13.2560    3.22  0.00  0.48  1.31  0.27    113927 E
IVMC2         1.850   1.000   P EH
IVMC2         3.020   1.000   S EH
YRED17        1.560   1.000   P HH
YRED17        2.810   1.000   S HH
IVMMO1        1.800   1.000   P EH
IVMMO1        3.160   1.000   S EH
YRED18        1.820   1.000   P HH
YRED18        3.160   1.000   S HH
YRED19        2.280   1.000   P HH
YRED19        3.940   1.000   S HH
IVT1245       4.120   1.000   S HH
YRED22        2.440   1.000   P HH
YRED22        4.240   1.000   S HH
YRED16        4.590   1.000   S HH
YRED21        2.460   1.000   P HH
YRED21        4.340   1.000   S HH
IVNRCA        3.210   1.000   P HH
IVNRCA        6.060   1.000   S HH
YRED10        3.790   1.000   P HH
YRED10        6.810   1.000   S HH
IVT1212       5.550   1.000   P EH
IVT1212       9.160   1.000   S EH
# 2016 10 18  0 40 28.26  42.8957   13.2447    2.03  0.00  0.34  1.78  0.23    113928 E
IVMC2         1.530   1.000   P EH
IVMC2         2.600   1.000   S EH
IVT1245       1.600   1.000   P HH
IVT1245       2.990   1.000   S HH
IVMMO1        1.720   1.000   P EH
IVMMO1        3.090   1.000   S EH
YRED16        1.760   1.000   P HH
YRED16        3.600   1.000   S HH
YRED19        2.010   1.000   P HH
YRED19        3.610   1.000   S HH
YRED17        0.640   1.000   P HH
YRED17        3.840   1.000   S HH
YRED18        1.800   1.000   P HH
YRED18        4.640   1.000   S HH
YRED10        3.160   1.000   P HH
YRED10        5.370   1.000   S HH
IVT1218       9.980   1.000   S EH
# 2016 10 18  0 40 57.44  42.7205   13.2187    8.44  0.00  0.31  0.75  0.31    113929 E
IVT1202       2.220   1.000   P EH
IVT1202       4.130   1.000   S EH
IVT1214       2.250   1.000   P EH
IVT1214       4.020   1.000   S EH
YRED23        2.490   1.000   P HH
YRED23        4.490   1.000   S HH
YRED24        2.470   1.000   P HH
YRED24        4.450   1.000   S HH
YRED10        2.490   1.000   P HH
YRED10        4.610   1.000   S HH
IVT1218       2.770   1.000   P EH
IVT1218       4.820   1.000   S EH
IVT1299       2.860   1.000   P EH
IVT1299       5.100   1.000   S EH
YRED03        3.100   1.000   P HH
YRED03        5.540   1.000   S HH
IVT1212       3.290   1.000   P EH
IVT1212       5.750   1.000   S EH
YRED16        3.460   1.000   P HH
YRED16        6.240   1.000   S HH
IVNRCA        5.950   1.000   S HH
IVT1245       2.080   1.000   P HH
IVT1245       6.320   1.000   S HH
YRED11        3.360   1.000   P HH
YRED11        6.040   1.000   S HH
YRED25        3.920   1.000   P HH
YRED25        7.040   1.000   S HH
YRED20        3.590   1.000   P HH
YRED20        6.420   1.000   S HH
YRED09        3.730   1.000   P HH
YRED09        6.680   1.000   S HH
IVT1243       3.790   1.000   P HH
IVT1243       6.740   1.000   S HH
IVLNSS        3.970   1.000   P HH
IVLNSS        7.080   1.000   S HH
IVMC2         8.120   1.000   S EH
IVMMO1        4.350   1.000   P EH
IVMMO1        7.900   1.000   S EH
YRED12        7.900   1.000   S HH
YRED07        5.500   1.000   P HH
YRED07        7.820   1.000   S HH
YRED19        5.520   1.000   P HH
YRED19        8.280   1.000   S HH
IVT1217       5.610   1.000   P EH
YRED02        5.080   1.000   P HH
YRED02        9.090   1.000   S HH
IVT1246       5.040   1.000   P HH
IVT1246       8.820   1.000   S HH
YRED17        5.210   1.000   P HH
YRED17        9.600   1.000   S HH
IVT1215       4.650   1.000   P EH
IVT1215       9.990   1.000   S EH
YRED18        5.160   1.000   P HH
YRED18       10.320   1.000   S HH
YRED22        6.240   1.000   P HH
YRED22       11.240   1.000   S HH
IVTERO        5.720   1.000   P HH
IVTERO       10.410   1.000   S HH
YRED21        6.540   1.000   P HH
YRED21       11.670   1.000   S HH
# 2016 10 18  0 41 46.09  42.8087   13.2197    4.02  0.00  0.21  0.75  0.25    113930 E
IVT1214       1.500   1.000   P EH
IVT1214       2.910   1.000   S EH
IVT1245       1.530   1.000   P HH
IVT1245       2.910   1.000   S HH
YRED10        1.740   1.000   P HH
YRED10        3.080   1.000   S HH
YRED16        1.860   1.000   P HH
YRED16        3.390   1.000   S HH
IVNRCA        1.990   1.000   P HH
IVNRCA        3.750   1.000   S HH
YRED23        2.060   1.000   P HH
YRED23        4.080   1.000   S HH
IVMC2         2.700   1.000   P EH
IVMC2         4.790   1.000   S EH
IVT1202       2.580   1.000   P EH
IVT1202       4.860   1.000   S EH
IVMMO1        2.640   1.000   P EH
IVMMO1        4.950   1.000   S EH
YRED19        2.840   1.000   P HH
YRED19        5.250   1.000   S HH
IVT1212       3.220   1.000   P EH
IVT1212       5.630   1.000   S EH
YRED09        3.080   1.000   P HH
YRED09        5.750   1.000   S HH
YRED24        3.340   1.000   P HH
YRED24        6.710   1.000   S HH
IVT1218       3.820   1.000   P EH
IVT1218       6.460   1.000   S EH
IVT1216       3.540   1.000   P EH
YRED20        3.450   1.000   P HH
YRED20        6.290   1.000   S HH
YRED17        3.530   1.000   P HH
YRED17        6.490   1.000   S HH
YRED12        3.840   1.000   P HH
YRED12        7.020   1.000   S HH
IVT1299       3.900   1.000   P EH
IVT1299       7.270   1.000   S EH
YRED11        3.900   1.000   P HH
YRED11        7.240   1.000   S HH
YRED18        3.890   1.000   P HH
YRED18        7.340   1.000   S HH
IVT1243       4.320   1.000   P HH
IVT1243       7.530   1.000   S HH
YRED03        4.370   1.000   P HH
YRED03        8.170   1.000   S HH
YRED22        4.480   1.000   P HH
YRED22        8.300   1.000   S HH
YRED21        4.540   1.000   P HH
YRED21        8.420   1.000   S HH
YRED25        4.740   1.000   P HH
YRED25        9.050   1.000   S HH
IVT1217       5.200   1.000   P EH
IVT1217       8.830   1.000   S EH
IVLNSS        5.020   1.000   P HH
IVLNSS        9.390   1.000   S HH
YRED07        4.900   1.000   P HH
YRED07        9.530   1.000   S HH
IVT1215       5.220   1.000   P EH
IVT1215       9.520   1.000   S EH
IVGUMA       11.010   1.000   S HH
IVCSP1        5.660   1.000   P EH
IVCSP1       10.500   1.000   S EH
YRED02        5.900   1.000   P HH
YRED02       10.980   1.000   S HH
YRED01        6.070   1.000   P HH
YRED01       11.070   1.000   S HH
IVT1246       5.790   1.000   P HH
IVT1246      10.680   1.000   S HH
IVCESI        6.080   1.000   P HH
IVCESI       11.340   1.000   S HH
IVTERO        6.320   1.000   P HH
YRED05        6.830   1.000   P HH
YRED05       12.530   1.000   S HH
IVOFFI        8.050   1.000   P HH
YRED15       12.870   1.000   S HH
IVT1211      13.710   1.000   S EH
YRED14        7.580   1.000   P HH
YRED14       14.020   1.000   S HH
IVGIGS       15.370   1.000   S HH
IVSNTG        9.260   1.000   P HH
IVEL6        10.030   1.000   P EH
IVFIAM       10.020   1.000   P HH
IVCING       10.830   1.000   P HH
IVATCC       10.460   1.000   P EH
IVATFO       13.740   1.000   P HH
IVFRON       14.730   1.000   P EH
# 2016 10 18  0 42 18.51  42.8583   13.0660    5.09  0.00  0.38  0.90  0.25    113931 E
IVNRCA        1.770   1.000   P HH
IVNRCA        3.420   1.000   S HH
IVT1216       1.660   1.000   P EH
IVT1216       2.950   1.000   S EH
YRED19        2.300   1.000   P HH
YRED19        4.140   1.000   S HH
YRED12        2.280   1.000   P HH
YRED12        4.080   1.000   S HH
IVT1245       2.670   1.000   P HH
IVT1245       4.560   1.000   S HH
YRED10        2.510   1.000   P HH
YRED10        4.490   1.000   S HH
IVT1212       2.710   1.000   P EH
IVT1212       4.870   1.000   S EH
IVT1214       3.350   1.000   P EH
IVT1214       6.020   1.000   S EH
IVT1215       3.240   1.000   P EH
IVT1215       5.920   1.000   S EH
YRED11        4.330   1.000   P HH
YRED11        7.090   1.000   S HH
IVT1217       6.940   1.000   S EH
YRED16        7.420   1.000   S HH
YRED18        4.150   1.000   P HH
YRED18        7.210   1.000   S HH
IVT1218       7.340   1.000   S EH
IVMMO1        7.630   1.000   S EH
YRED17        4.390   1.000   P HH
YRED17        7.880   1.000   S HH
YRED21        4.720   1.000   P HH
YRED21        8.640   1.000   S HH
YRED22        9.250   1.000   S HH
# 2016 10 18  0 42 36.42  42.8363   12.9360    4.94  0.00  0.64  1.16  0.25    113932 E
YRED12        1.750   1.000   P HH
YRED12        3.270   1.000   S HH
IVT1215       1.970   1.000   P EH
IVT1215       3.250   1.000   S EH
IVT1216       2.180   1.000   P EH
IVT1216       4.060   1.000   S EH
IVT1212       3.000   1.000   P EH
IVT1212       5.320   1.000   S EH
IVT1217       2.890   1.000   P EH
IVT1217       5.320   1.000   S EH
YRED11        3.500   1.000   P HH
YRED11        6.590   1.000   S HH
YRED19        2.840   1.000   P HH
YRED19        6.800   1.000   S HH
IVT1218       9.370   1.000   S EH
IVMMO1       10.680   1.000   S EH
YRED17        5.810   1.000   P HH
# 2016 10 18  0 42 44.64  42.7975   13.1732    9.66  0.00  2.03  3.25  0.94    113933 E
YRED10        3.000   1.000   P HH
YRED10        4.290   1.000   S HH
IVT1214       4.110   1.000   S EH
IVNRCA        5.930   1.000   S HH
YRED16        1.840   1.000   P HH
YRED16        5.310   1.000   S HH
YRED19        5.100   1.000   P HH
YRED19        6.640   1.000   S HH
IVT1216       4.610   1.000   P EH
IVT1216       5.640   1.000   S EH
YRED09        4.660   1.000   P HH
YRED09        7.220   1.000   S HH
YRED17        2.630   1.000   P HH
YRED17        8.400   1.000   S HH
IVT1217       5.190   1.000   P EH
IVT1217       6.760   1.000   S EH
YRED20        4.940   1.000   P HH
YRED20        7.870   1.000   S HH
# 2016 10 18  0 43 26.09  42.8212   13.1733    2.94  0.00  0.54  0.95  0.53    113934 E
IVT1245       1.160   1.000   P HH
IVT1245       2.030   1.000   S HH
IVNRCA        1.330   1.000   P HH
IVNRCA        2.320   1.000   S HH
YRED10        1.440   1.000   P HH
YRED10        2.460   1.000   S HH
IVT1214       1.860   1.000   P EH
IVT1214       3.300   1.000   S EH
IVMC2         2.410   1.000   P EH
IVMC2         4.530   1.000   S EH
YRED16        4.110   1.000   S HH
YRED19        2.450   1.000   P HH
YRED19        4.320   1.000   S HH
YRED23        4.370   1.000   P HH
IVT1212       5.110   1.000   S EH
IVT1202       3.620   1.000   P EH
IVT1202       5.520   1.000   S EH
IVMMO1        2.950   1.000   P EH
IVMMO1        5.510   1.000   S EH
IVT1218       3.670   1.000   P EH
IVT1218       5.390   1.000   S EH
YRED24        3.300   1.000   P HH
YRED24        4.840   1.000   S HH
YRED11        4.710   1.000   P HH
YRED11        7.030   1.000   S HH
YRED17        3.600   1.000   P HH
YRED17        6.750   1.000   S HH
YRED18        4.380   1.000   P HH
YRED18        7.120   1.000   S HH
YRED09        5.740   1.000   P HH
YRED20        5.370   1.000   P HH
YRED20        7.720   1.000   S HH
YRED22        4.170   1.000   P HH
YRED22        8.790   1.000   S HH
YRED03        3.630   1.000   P HH
YRED21        4.650   1.000   P HH
YRED21        8.580   1.000   S HH
IVT1215       8.880   1.000   S EH
IVT1243       5.380   1.000   P HH
IVT1243       8.600   1.000   S HH
IVLNSS        4.690   1.000   P HH
IVLNSS        7.350   1.000   S HH
YRED25        4.650   1.000   P HH
YRED25        7.260   1.000   S HH
YRED07        5.560   1.000   P HH
YRED07        8.890   1.000   S HH
IVT1246       9.980   1.000   S HH
IVTERO        7.080   1.000   P HH
IVTERO       11.620   1.000   S HH
# 2016 10 18  0 43 45.15  42.8623   13.0840    3.90  0.00  0.49  0.49  0.29    113935 E
IVNRCA        1.760   1.000   P HH
IVNRCA        2.410   1.000   S HH
YRED19        2.120   1.000   P HH
YRED19        3.580   1.000   S HH
IVT1245       3.810   1.000   S HH
IVMC2         3.110   1.000   P EH
IVMC2         4.810   1.000   S EH
YRED12        4.370   1.000   S HH
IVT1212       2.490   1.000   P EH
IVT1212       5.130   1.000   S EH
YRED16        7.090   1.000   S HH
IVT1215       6.730   1.000   S EH
YRED18        3.810   1.000   P HH
YRED18        6.770   1.000   S HH
YRED11        5.650   1.000   P HH
YRED11        7.420   1.000   S HH
IVMMO1        4.040   1.000   P EH
IVMMO1        7.230   1.000   S EH
IVT1217       4.330   1.000   P EH
IVT1217       7.650   1.000   S EH
IVT1218       7.840   1.000   S EH
YRED17        4.160   1.000   P HH
YRED17        7.520   1.000   S HH
YRED21        4.690   1.000   P HH
YRED21        8.220   1.000   S HH
YRED22        4.960   1.000   P HH
YRED22        8.880   1.000   S HH
# 2016 10 18  0 43 55.57  42.8685   13.0732    4.07  0.00  0.74  3.35  0.26    113936 E
YRED19        2.330   1.000   P HH
IVT1245       3.930   1.000   S HH
YRED12        1.570   1.000   P HH
YRED12        4.570   1.000   S HH
IVT1212       5.110   1.000   P EH
IVT1212       5.310   1.000   S EH
IVT1215       6.920   1.000   S EH
YRED16        7.210   1.000   S HH
YRED18        7.330   1.000   S HH
IVMMO1        4.010   1.000   P EH
IVMMO1        7.440   1.000   S EH
YRED17        5.980   1.000   P HH
YRED17        7.740   1.000   S HH
IVT1218       4.550   1.000   P EH
IVT1218       8.080   1.000   S EH
YRED21        8.470   1.000   S HH
IVT1299       7.750   1.000   P EH
IVTERO        9.910   1.000   P HH
# 2016 10 18  0 44 24.14  42.5842   13.3043    2.72  0.00  0.41  0.61  0.25    113937 E
YRED04        1.020   1.000   P HH
YRED04        1.730   1.000   S HH
YRED25        1.480   1.000   P HH
YRED25        2.640   1.000   S HH
IVT1299       1.570   1.000   P EH
IVT1299       2.920   1.000   S EH
YRED24        2.600   1.000   P HH
YRED24        4.850   1.000   S HH
YRED05        2.600   1.000   P HH
YRED05        4.870   1.000   S HH
YRED07        2.930   1.000   P HH
YRED07        5.340   1.000   S HH
IVT1246       3.060   1.000   P HH
IVT1246       5.630   1.000   S HH
IVT1243       3.980   1.000   P HH
IVT1243       6.320   1.000   S HH
YRED01        3.460   1.000   P HH
YRED01        6.490   1.000   S HH
YRED14        3.700   1.000   P HH
YRED14        7.100   1.000   S HH
IVTERO        4.610   1.000   P HH
IVTERO        8.250   1.000   S HH
